{
  "type": "FeatureCollection",
  "name": "Great Bridge",
  "coordinateReferenceSystem": {
    "type": "local-cartesian",
    "note": "NOT WGS84. Canonical game units, lower-left origin, +y up.",
    "canvas": {
      "width": 2868.0,
      "height": 2064.0
    },
    "playArea": {
      "x": 474.0,
      "y": 492.0,
      "width": 1920.0,
      "height": 1080.0
    }
  },
  "metadata": {
    "level": 3,
    "levelId": "55a5d12d-3cea-475f-aa8d-125271a8a0c2",
    "levelName": "Great Bridge",
    "geometrySource": "Existing Db/DML/Levels SQL routes and tower slots; no route geometry changed."
  },
  "startingGold": 300,
  "lives": 20,
  "features": [
    {
      "type": "Feature",
      "id": "gameplay.path.0",
      "geometry": {
        "type": "LineString",
        "coordinates": [
          [
            875.9,
            678.2
          ],
          [
            879.5,
            680.0
          ],
          [
            883.0,
            681.9
          ],
          [
            886.5,
            683.8
          ],
          [
            890.1,
            685.6
          ],
          [
            893.6,
            687.5
          ],
          [
            897.2,
            689.2
          ],
          [
            900.8,
            691.1
          ],
          [
            904.4,
            693.0
          ],
          [
            907.9,
            694.8
          ],
          [
            911.5,
            696.6
          ],
          [
            915.0,
            698.5
          ],
          [
            918.5,
            700.3
          ],
          [
            922.1,
            702.2
          ],
          [
            925.6,
            704.0
          ],
          [
            929.2,
            705.8
          ],
          [
            932.8,
            707.7
          ],
          [
            936.3,
            709.5
          ],
          [
            939.9,
            711.3
          ],
          [
            943.4,
            713.2
          ],
          [
            947.0,
            715.0
          ],
          [
            950.5,
            716.8
          ],
          [
            954.0,
            718.7
          ],
          [
            957.6,
            720.5
          ],
          [
            961.1,
            722.4
          ],
          [
            964.7,
            724.2
          ],
          [
            968.2,
            726.1
          ],
          [
            971.8,
            728.0
          ],
          [
            975.3,
            729.8
          ],
          [
            978.9,
            731.7
          ],
          [
            982.4,
            733.5
          ],
          [
            986.0,
            735.4
          ],
          [
            989.5,
            737.2
          ],
          [
            993.0,
            739.1
          ],
          [
            996.5,
            741.0
          ],
          [
            1000.1,
            742.8
          ],
          [
            1003.6,
            744.7
          ],
          [
            1007.2,
            746.6
          ],
          [
            1010.7,
            748.5
          ],
          [
            1014.2,
            750.3
          ],
          [
            1017.8,
            752.2
          ],
          [
            1021.3,
            754.1
          ],
          [
            1024.8,
            756.0
          ],
          [
            1028.3,
            757.9
          ],
          [
            1031.8,
            759.8
          ],
          [
            1035.3,
            761.7
          ],
          [
            1038.8,
            763.7
          ],
          [
            1042.3,
            765.7
          ],
          [
            1045.8,
            767.6
          ],
          [
            1049.3,
            769.6
          ],
          [
            1052.8,
            771.6
          ],
          [
            1056.2,
            773.7
          ],
          [
            1059.7,
            775.7
          ],
          [
            1063.1,
            777.7
          ],
          [
            1066.5,
            779.8
          ],
          [
            1070.0,
            781.8
          ],
          [
            1073.4,
            783.8
          ],
          [
            1076.8,
            785.9
          ],
          [
            1080.2,
            788.0
          ],
          [
            1083.7,
            790.0
          ],
          [
            1087.1,
            792.1
          ],
          [
            1090.5,
            794.2
          ],
          [
            1094.0,
            796.2
          ],
          [
            1097.4,
            798.3
          ],
          [
            1100.8,
            800.3
          ],
          [
            1104.2,
            802.4
          ],
          [
            1107.7,
            804.5
          ],
          [
            1111.1,
            806.5
          ],
          [
            1114.5,
            808.5
          ],
          [
            1118.0,
            810.5
          ],
          [
            1121.5,
            812.5
          ],
          [
            1125.0,
            814.5
          ],
          [
            1128.4,
            816.5
          ],
          [
            1131.9,
            818.5
          ],
          [
            1135.4,
            820.5
          ],
          [
            1138.8,
            822.5
          ],
          [
            1142.4,
            824.3
          ],
          [
            1145.9,
            826.2
          ],
          [
            1149.4,
            828.2
          ],
          [
            1153.0,
            830.0
          ],
          [
            1156.5,
            831.9
          ],
          [
            1160.0,
            833.8
          ],
          [
            1163.6,
            835.5
          ],
          [
            1167.2,
            837.3
          ],
          [
            1170.8,
            839.1
          ],
          [
            1174.4,
            840.8
          ],
          [
            1178.0,
            842.5
          ],
          [
            1181.7,
            844.2
          ],
          [
            1185.2,
            845.8
          ],
          [
            1189.0,
            847.5
          ],
          [
            1192.6,
            849.1
          ],
          [
            1196.3,
            850.7
          ],
          [
            1200.0,
            852.2
          ],
          [
            1203.7,
            853.7
          ],
          [
            1207.4,
            855.2
          ],
          [
            1211.2,
            856.5
          ],
          [
            1214.9,
            858.0
          ],
          [
            1218.7,
            859.3
          ],
          [
            1222.5,
            860.7
          ],
          [
            1226.2,
            862.0
          ],
          [
            1230.0,
            863.2
          ],
          [
            1233.8,
            864.5
          ],
          [
            1237.6,
            865.7
          ],
          [
            1241.4,
            866.9
          ],
          [
            1245.2,
            868.1
          ],
          [
            1249.0,
            869.3
          ],
          [
            1252.9,
            870.4
          ],
          [
            1256.8,
            871.5
          ],
          [
            1260.6,
            872.7
          ],
          [
            1264.4,
            873.8
          ],
          [
            1268.2,
            874.8
          ],
          [
            1272.2,
            875.9
          ],
          [
            1276.0,
            877.0
          ],
          [
            1279.8,
            878.0
          ],
          [
            1283.7,
            879.0
          ],
          [
            1287.6,
            880.0
          ],
          [
            1291.5,
            881.1
          ],
          [
            1295.3,
            882.1
          ],
          [
            1299.2,
            883.1
          ],
          [
            1303.0,
            884.1
          ],
          [
            1307.0,
            885.1
          ],
          [
            1310.8,
            886.1
          ],
          [
            1314.7,
            887.1
          ],
          [
            1318.5,
            888.0
          ],
          [
            1322.5,
            889.0
          ],
          [
            1326.3,
            890.0
          ],
          [
            1330.2,
            891.0
          ],
          [
            1334.0,
            892.0
          ],
          [
            1338.0,
            893.0
          ],
          [
            1341.8,
            894.0
          ],
          [
            1345.7,
            895.0
          ],
          [
            1349.5,
            896.0
          ],
          [
            1353.5,
            897.0
          ],
          [
            1357.3,
            898.0
          ],
          [
            1361.2,
            899.1
          ],
          [
            1365.0,
            900.2
          ],
          [
            1368.9,
            901.2
          ],
          [
            1372.8,
            902.2
          ],
          [
            1376.6,
            903.3
          ],
          [
            1380.5,
            904.5
          ],
          [
            1384.2,
            905.5
          ],
          [
            1388.1,
            906.7
          ],
          [
            1392.0,
            907.8
          ],
          [
            1395.8,
            909.0
          ],
          [
            1399.6,
            910.2
          ],
          [
            1403.4,
            911.4
          ],
          [
            1407.2,
            912.6
          ],
          [
            1411.0,
            913.8
          ],
          [
            1414.8,
            915.1
          ],
          [
            1418.6,
            916.4
          ],
          [
            1422.4,
            917.7
          ],
          [
            1426.2,
            919.0
          ],
          [
            1430.0,
            920.3
          ],
          [
            1433.7,
            921.7
          ],
          [
            1437.5,
            923.0
          ],
          [
            1441.2,
            924.3
          ],
          [
            1445.0,
            925.7
          ],
          [
            1448.8,
            927.0
          ],
          [
            1452.5,
            928.5
          ],
          [
            1456.2,
            929.8
          ],
          [
            1460.0,
            931.2
          ],
          [
            1463.8,
            932.7
          ],
          [
            1467.5,
            934.0
          ],
          [
            1471.2,
            935.5
          ],
          [
            1475.0,
            936.8
          ],
          [
            1478.8,
            938.3
          ],
          [
            1482.5,
            939.7
          ],
          [
            1486.2,
            941.2
          ],
          [
            1490.0,
            942.6
          ],
          [
            1493.7,
            944.0
          ],
          [
            1497.4,
            945.5
          ],
          [
            1501.2,
            946.9
          ],
          [
            1504.8,
            948.3
          ],
          [
            1508.6,
            949.8
          ],
          [
            1512.3,
            951.2
          ],
          [
            1516.0,
            952.7
          ],
          [
            1519.8,
            954.0
          ],
          [
            1523.5,
            955.5
          ],
          [
            1527.3,
            956.9
          ],
          [
            1531.0,
            958.3
          ],
          [
            1534.8,
            959.8
          ],
          [
            1538.5,
            961.2
          ],
          [
            1542.2,
            962.5
          ],
          [
            1546.0,
            963.9
          ],
          [
            1549.8,
            965.3
          ],
          [
            1553.5,
            966.7
          ],
          [
            1557.3,
            968.0
          ],
          [
            1561.0,
            969.4
          ],
          [
            1564.8,
            970.8
          ],
          [
            1568.6,
            972.0
          ],
          [
            1572.3,
            973.4
          ],
          [
            1576.2,
            974.7
          ],
          [
            1580.0,
            976.0
          ],
          [
            1583.8,
            977.2
          ],
          [
            1587.5,
            978.5
          ],
          [
            1591.3,
            979.8
          ],
          [
            1595.2,
            981.0
          ],
          [
            1599.0,
            982.2
          ],
          [
            1602.8,
            983.3
          ],
          [
            1606.6,
            984.5
          ],
          [
            1610.5,
            985.5
          ],
          [
            1614.3,
            986.6
          ],
          [
            1618.2,
            987.6
          ],
          [
            1622.0,
            988.6
          ],
          [
            1626.0,
            989.6
          ],
          [
            1629.8,
            990.5
          ],
          [
            1633.7,
            991.5
          ],
          [
            1637.6,
            992.4
          ],
          [
            1641.5,
            993.2
          ],
          [
            1645.4,
            994.2
          ],
          [
            1649.3,
            995.0
          ],
          [
            1653.2,
            995.8
          ],
          [
            1657.2,
            996.7
          ],
          [
            1661.0,
            997.5
          ],
          [
            1665.0,
            998.3
          ],
          [
            1668.9,
            999.2
          ],
          [
            1672.8,
            1000.0
          ],
          [
            1676.7,
            1000.8
          ],
          [
            1680.7,
            1001.7
          ],
          [
            1684.5,
            1002.5
          ],
          [
            1688.5,
            1003.3
          ],
          [
            1692.3,
            1004.1
          ],
          [
            1696.3,
            1005.0
          ],
          [
            1700.2,
            1005.8
          ],
          [
            1704.1,
            1006.7
          ],
          [
            1708.0,
            1007.5
          ],
          [
            1711.9,
            1008.4
          ],
          [
            1715.8,
            1009.3
          ],
          [
            1719.7,
            1010.2
          ],
          [
            1723.5,
            1011.2
          ],
          [
            1727.5,
            1012.2
          ],
          [
            1731.3,
            1013.2
          ],
          [
            1735.2,
            1014.2
          ],
          [
            1739.0,
            1015.3
          ],
          [
            1742.9,
            1016.4
          ],
          [
            1746.7,
            1017.5
          ],
          [
            1750.5,
            1018.7
          ],
          [
            1754.3,
            1020.0
          ],
          [
            1758.2,
            1021.2
          ],
          [
            1761.9,
            1022.6
          ],
          [
            1765.7,
            1024.0
          ],
          [
            1769.3,
            1025.5
          ],
          [
            1773.0,
            1027.0
          ],
          [
            1776.7,
            1028.7
          ],
          [
            1780.3,
            1030.3
          ],
          [
            1783.9,
            1032.1
          ],
          [
            1787.5,
            1034.0
          ],
          [
            1790.9,
            1036.0
          ],
          [
            1794.3,
            1038.1
          ],
          [
            1797.7,
            1040.2
          ],
          [
            1801.0,
            1042.5
          ],
          [
            1804.2,
            1045.0
          ],
          [
            1807.3,
            1047.4
          ],
          [
            1810.3,
            1050.0
          ],
          [
            1813.3,
            1052.6
          ],
          [
            1816.3,
            1055.3
          ],
          [
            1819.2,
            1058.1
          ],
          [
            1822.0,
            1061.0
          ],
          [
            1824.8,
            1063.9
          ],
          [
            1827.4,
            1066.8
          ],
          [
            1830.0,
            1069.8
          ],
          [
            1832.7,
            1072.9
          ],
          [
            1835.2,
            1076.0
          ],
          [
            1837.7,
            1079.1
          ],
          [
            1840.2,
            1082.2
          ],
          [
            1842.7,
            1085.3
          ],
          [
            1845.1,
            1088.5
          ],
          [
            1847.5,
            1091.7
          ],
          [
            1850.0,
            1094.8
          ],
          [
            1852.5,
            1098.0
          ],
          [
            1855.0,
            1101.2
          ],
          [
            1857.5,
            1104.2
          ],
          [
            1860.0,
            1107.3
          ],
          [
            1862.5,
            1110.4
          ],
          [
            1865.2,
            1113.5
          ],
          [
            1867.8,
            1116.4
          ],
          [
            1870.5,
            1119.4
          ],
          [
            1873.3,
            1122.2
          ],
          [
            1876.2,
            1125.0
          ],
          [
            1879.0,
            1127.8
          ],
          [
            1882.0,
            1130.5
          ],
          [
            1885.0,
            1133.2
          ],
          [
            1888.2,
            1135.7
          ],
          [
            1891.3,
            1138.1
          ],
          [
            1894.5,
            1140.5
          ],
          [
            1897.8,
            1142.9
          ],
          [
            1901.0,
            1145.2
          ],
          [
            1904.3,
            1147.5
          ],
          [
            1907.6,
            1149.7
          ],
          [
            1911.0,
            1151.9
          ],
          [
            1914.3,
            1154.0
          ],
          [
            1917.7,
            1156.2
          ],
          [
            1921.1,
            1158.3
          ],
          [
            1924.5,
            1160.4
          ],
          [
            1928.0,
            1162.5
          ],
          [
            1931.4,
            1164.5
          ],
          [
            1934.8,
            1166.5
          ],
          [
            1938.3,
            1168.5
          ],
          [
            1941.8,
            1170.5
          ],
          [
            1945.2,
            1172.5
          ],
          [
            1948.7,
            1174.5
          ],
          [
            1952.2,
            1176.5
          ],
          [
            1955.7,
            1178.4
          ],
          [
            1959.2,
            1180.3
          ],
          [
            1962.7,
            1182.3
          ],
          [
            1966.2,
            1184.3
          ],
          [
            1969.6,
            1186.2
          ],
          [
            1973.1,
            1188.2
          ],
          [
            1976.5,
            1190.2
          ],
          [
            1980.0,
            1192.2
          ],
          [
            1983.5,
            1194.2
          ],
          [
            1987.0,
            1196.2
          ],
          [
            1990.4,
            1198.3
          ],
          [
            1993.8,
            1200.3
          ],
          [
            1997.2,
            1202.5
          ],
          [
            2000.6,
            1204.5
          ],
          [
            2004.0,
            1206.7
          ],
          [
            2007.3,
            1208.8
          ],
          [
            2010.7,
            1211.0
          ],
          [
            2014.0,
            1213.3
          ],
          [
            2017.3,
            1215.5
          ],
          [
            2020.6,
            1217.8
          ],
          [
            2023.8,
            1220.2
          ],
          [
            2027.0,
            1222.6
          ],
          [
            2030.2,
            1225.0
          ],
          [
            2033.4,
            1227.5
          ],
          [
            2036.5,
            1229.9
          ],
          [
            2039.7,
            1232.3
          ],
          [
            2042.9,
            1234.8
          ],
          [
            2046.1,
            1237.2
          ],
          [
            2049.2,
            1239.8
          ],
          [
            2052.3,
            1242.2
          ],
          [
            2055.4,
            1244.7
          ],
          [
            2058.6,
            1247.2
          ],
          [
            2061.7,
            1249.8
          ],
          [
            2064.8,
            1252.2
          ],
          [
            2067.8,
            1254.8
          ],
          [
            2070.9,
            1257.3
          ],
          [
            2074.0,
            1259.9
          ],
          [
            2077.1,
            1262.5
          ],
          [
            2080.1,
            1265.1
          ],
          [
            2083.1,
            1267.7
          ],
          [
            2086.2,
            1270.3
          ],
          [
            2089.2,
            1273.0
          ],
          [
            2092.1,
            1275.7
          ],
          [
            2095.1,
            1278.3
          ],
          [
            2098.0,
            1281.0
          ],
          [
            2100.9,
            1283.8
          ],
          [
            2103.8,
            1286.5
          ],
          [
            2106.7,
            1289.3
          ],
          [
            2109.6,
            1292.2
          ],
          [
            2112.4,
            1295.0
          ],
          [
            2115.2,
            1297.8
          ],
          [
            2117.9,
            1300.8
          ],
          [
            2120.7,
            1303.7
          ],
          [
            2123.3,
            1306.7
          ],
          [
            2126.0,
            1309.7
          ],
          [
            2128.6,
            1312.7
          ],
          [
            2131.1,
            1315.8
          ],
          [
            2133.6,
            1318.9
          ],
          [
            2136.0,
            1322.1
          ],
          [
            2138.3,
            1325.3
          ],
          [
            2140.6,
            1328.7
          ],
          [
            2142.7,
            1332.1
          ],
          [
            2144.6,
            1335.6
          ],
          [
            2146.3,
            1339.2
          ],
          [
            2148.1,
            1342.8
          ],
          [
            2149.6,
            1346.5
          ],
          [
            2150.9,
            1350.2
          ],
          [
            2152.2,
            1354.0
          ],
          [
            2153.4,
            1357.8
          ],
          [
            2154.6,
            1361.7
          ],
          [
            2155.6,
            1365.5
          ],
          [
            2156.4,
            1369.5
          ],
          [
            2157.3,
            1373.3
          ],
          [
            2158.1,
            1377.3
          ],
          [
            2158.8,
            1381.2
          ],
          [
            2159.3,
            1385.2
          ],
          [
            2159.9,
            1389.2
          ],
          [
            2160.4,
            1393.1
          ],
          [
            2160.9,
            1397.1
          ],
          [
            2161.4,
            1401.0
          ],
          [
            2161.9,
            1405.0
          ],
          [
            2162.4,
            1409.0
          ],
          [
            2162.9,
            1413.0
          ],
          [
            2163.6,
            1416.9
          ],
          [
            2164.3,
            1420.2
          ]
        ]
      },
      "properties": {
        "id": "gameplay.path.0",
        "name": "gameplay.path.0",
        "category": "gameplay",
        "kind": "enemy_path",
        "layer": 75,
        "playable": true,
        "insidePlayArea": true,
        "pathIndex": 0,
        "widthPx": 140.0
      }
    },
    {
      "type": "Feature",
      "id": "gameplay.entry.0",
      "geometry": {
        "type": "Point",
        "coordinates": [
          875.9,
          678.2
        ]
      },
      "properties": {
        "id": "gameplay.entry.0",
        "name": "gameplay.entry.0",
        "category": "gameplay",
        "kind": "spawn_point",
        "layer": 75,
        "playable": true,
        "insidePlayArea": true,
        "pathIndex": 0
      }
    },
    {
      "type": "Feature",
      "id": "gameplay.exit.0",
      "geometry": {
        "type": "Point",
        "coordinates": [
          2164.3,
          1420.2
        ]
      },
      "properties": {
        "id": "gameplay.exit.0",
        "name": "gameplay.exit.0",
        "category": "gameplay",
        "kind": "goal_point",
        "layer": 75,
        "playable": true,
        "insidePlayArea": true,
        "pathIndexes": [
          0
        ]
      }
    },
    {
      "type": "Feature",
      "id": "gameplay.tower_slot.1",
      "geometry": {
        "type": "Point",
        "coordinates": [
          1625.2,
          1034.6
        ]
      },
      "properties": {
        "id": "gameplay.tower_slot.1",
        "name": "gameplay.tower_slot.1",
        "category": "gameplay",
        "kind": "tower_slot",
        "layer": 75,
        "playable": true,
        "insidePlayArea": true,
        "slotIndex": 0,
        "slotNumber": 1
      }
    },
    {
      "type": "Feature",
      "id": "gameplay.tower_slot.2",
      "geometry": {
        "type": "Point",
        "coordinates": [
          1118.8,
          853.8
        ]
      },
      "properties": {
        "id": "gameplay.tower_slot.2",
        "name": "gameplay.tower_slot.2",
        "category": "gameplay",
        "kind": "tower_slot",
        "layer": 75,
        "playable": true,
        "insidePlayArea": true,
        "slotIndex": 1,
        "slotNumber": 2
      }
    },
    {
      "type": "Feature",
      "id": "gameplay.tower_slot.3",
      "geometry": {
        "type": "Point",
        "coordinates": [
          1373.7,
          964.0
        ]
      },
      "properties": {
        "id": "gameplay.tower_slot.3",
        "name": "gameplay.tower_slot.3",
        "category": "gameplay",
        "kind": "tower_slot",
        "layer": 75,
        "playable": true,
        "insidePlayArea": true,
        "slotIndex": 2,
        "slotNumber": 3
      }
    },
    {
      "type": "Feature",
      "id": "gameplay.tower_slot.4",
      "geometry": {
        "type": "Point",
        "coordinates": [
          1124.0,
          965.7
        ]
      },
      "properties": {
        "id": "gameplay.tower_slot.4",
        "name": "gameplay.tower_slot.4",
        "category": "gameplay",
        "kind": "tower_slot",
        "layer": 75,
        "playable": true,
        "insidePlayArea": true,
        "slotIndex": 3,
        "slotNumber": 4
      }
    },
    {
      "type": "Feature",
      "id": "gameplay.tower_slot.5",
      "geometry": {
        "type": "Point",
        "coordinates": [
          1833.6,
          1044.9
        ]
      },
      "properties": {
        "id": "gameplay.tower_slot.5",
        "name": "gameplay.tower_slot.5",
        "category": "gameplay",
        "kind": "tower_slot",
        "layer": 75,
        "playable": true,
        "insidePlayArea": true,
        "slotIndex": 4,
        "slotNumber": 5
      }
    },
    {
      "type": "Feature",
      "id": "gameplay.tower_slot.6",
      "geometry": {
        "type": "Point",
        "coordinates": [
          1768.2,
          1139.6
        ]
      },
      "properties": {
        "id": "gameplay.tower_slot.6",
        "name": "gameplay.tower_slot.6",
        "category": "gameplay",
        "kind": "tower_slot",
        "layer": 75,
        "playable": true,
        "insidePlayArea": true,
        "slotIndex": 5,
        "slotNumber": 6
      }
    },
    {
      "type": "Feature",
      "id": "gameplay.tower_slot.7",
      "geometry": {
        "type": "Point",
        "coordinates": [
          1745.8,
          964.0
        ]
      },
      "properties": {
        "id": "gameplay.tower_slot.7",
        "name": "gameplay.tower_slot.7",
        "category": "gameplay",
        "kind": "tower_slot",
        "layer": 75,
        "playable": true,
        "insidePlayArea": true,
        "slotIndex": 6,
        "slotNumber": 7
      }
    },
    {
      "type": "Feature",
      "id": "gameplay.tower_slot.8",
      "geometry": {
        "type": "Point",
        "coordinates": [
          1173.9,
          723.0
        ]
      },
      "properties": {
        "id": "gameplay.tower_slot.8",
        "name": "gameplay.tower_slot.8",
        "category": "gameplay",
        "kind": "tower_slot",
        "layer": 75,
        "playable": true,
        "insidePlayArea": true,
        "slotIndex": 7,
        "slotNumber": 8
      }
    },
    {
      "type": "Feature",
      "id": "gameplay.tower_slot.9",
      "geometry": {
        "type": "Point",
        "coordinates": [
          1296.2,
          791.8
        ]
      },
      "properties": {
        "id": "gameplay.tower_slot.9",
        "name": "gameplay.tower_slot.9",
        "category": "gameplay",
        "kind": "tower_slot",
        "layer": 75,
        "playable": true,
        "insidePlayArea": true,
        "slotIndex": 8,
        "slotNumber": 9
      }
    },
    {
      "type": "Feature",
      "id": "gameplay.tower_slot.10",
      "geometry": {
        "type": "Point",
        "coordinates": [
          1950.8,
          1108.6
        ]
      },
      "properties": {
        "id": "gameplay.tower_slot.10",
        "name": "gameplay.tower_slot.10",
        "category": "gameplay",
        "kind": "tower_slot",
        "layer": 75,
        "playable": true,
        "insidePlayArea": true,
        "slotIndex": 9,
        "slotNumber": 10
      }
    },
    {
      "type": "Feature",
      "id": "gameplay.call_wave_button.0",
      "geometry": {
        "type": "Point",
        "coordinates": [
          875.9,
          678.2
        ]
      },
      "properties": {
        "id": "gameplay.call_wave_button.0",
        "name": "gameplay.call_wave_button.0",
        "category": "gameplay",
        "kind": "call_wave_button",
        "layer": 100,
        "playable": true,
        "insidePlayArea": true,
        "pathIndices": [
          0
        ]
      }
    },
    {
      "type": "Feature",
      "id": "gameplay.hero_spawn.primary",
      "geometry": {
        "type": "Point",
        "coordinates": [
          2093.365240380285,
          1413.0177076748776
        ]
      },
      "properties": {
        "id": "gameplay.hero_spawn.primary",
        "name": "Primary hero start",
        "category": "gameplay",
        "kind": "hero_spawn",
        "layer": 75,
        "playable": true,
        "insidePlayArea": true,
        "heroRoles": [
          "primary"
        ]
      }
    }
  ],
  "heroCount": 1
}
