{
  "type": "FeatureCollection",
  "name": "Saratoga",
  "coordinateReferenceSystem": {
    "type": "local-cartesian",
    "note": "NOT WGS84. Canonical game units, lower-left origin, +y up.",
    "canvas": {
      "width": 2868.0,
      "height": 2064.0
    },
    "playArea": {
      "x": 474.0,
      "y": 492.0,
      "width": 1920.0,
      "height": 1080.0
    }
  },
  "metadata": {
    "level": 11,
    "levelId": "549a67d9-f721-4cdf-8ba7-8916ba71b040",
    "levelName": "Saratoga",
    "geometrySource": "Existing Db/DML/Levels SQL routes and tower slots; no route geometry changed."
  },
  "startingGold": 450,
  "lives": 20,
  "features": [
    {
      "type": "Feature",
      "id": "gameplay.path.0",
      "geometry": {
        "type": "LineString",
        "coordinates": [
          [
            772.5,
            559.5
          ],
          [
            772.5,
            563.5
          ],
          [
            772.2,
            567.4
          ],
          [
            772.0,
            571.4
          ],
          [
            771.9,
            575.4
          ],
          [
            771.6,
            579.4
          ],
          [
            771.4,
            583.4
          ],
          [
            771.1,
            587.4
          ],
          [
            770.9,
            591.4
          ],
          [
            770.6,
            595.4
          ],
          [
            770.5,
            599.3
          ],
          [
            770.2,
            603.3
          ],
          [
            770.0,
            607.3
          ],
          [
            769.8,
            611.3
          ],
          [
            769.5,
            615.3
          ],
          [
            769.3,
            619.3
          ],
          [
            769.1,
            623.3
          ],
          [
            768.9,
            627.3
          ],
          [
            768.7,
            631.3
          ],
          [
            768.5,
            635.3
          ],
          [
            768.4,
            639.3
          ],
          [
            768.2,
            643.3
          ],
          [
            768.0,
            647.3
          ],
          [
            767.9,
            651.3
          ],
          [
            767.8,
            655.3
          ],
          [
            767.7,
            659.3
          ],
          [
            767.6,
            663.3
          ],
          [
            767.5,
            667.3
          ],
          [
            767.5,
            671.3
          ],
          [
            767.4,
            675.3
          ],
          [
            767.4,
            679.3
          ],
          [
            767.4,
            683.3
          ],
          [
            767.5,
            687.3
          ],
          [
            767.5,
            691.3
          ],
          [
            767.5,
            695.3
          ],
          [
            767.7,
            699.3
          ],
          [
            767.9,
            703.3
          ],
          [
            768.0,
            707.3
          ],
          [
            768.2,
            711.3
          ],
          [
            768.5,
            715.3
          ],
          [
            768.8,
            719.2
          ],
          [
            769.1,
            723.2
          ],
          [
            769.6,
            727.2
          ],
          [
            770.0,
            731.2
          ],
          [
            770.5,
            735.2
          ],
          [
            771.1,
            739.2
          ],
          [
            771.6,
            743.1
          ],
          [
            772.3,
            747.0
          ],
          [
            773.0,
            751.0
          ],
          [
            773.6,
            754.9
          ],
          [
            774.4,
            758.8
          ],
          [
            775.1,
            762.8
          ],
          [
            775.9,
            766.7
          ],
          [
            776.7,
            770.7
          ],
          [
            777.5,
            774.5
          ],
          [
            778.4,
            778.5
          ],
          [
            779.3,
            782.3
          ],
          [
            780.1,
            786.2
          ],
          [
            781.1,
            790.2
          ],
          [
            782.0,
            794.0
          ],
          [
            783.0,
            797.9
          ],
          [
            783.9,
            801.8
          ],
          [
            784.9,
            805.7
          ],
          [
            785.9,
            809.5
          ],
          [
            786.9,
            813.5
          ],
          [
            787.9,
            817.3
          ],
          [
            788.9,
            821.2
          ],
          [
            789.9,
            825.0
          ],
          [
            790.9,
            828.9
          ],
          [
            792.0,
            832.8
          ],
          [
            793.0,
            836.7
          ],
          [
            794.0,
            840.5
          ],
          [
            795.0,
            844.3
          ],
          [
            796.0,
            848.2
          ],
          [
            797.1,
            852.1
          ],
          [
            798.1,
            856.0
          ],
          [
            799.1,
            859.8
          ],
          [
            800.1,
            863.7
          ],
          [
            801.0,
            867.6
          ],
          [
            802.0,
            871.5
          ],
          [
            803.0,
            875.4
          ],
          [
            803.9,
            879.2
          ],
          [
            804.8,
            883.2
          ],
          [
            805.8,
            887.0
          ],
          [
            806.6,
            891.0
          ],
          [
            807.6,
            894.8
          ],
          [
            808.5,
            898.7
          ],
          [
            809.5,
            902.6
          ],
          [
            810.5,
            906.5
          ],
          [
            811.5,
            910.3
          ],
          [
            812.5,
            914.2
          ],
          [
            813.5,
            918.1
          ],
          [
            814.5,
            922.0
          ],
          [
            815.5,
            925.8
          ],
          [
            816.5,
            929.7
          ],
          [
            817.5,
            933.6
          ],
          [
            818.5,
            937.5
          ],
          [
            819.5,
            941.3
          ],
          [
            820.5,
            945.2
          ],
          [
            821.5,
            949.0
          ],
          [
            822.5,
            953.0
          ],
          [
            823.5,
            956.8
          ],
          [
            824.5,
            960.7
          ],
          [
            825.5,
            964.6
          ],
          [
            826.4,
            968.5
          ],
          [
            827.4,
            972.3
          ],
          [
            828.2,
            976.2
          ],
          [
            829.1,
            980.2
          ],
          [
            830.0,
            984.0
          ],
          [
            830.8,
            988.0
          ],
          [
            831.5,
            991.9
          ],
          [
            832.1,
            995.8
          ],
          [
            832.8,
            999.8
          ],
          [
            833.2,
            1003.8
          ],
          [
            833.8,
            1007.8
          ],
          [
            834.2,
            1011.7
          ],
          [
            834.6,
            1015.7
          ],
          [
            835.1,
            1019.7
          ],
          [
            835.5,
            1023.7
          ],
          [
            836.0,
            1027.7
          ],
          [
            836.4,
            1031.6
          ],
          [
            836.9,
            1035.6
          ],
          [
            837.4,
            1039.5
          ],
          [
            837.9,
            1043.5
          ],
          [
            838.5,
            1047.5
          ],
          [
            839.1,
            1051.4
          ],
          [
            839.8,
            1055.3
          ],
          [
            840.5,
            1059.3
          ],
          [
            841.4,
            1063.2
          ],
          [
            842.3,
            1067.1
          ],
          [
            843.3,
            1071.0
          ],
          [
            844.4,
            1074.8
          ],
          [
            845.5,
            1078.7
          ],
          [
            846.8,
            1082.5
          ],
          [
            848.2,
            1086.2
          ],
          [
            849.7,
            1089.9
          ],
          [
            851.2,
            1093.5
          ],
          [
            853.0,
            1097.2
          ],
          [
            854.8,
            1100.8
          ],
          [
            856.6,
            1104.3
          ],
          [
            858.5,
            1107.8
          ],
          [
            860.3,
            1111.4
          ],
          [
            862.1,
            1115.0
          ],
          [
            864.0,
            1118.5
          ],
          [
            865.8,
            1122.0
          ],
          [
            867.6,
            1125.7
          ],
          [
            869.5,
            1129.2
          ],
          [
            871.4,
            1132.7
          ],
          [
            873.2,
            1136.2
          ],
          [
            875.1,
            1139.8
          ],
          [
            877.1,
            1143.2
          ],
          [
            879.0,
            1146.8
          ],
          [
            881.1,
            1150.2
          ],
          [
            883.1,
            1153.6
          ],
          [
            885.2,
            1157.0
          ],
          [
            887.4,
            1160.4
          ],
          [
            889.5,
            1163.8
          ],
          [
            891.8,
            1167.0
          ],
          [
            894.1,
            1170.3
          ],
          [
            896.5,
            1173.6
          ],
          [
            898.9,
            1176.8
          ],
          [
            901.4,
            1179.9
          ],
          [
            903.9,
            1183.0
          ],
          [
            906.5,
            1186.0
          ],
          [
            909.2,
            1189.0
          ],
          [
            912.0,
            1191.8
          ],
          [
            914.8,
            1194.7
          ],
          [
            917.7,
            1197.4
          ],
          [
            920.7,
            1200.1
          ],
          [
            923.8,
            1202.6
          ],
          [
            926.9,
            1205.1
          ],
          [
            930.1,
            1207.5
          ],
          [
            933.5,
            1209.7
          ],
          [
            936.9,
            1211.8
          ],
          [
            940.3,
            1213.9
          ],
          [
            943.8,
            1215.8
          ],
          [
            947.4,
            1217.5
          ],
          [
            951.0,
            1219.2
          ],
          [
            954.7,
            1220.8
          ],
          [
            958.5,
            1222.2
          ],
          [
            962.3,
            1223.3
          ],
          [
            966.1,
            1224.5
          ],
          [
            970.0,
            1225.3
          ],
          [
            974.0,
            1226.2
          ],
          [
            977.9,
            1226.8
          ],
          [
            981.9,
            1227.3
          ],
          [
            985.8,
            1227.7
          ],
          [
            989.8,
            1228.1
          ],
          [
            993.8,
            1228.3
          ],
          [
            997.8,
            1228.5
          ],
          [
            1001.8,
            1228.7
          ],
          [
            1005.8,
            1228.7
          ],
          [
            1009.8,
            1228.7
          ],
          [
            1013.8,
            1228.6
          ],
          [
            1017.8,
            1228.5
          ],
          [
            1021.8,
            1228.3
          ],
          [
            1025.8,
            1228.2
          ],
          [
            1029.8,
            1228.0
          ],
          [
            1033.8,
            1227.7
          ],
          [
            1037.8,
            1227.5
          ],
          [
            1041.8,
            1227.2
          ],
          [
            1045.8,
            1226.8
          ],
          [
            1049.8,
            1226.5
          ],
          [
            1053.7,
            1226.2
          ],
          [
            1057.7,
            1225.8
          ],
          [
            1061.7,
            1225.5
          ],
          [
            1065.7,
            1225.0
          ],
          [
            1069.7,
            1224.7
          ],
          [
            1073.6,
            1224.3
          ],
          [
            1077.6,
            1223.9
          ],
          [
            1081.6,
            1223.5
          ],
          [
            1085.5,
            1223.1
          ],
          [
            1089.5,
            1222.8
          ],
          [
            1093.5,
            1222.3
          ],
          [
            1097.5,
            1222.0
          ],
          [
            1101.5,
            1221.6
          ],
          [
            1105.5,
            1221.2
          ],
          [
            1109.5,
            1220.9
          ],
          [
            1113.5,
            1220.6
          ],
          [
            1117.5,
            1220.3
          ],
          [
            1121.5,
            1220.0
          ],
          [
            1125.4,
            1219.8
          ],
          [
            1129.4,
            1219.5
          ],
          [
            1133.4,
            1219.3
          ],
          [
            1137.4,
            1219.0
          ],
          [
            1141.4,
            1218.9
          ],
          [
            1145.4,
            1218.8
          ],
          [
            1149.4,
            1218.7
          ],
          [
            1153.4,
            1218.7
          ],
          [
            1157.4,
            1218.7
          ],
          [
            1161.4,
            1218.7
          ],
          [
            1165.4,
            1218.8
          ],
          [
            1169.4,
            1218.9
          ],
          [
            1173.4,
            1219.2
          ],
          [
            1177.3,
            1219.4
          ],
          [
            1181.3,
            1219.7
          ],
          [
            1185.3,
            1220.2
          ],
          [
            1189.3,
            1220.6
          ],
          [
            1193.2,
            1221.2
          ],
          [
            1197.2,
            1221.8
          ],
          [
            1201.2,
            1222.5
          ],
          [
            1205.0,
            1223.3
          ],
          [
            1209.0,
            1224.2
          ],
          [
            1212.9,
            1225.0
          ],
          [
            1216.8,
            1226.0
          ],
          [
            1220.7,
            1227.0
          ],
          [
            1224.5,
            1228.0
          ],
          [
            1228.4,
            1229.0
          ],
          [
            1232.2,
            1230.0
          ],
          [
            1236.1,
            1231.2
          ],
          [
            1239.9,
            1232.3
          ],
          [
            1243.8,
            1233.5
          ],
          [
            1247.5,
            1234.7
          ],
          [
            1251.3,
            1236.0
          ],
          [
            1255.2,
            1237.2
          ],
          [
            1259.0,
            1238.5
          ],
          [
            1262.7,
            1239.8
          ],
          [
            1266.5,
            1241.2
          ],
          [
            1270.2,
            1242.6
          ],
          [
            1274.0,
            1244.0
          ],
          [
            1277.7,
            1245.5
          ],
          [
            1281.4,
            1246.9
          ],
          [
            1285.1,
            1248.4
          ],
          [
            1288.8,
            1249.9
          ],
          [
            1292.5,
            1251.5
          ],
          [
            1296.2,
            1253.0
          ],
          [
            1299.9,
            1254.5
          ],
          [
            1303.5,
            1256.2
          ],
          [
            1307.2,
            1257.8
          ],
          [
            1310.8,
            1259.4
          ],
          [
            1314.5,
            1261.1
          ],
          [
            1318.2,
            1262.8
          ],
          [
            1321.8,
            1264.5
          ],
          [
            1325.4,
            1266.2
          ],
          [
            1329.0,
            1267.8
          ],
          [
            1332.6,
            1269.6
          ],
          [
            1336.2,
            1271.3
          ],
          [
            1339.8,
            1273.1
          ],
          [
            1343.3,
            1274.9
          ],
          [
            1347.0,
            1276.7
          ],
          [
            1350.5,
            1278.5
          ],
          [
            1354.1,
            1280.3
          ],
          [
            1357.7,
            1282.2
          ],
          [
            1361.2,
            1284.0
          ],
          [
            1364.8,
            1285.8
          ],
          [
            1368.2,
            1287.7
          ],
          [
            1371.8,
            1289.5
          ],
          [
            1375.3,
            1291.4
          ],
          [
            1378.8,
            1293.3
          ],
          [
            1382.4,
            1295.2
          ],
          [
            1385.9,
            1297.1
          ],
          [
            1389.5,
            1299.0
          ],
          [
            1393.0,
            1300.9
          ],
          [
            1396.5,
            1302.8
          ],
          [
            1400.0,
            1304.8
          ],
          [
            1403.5,
            1306.7
          ],
          [
            1407.0,
            1308.6
          ],
          [
            1410.5,
            1310.6
          ],
          [
            1414.0,
            1312.5
          ],
          [
            1417.3,
            1314.6
          ],
          [
            1420.8,
            1316.7
          ],
          [
            1424.2,
            1318.8
          ],
          [
            1427.6,
            1320.9
          ],
          [
            1431.0,
            1323.1
          ],
          [
            1434.3,
            1325.2
          ],
          [
            1437.6,
            1327.5
          ],
          [
            1440.9,
            1329.8
          ],
          [
            1444.2,
            1332.0
          ],
          [
            1447.5,
            1334.3
          ],
          [
            1450.8,
            1336.7
          ],
          [
            1454.0,
            1339.0
          ],
          [
            1457.2,
            1341.3
          ],
          [
            1460.5,
            1343.7
          ],
          [
            1463.7,
            1346.1
          ],
          [
            1466.8,
            1348.5
          ],
          [
            1470.0,
            1351.0
          ],
          [
            1473.2,
            1353.4
          ],
          [
            1476.3,
            1355.8
          ],
          [
            1479.5,
            1358.3
          ],
          [
            1482.6,
            1360.8
          ],
          [
            1485.8,
            1363.3
          ],
          [
            1488.8,
            1365.8
          ],
          [
            1492.0,
            1368.3
          ],
          [
            1495.0,
            1370.8
          ],
          [
            1498.2,
            1373.4
          ],
          [
            1501.2,
            1376.0
          ],
          [
            1504.3,
            1378.5
          ],
          [
            1507.3,
            1381.1
          ],
          [
            1510.5,
            1383.7
          ],
          [
            1513.5,
            1386.2
          ],
          [
            1516.5,
            1388.8
          ],
          [
            1519.6,
            1391.4
          ],
          [
            1522.7,
            1394.0
          ],
          [
            1525.7,
            1396.5
          ],
          [
            1528.8,
            1399.1
          ],
          [
            1531.8,
            1401.7
          ],
          [
            1535.0,
            1404.2
          ],
          [
            1538.0,
            1406.8
          ],
          [
            1541.2,
            1409.2
          ],
          [
            1544.2,
            1411.6
          ]
        ]
      },
      "properties": {
        "id": "gameplay.path.0",
        "name": "gameplay.path.0",
        "category": "gameplay",
        "kind": "enemy_path",
        "layer": 75,
        "playable": true,
        "insidePlayArea": true,
        "pathIndex": 0,
        "widthPx": 140.0
      }
    },
    {
      "type": "Feature",
      "id": "gameplay.entry.0",
      "geometry": {
        "type": "Point",
        "coordinates": [
          772.5,
          559.5
        ]
      },
      "properties": {
        "id": "gameplay.entry.0",
        "name": "gameplay.entry.0",
        "category": "gameplay",
        "kind": "spawn_point",
        "layer": 75,
        "playable": true,
        "insidePlayArea": true,
        "pathIndex": 0
      }
    },
    {
      "type": "Feature",
      "id": "gameplay.path.1",
      "geometry": {
        "type": "LineString",
        "coordinates": [
          [
            1382.3,
            559.5
          ],
          [
            1383.7,
            563.2
          ],
          [
            1385.1,
            566.9
          ],
          [
            1386.5,
            570.7
          ],
          [
            1388.0,
            574.4
          ],
          [
            1389.5,
            578.1
          ],
          [
            1391.0,
            581.8
          ],
          [
            1392.5,
            585.5
          ],
          [
            1393.9,
            589.2
          ],
          [
            1395.4,
            593.0
          ],
          [
            1396.8,
            596.7
          ],
          [
            1398.3,
            600.4
          ],
          [
            1399.8,
            604.1
          ],
          [
            1401.3,
            607.8
          ],
          [
            1402.8,
            611.5
          ],
          [
            1404.2,
            615.3
          ],
          [
            1405.7,
            619.0
          ],
          [
            1407.2,
            622.8
          ],
          [
            1408.6,
            626.5
          ],
          [
            1410.0,
            630.2
          ],
          [
            1411.5,
            634.0
          ],
          [
            1412.9,
            637.7
          ],
          [
            1414.3,
            641.4
          ],
          [
            1415.7,
            645.2
          ],
          [
            1417.1,
            648.9
          ],
          [
            1418.5,
            652.7
          ],
          [
            1419.8,
            656.4
          ],
          [
            1421.2,
            660.2
          ],
          [
            1422.6,
            664.0
          ],
          [
            1423.9,
            667.7
          ],
          [
            1425.2,
            671.5
          ],
          [
            1426.5,
            675.2
          ],
          [
            1427.8,
            679.0
          ],
          [
            1429.1,
            682.8
          ],
          [
            1430.3,
            686.7
          ],
          [
            1431.6,
            690.5
          ],
          [
            1432.8,
            694.2
          ],
          [
            1434.0,
            698.1
          ],
          [
            1435.2,
            701.9
          ],
          [
            1436.3,
            705.8
          ],
          [
            1437.4,
            709.6
          ],
          [
            1438.5,
            713.5
          ],
          [
            1439.5,
            717.3
          ],
          [
            1440.5,
            721.2
          ],
          [
            1441.3,
            725.1
          ],
          [
            1442.2,
            729.0
          ],
          [
            1443.0,
            732.9
          ],
          [
            1443.8,
            736.8
          ],
          [
            1444.5,
            740.8
          ],
          [
            1445.1,
            744.7
          ],
          [
            1445.7,
            748.7
          ],
          [
            1446.2,
            752.7
          ],
          [
            1446.8,
            756.6
          ],
          [
            1447.2,
            760.6
          ],
          [
            1447.7,
            764.5
          ],
          [
            1448.0,
            768.5
          ],
          [
            1448.4,
            772.5
          ],
          [
            1448.8,
            776.5
          ],
          [
            1449.0,
            780.5
          ],
          [
            1449.3,
            784.5
          ],
          [
            1449.6,
            788.5
          ],
          [
            1449.8,
            792.5
          ],
          [
            1450.1,
            796.5
          ],
          [
            1450.3,
            800.5
          ],
          [
            1450.5,
            804.5
          ],
          [
            1450.8,
            808.5
          ],
          [
            1451.0,
            812.5
          ],
          [
            1451.2,
            816.5
          ],
          [
            1451.5,
            820.5
          ],
          [
            1451.7,
            824.4
          ],
          [
            1452.0,
            828.4
          ],
          [
            1452.2,
            832.4
          ],
          [
            1452.5,
            836.4
          ],
          [
            1452.8,
            840.4
          ],
          [
            1453.2,
            844.3
          ],
          [
            1453.6,
            848.3
          ],
          [
            1454.0,
            852.3
          ],
          [
            1454.5,
            856.3
          ],
          [
            1455.0,
            860.2
          ],
          [
            1455.6,
            864.2
          ],
          [
            1456.2,
            868.2
          ],
          [
            1457.0,
            872.1
          ],
          [
            1457.8,
            876.0
          ],
          [
            1458.6,
            880.0
          ],
          [
            1459.5,
            883.8
          ],
          [
            1460.5,
            887.7
          ],
          [
            1461.6,
            891.5
          ],
          [
            1462.8,
            895.4
          ],
          [
            1464.0,
            899.2
          ],
          [
            1465.2,
            903.0
          ],
          [
            1466.5,
            906.8
          ],
          [
            1467.9,
            910.5
          ],
          [
            1469.3,
            914.2
          ],
          [
            1470.8,
            918.0
          ],
          [
            1472.2,
            921.7
          ],
          [
            1473.8,
            925.4
          ],
          [
            1475.3,
            929.1
          ],
          [
            1476.9,
            932.8
          ],
          [
            1478.5,
            936.5
          ],
          [
            1480.1,
            940.1
          ],
          [
            1481.7,
            943.8
          ],
          [
            1483.3,
            947.5
          ],
          [
            1484.8,
            951.1
          ],
          [
            1486.5,
            954.8
          ],
          [
            1488.0,
            958.5
          ],
          [
            1489.5,
            962.2
          ],
          [
            1491.0,
            965.9
          ],
          [
            1492.4,
            969.6
          ],
          [
            1493.8,
            973.3
          ],
          [
            1495.2,
            977.2
          ],
          [
            1496.4,
            981.0
          ],
          [
            1497.6,
            984.8
          ],
          [
            1498.8,
            988.6
          ],
          [
            1499.8,
            992.5
          ],
          [
            1500.7,
            996.3
          ],
          [
            1501.6,
            1000.2
          ],
          [
            1502.5,
            1004.2
          ],
          [
            1503.3,
            1008.0
          ],
          [
            1504.2,
            1012.0
          ],
          [
            1505.2,
            1015.8
          ],
          [
            1506.0,
            1019.8
          ],
          [
            1507.0,
            1023.7
          ],
          [
            1507.8,
            1027.5
          ],
          [
            1508.8,
            1031.5
          ],
          [
            1509.7,
            1035.3
          ],
          [
            1510.5,
            1039.2
          ],
          [
            1511.3,
            1043.2
          ],
          [
            1512.1,
            1047.1
          ],
          [
            1512.8,
            1051.0
          ],
          [
            1513.5,
            1055.0
          ],
          [
            1514.2,
            1058.9
          ],
          [
            1514.8,
            1062.8
          ],
          [
            1515.3,
            1066.8
          ],
          [
            1515.7,
            1070.8
          ],
          [
            1516.0,
            1074.8
          ],
          [
            1516.3,
            1078.8
          ],
          [
            1516.5,
            1082.8
          ],
          [
            1516.5,
            1086.8
          ],
          [
            1516.4,
            1090.8
          ],
          [
            1516.1,
            1094.8
          ],
          [
            1515.7,
            1098.8
          ],
          [
            1515.0,
            1102.7
          ],
          [
            1514.2,
            1106.6
          ],
          [
            1513.2,
            1110.5
          ],
          [
            1511.8,
            1114.2
          ],
          [
            1510.2,
            1117.9
          ],
          [
            1508.2,
            1121.3
          ],
          [
            1505.8,
            1124.5
          ],
          [
            1502.8,
            1127.2
          ],
          [
            1499.7,
            1129.5
          ],
          [
            1496.2,
            1131.7
          ],
          [
            1492.7,
            1133.4
          ],
          [
            1489.0,
            1135.0
          ],
          [
            1485.2,
            1136.5
          ],
          [
            1481.5,
            1137.8
          ],
          [
            1477.7,
            1139.0
          ],
          [
            1473.8,
            1140.2
          ],
          [
            1470.0,
            1141.3
          ],
          [
            1466.2,
            1142.4
          ],
          [
            1462.3,
            1143.5
          ],
          [
            1458.5,
            1144.5
          ],
          [
            1454.6,
            1145.6
          ],
          [
            1450.8,
            1146.7
          ],
          [
            1446.9,
            1147.8
          ],
          [
            1443.1,
            1149.0
          ],
          [
            1439.3,
            1150.3
          ],
          [
            1435.5,
            1151.7
          ],
          [
            1431.8,
            1153.2
          ],
          [
            1428.2,
            1154.8
          ],
          [
            1424.7,
            1156.7
          ],
          [
            1421.2,
            1158.7
          ],
          [
            1417.9,
            1161.0
          ],
          [
            1414.9,
            1163.6
          ],
          [
            1412.2,
            1166.5
          ],
          [
            1410.0,
            1169.8
          ],
          [
            1408.2,
            1173.4
          ],
          [
            1406.9,
            1177.2
          ],
          [
            1406.3,
            1181.2
          ],
          [
            1406.3,
            1185.2
          ],
          [
            1406.7,
            1189.1
          ],
          [
            1407.5,
            1193.0
          ],
          [
            1408.5,
            1196.9
          ],
          [
            1409.6,
            1200.7
          ],
          [
            1411.0,
            1204.5
          ],
          [
            1412.4,
            1208.2
          ],
          [
            1414.0,
            1211.9
          ],
          [
            1415.6,
            1215.5
          ],
          [
            1417.2,
            1219.2
          ],
          [
            1419.0,
            1222.8
          ],
          [
            1420.8,
            1226.3
          ],
          [
            1422.7,
            1229.9
          ],
          [
            1424.6,
            1233.4
          ],
          [
            1426.5,
            1236.9
          ],
          [
            1428.5,
            1240.4
          ],
          [
            1430.5,
            1243.8
          ],
          [
            1432.5,
            1247.3
          ],
          [
            1434.5,
            1250.8
          ],
          [
            1436.6,
            1254.2
          ],
          [
            1438.7,
            1257.6
          ],
          [
            1440.8,
            1261.0
          ],
          [
            1442.8,
            1264.4
          ],
          [
            1445.0,
            1267.8
          ],
          [
            1447.2,
            1271.2
          ],
          [
            1449.3,
            1274.5
          ],
          [
            1451.5,
            1277.9
          ],
          [
            1453.7,
            1281.2
          ],
          [
            1455.8,
            1284.6
          ],
          [
            1458.0,
            1288.0
          ],
          [
            1460.3,
            1291.2
          ],
          [
            1462.5,
            1294.6
          ],
          [
            1464.8,
            1297.9
          ],
          [
            1467.0,
            1301.2
          ],
          [
            1469.2,
            1304.5
          ],
          [
            1471.5,
            1307.8
          ],
          [
            1473.8,
            1311.1
          ],
          [
            1476.0,
            1314.4
          ],
          [
            1478.3,
            1317.7
          ],
          [
            1480.6,
            1321.0
          ],
          [
            1482.9,
            1324.2
          ],
          [
            1485.2,
            1327.5
          ],
          [
            1487.5,
            1330.8
          ],
          [
            1489.8,
            1334.0
          ],
          [
            1492.1,
            1337.3
          ],
          [
            1494.5,
            1340.6
          ],
          [
            1496.8,
            1343.8
          ],
          [
            1499.0,
            1347.1
          ],
          [
            1501.4,
            1350.3
          ],
          [
            1503.7,
            1353.7
          ],
          [
            1506.0,
            1356.9
          ],
          [
            1508.3,
            1360.2
          ],
          [
            1510.7,
            1363.4
          ],
          [
            1513.0,
            1366.7
          ],
          [
            1515.3,
            1369.9
          ],
          [
            1517.7,
            1373.2
          ],
          [
            1520.0,
            1376.4
          ],
          [
            1522.3,
            1379.7
          ],
          [
            1524.7,
            1382.9
          ],
          [
            1527.0,
            1386.2
          ],
          [
            1529.2,
            1389.5
          ],
          [
            1531.5,
            1392.7
          ],
          [
            1533.8,
            1396.0
          ],
          [
            1536.1,
            1399.3
          ],
          [
            1538.3,
            1402.6
          ],
          [
            1540.6,
            1406.0
          ],
          [
            1542.8,
            1409.3
          ],
          [
            1544.2,
            1411.6
          ]
        ]
      },
      "properties": {
        "id": "gameplay.path.1",
        "name": "gameplay.path.1",
        "category": "gameplay",
        "kind": "enemy_path",
        "layer": 75,
        "playable": true,
        "insidePlayArea": true,
        "pathIndex": 1,
        "widthPx": 140.0
      }
    },
    {
      "type": "Feature",
      "id": "gameplay.entry.1",
      "geometry": {
        "type": "Point",
        "coordinates": [
          1382.3,
          559.5
        ]
      },
      "properties": {
        "id": "gameplay.entry.1",
        "name": "gameplay.entry.1",
        "category": "gameplay",
        "kind": "spawn_point",
        "layer": 75,
        "playable": true,
        "insidePlayArea": true,
        "pathIndex": 1
      }
    },
    {
      "type": "Feature",
      "id": "gameplay.path.2",
      "geometry": {
        "type": "LineString",
        "coordinates": [
          [
            2005.8,
            559.5
          ],
          [
            2004.7,
            563.2
          ],
          [
            2003.5,
            567.1
          ],
          [
            2002.3,
            570.9
          ],
          [
            2001.1,
            574.7
          ],
          [
            1999.9,
            578.5
          ],
          [
            1998.7,
            582.3
          ],
          [
            1997.4,
            586.1
          ],
          [
            1996.2,
            590.0
          ],
          [
            1995.0,
            593.8
          ],
          [
            1993.7,
            597.5
          ],
          [
            1992.5,
            601.3
          ],
          [
            1991.2,
            605.2
          ],
          [
            1990.0,
            609.0
          ],
          [
            1988.8,
            612.8
          ],
          [
            1987.5,
            616.5
          ],
          [
            1986.3,
            620.4
          ],
          [
            1985.2,
            624.2
          ],
          [
            1984.0,
            628.0
          ],
          [
            1982.8,
            631.8
          ],
          [
            1981.5,
            635.7
          ],
          [
            1980.3,
            639.5
          ],
          [
            1979.2,
            643.3
          ],
          [
            1978.0,
            647.1
          ],
          [
            1976.8,
            651.0
          ],
          [
            1975.7,
            654.8
          ],
          [
            1974.5,
            658.6
          ],
          [
            1973.4,
            662.5
          ],
          [
            1972.2,
            666.2
          ],
          [
            1971.2,
            670.1
          ],
          [
            1970.0,
            674.0
          ],
          [
            1969.0,
            677.8
          ],
          [
            1967.8,
            681.7
          ],
          [
            1966.8,
            685.5
          ],
          [
            1965.8,
            689.3
          ],
          [
            1964.8,
            693.2
          ],
          [
            1963.7,
            697.1
          ],
          [
            1962.8,
            701.0
          ],
          [
            1961.8,
            704.8
          ],
          [
            1960.8,
            708.8
          ],
          [
            1959.9,
            712.7
          ],
          [
            1959.0,
            716.5
          ],
          [
            1958.2,
            720.5
          ],
          [
            1957.3,
            724.3
          ],
          [
            1956.5,
            728.3
          ],
          [
            1955.8,
            732.2
          ],
          [
            1955.0,
            736.2
          ],
          [
            1954.3,
            740.0
          ],
          [
            1953.5,
            744.0
          ],
          [
            1952.8,
            748.0
          ],
          [
            1952.2,
            751.9
          ],
          [
            1951.5,
            755.8
          ],
          [
            1950.8,
            759.8
          ],
          [
            1950.2,
            763.7
          ],
          [
            1949.5,
            767.7
          ],
          [
            1949.0,
            771.6
          ],
          [
            1948.3,
            775.6
          ],
          [
            1947.8,
            779.5
          ],
          [
            1947.2,
            783.5
          ],
          [
            1946.7,
            787.5
          ],
          [
            1946.2,
            791.5
          ],
          [
            1945.7,
            795.4
          ],
          [
            1945.2,
            799.3
          ],
          [
            1944.8,
            803.3
          ],
          [
            1944.3,
            807.3
          ],
          [
            1944.0,
            811.3
          ],
          [
            1943.5,
            815.3
          ],
          [
            1943.2,
            819.2
          ],
          [
            1942.8,
            823.2
          ],
          [
            1942.5,
            827.2
          ],
          [
            1942.2,
            831.2
          ],
          [
            1941.9,
            835.2
          ],
          [
            1941.7,
            839.2
          ],
          [
            1941.4,
            843.2
          ],
          [
            1941.2,
            847.2
          ],
          [
            1941.0,
            851.2
          ],
          [
            1940.8,
            855.2
          ],
          [
            1940.7,
            859.2
          ],
          [
            1940.6,
            863.2
          ],
          [
            1940.5,
            867.2
          ],
          [
            1940.5,
            871.2
          ],
          [
            1940.5,
            875.2
          ],
          [
            1940.5,
            879.2
          ],
          [
            1940.5,
            883.2
          ],
          [
            1940.8,
            887.2
          ],
          [
            1941.0,
            891.2
          ],
          [
            1941.4,
            895.2
          ],
          [
            1941.9,
            899.1
          ],
          [
            1942.4,
            903.1
          ],
          [
            1943.0,
            907.0
          ],
          [
            1943.7,
            911.0
          ],
          [
            1944.4,
            914.9
          ],
          [
            1945.2,
            918.8
          ],
          [
            1946.0,
            922.8
          ],
          [
            1946.8,
            926.7
          ],
          [
            1947.8,
            930.5
          ],
          [
            1948.6,
            934.5
          ],
          [
            1949.5,
            938.3
          ],
          [
            1950.5,
            942.2
          ],
          [
            1951.3,
            946.2
          ],
          [
            1952.2,
            950.0
          ],
          [
            1953.2,
            954.0
          ],
          [
            1954.0,
            957.8
          ],
          [
            1954.8,
            961.8
          ],
          [
            1955.7,
            965.7
          ],
          [
            1956.4,
            969.6
          ],
          [
            1957.1,
            973.5
          ],
          [
            1957.7,
            977.5
          ],
          [
            1958.2,
            981.5
          ],
          [
            1958.7,
            985.5
          ],
          [
            1959.0,
            989.4
          ],
          [
            1959.3,
            993.4
          ],
          [
            1959.3,
            997.4
          ],
          [
            1959.3,
            1001.4
          ],
          [
            1959.1,
            1005.4
          ],
          [
            1958.7,
            1009.4
          ],
          [
            1958.0,
            1013.3
          ],
          [
            1957.2,
            1017.2
          ],
          [
            1956.2,
            1021.1
          ],
          [
            1955.1,
            1025.0
          ],
          [
            1953.8,
            1028.7
          ],
          [
            1952.3,
            1032.5
          ],
          [
            1950.8,
            1036.1
          ],
          [
            1949.0,
            1039.8
          ],
          [
            1947.2,
            1043.3
          ],
          [
            1945.3,
            1046.8
          ],
          [
            1943.2,
            1050.2
          ],
          [
            1941.2,
            1053.7
          ],
          [
            1939.0,
            1057.0
          ],
          [
            1936.8,
            1060.3
          ],
          [
            1934.5,
            1063.7
          ],
          [
            1932.2,
            1066.8
          ],
          [
            1929.8,
            1070.0
          ],
          [
            1927.3,
            1073.2
          ],
          [
            1924.8,
            1076.3
          ],
          [
            1922.3,
            1079.5
          ],
          [
            1919.8,
            1082.5
          ],
          [
            1917.2,
            1085.7
          ],
          [
            1914.6,
            1088.7
          ],
          [
            1912.0,
            1091.7
          ],
          [
            1909.3,
            1094.8
          ],
          [
            1906.8,
            1097.8
          ],
          [
            1904.1,
            1100.8
          ],
          [
            1901.5,
            1103.8
          ],
          [
            1898.9,
            1106.8
          ],
          [
            1896.3,
            1109.8
          ],
          [
            1893.7,
            1112.9
          ],
          [
            1891.2,
            1116.0
          ],
          [
            1888.6,
            1119.1
          ],
          [
            1886.1,
            1122.2
          ],
          [
            1883.6,
            1125.3
          ],
          [
            1881.0,
            1128.4
          ],
          [
            1878.5,
            1131.5
          ],
          [
            1875.8,
            1134.5
          ],
          [
            1873.2,
            1137.5
          ],
          [
            1870.6,
            1140.5
          ],
          [
            1867.9,
            1143.5
          ],
          [
            1865.2,
            1146.5
          ],
          [
            1862.5,
            1149.3
          ],
          [
            1859.7,
            1152.2
          ],
          [
            1856.9,
            1155.1
          ],
          [
            1854.0,
            1157.9
          ],
          [
            1851.2,
            1160.7
          ],
          [
            1848.2,
            1163.5
          ],
          [
            1845.3,
            1166.2
          ],
          [
            1842.3,
            1168.8
          ],
          [
            1839.4,
            1171.5
          ],
          [
            1836.3,
            1174.1
          ],
          [
            1833.3,
            1176.7
          ],
          [
            1830.2,
            1179.3
          ],
          [
            1827.2,
            1181.8
          ],
          [
            1824.1,
            1184.4
          ],
          [
            1821.0,
            1186.9
          ],
          [
            1817.8,
            1189.3
          ],
          [
            1814.7,
            1191.8
          ],
          [
            1811.4,
            1194.2
          ],
          [
            1808.2,
            1196.5
          ],
          [
            1804.8,
            1198.7
          ],
          [
            1801.5,
            1200.8
          ],
          [
            1798.1,
            1203.0
          ],
          [
            1794.7,
            1205.0
          ],
          [
            1791.2,
            1207.1
          ],
          [
            1787.8,
            1209.2
          ],
          [
            1784.3,
            1211.2
          ],
          [
            1780.9,
            1213.2
          ],
          [
            1777.5,
            1215.2
          ],
          [
            1774.0,
            1217.2
          ],
          [
            1770.5,
            1219.2
          ],
          [
            1767.1,
            1221.3
          ],
          [
            1763.7,
            1223.4
          ],
          [
            1760.3,
            1225.5
          ],
          [
            1756.9,
            1227.6
          ],
          [
            1753.5,
            1229.8
          ],
          [
            1750.2,
            1232.0
          ],
          [
            1746.8,
            1234.2
          ],
          [
            1743.5,
            1236.4
          ],
          [
            1740.2,
            1238.7
          ],
          [
            1737.0,
            1241.0
          ],
          [
            1733.8,
            1243.3
          ],
          [
            1730.5,
            1245.8
          ],
          [
            1727.3,
            1248.2
          ],
          [
            1724.2,
            1250.6
          ],
          [
            1721.0,
            1253.0
          ],
          [
            1717.9,
            1255.5
          ],
          [
            1714.8,
            1258.0
          ],
          [
            1711.7,
            1260.6
          ],
          [
            1708.6,
            1263.2
          ],
          [
            1705.5,
            1265.8
          ],
          [
            1702.5,
            1268.3
          ],
          [
            1699.5,
            1271.0
          ],
          [
            1696.5,
            1273.5
          ],
          [
            1693.4,
            1276.2
          ],
          [
            1690.4,
            1278.8
          ],
          [
            1687.3,
            1281.4
          ],
          [
            1684.3,
            1284.0
          ],
          [
            1681.3,
            1286.7
          ],
          [
            1678.3,
            1289.3
          ],
          [
            1675.3,
            1292.0
          ],
          [
            1672.3,
            1294.7
          ],
          [
            1669.4,
            1297.3
          ],
          [
            1666.4,
            1300.0
          ],
          [
            1663.4,
            1302.7
          ],
          [
            1660.5,
            1305.3
          ],
          [
            1657.5,
            1308.0
          ],
          [
            1654.5,
            1310.7
          ],
          [
            1651.5,
            1313.3
          ],
          [
            1648.5,
            1316.0
          ],
          [
            1645.6,
            1318.7
          ],
          [
            1642.7,
            1321.4
          ],
          [
            1639.7,
            1324.0
          ],
          [
            1636.7,
            1326.8
          ],
          [
            1633.8,
            1329.5
          ],
          [
            1630.8,
            1332.2
          ],
          [
            1627.8,
            1334.8
          ],
          [
            1624.9,
            1337.5
          ],
          [
            1622.0,
            1340.2
          ],
          [
            1619.0,
            1343.0
          ],
          [
            1616.0,
            1345.7
          ],
          [
            1613.1,
            1348.3
          ],
          [
            1610.2,
            1351.0
          ],
          [
            1607.2,
            1353.8
          ],
          [
            1604.2,
            1356.5
          ],
          [
            1601.3,
            1359.2
          ],
          [
            1598.3,
            1361.9
          ],
          [
            1595.4,
            1364.6
          ],
          [
            1592.5,
            1367.3
          ],
          [
            1589.5,
            1370.0
          ],
          [
            1586.6,
            1372.7
          ],
          [
            1583.7,
            1375.5
          ],
          [
            1580.7,
            1378.2
          ],
          [
            1577.8,
            1380.8
          ],
          [
            1574.8,
            1383.5
          ],
          [
            1571.9,
            1386.3
          ],
          [
            1569.0,
            1389.0
          ],
          [
            1566.0,
            1391.7
          ],
          [
            1563.0,
            1394.4
          ],
          [
            1560.1,
            1397.1
          ],
          [
            1557.2,
            1399.8
          ],
          [
            1554.2,
            1402.5
          ],
          [
            1551.2,
            1405.2
          ],
          [
            1548.3,
            1407.9
          ],
          [
            1545.3,
            1410.6
          ],
          [
            1544.2,
            1411.6
          ]
        ]
      },
      "properties": {
        "id": "gameplay.path.2",
        "name": "gameplay.path.2",
        "category": "gameplay",
        "kind": "enemy_path",
        "layer": 75,
        "playable": true,
        "insidePlayArea": true,
        "pathIndex": 2,
        "widthPx": 140.0
      }
    },
    {
      "type": "Feature",
      "id": "gameplay.entry.2",
      "geometry": {
        "type": "Point",
        "coordinates": [
          2005.8,
          559.5
        ]
      },
      "properties": {
        "id": "gameplay.entry.2",
        "name": "gameplay.entry.2",
        "category": "gameplay",
        "kind": "spawn_point",
        "layer": 75,
        "playable": true,
        "insidePlayArea": true,
        "pathIndex": 2
      }
    },
    {
      "type": "Feature",
      "id": "gameplay.exit.0",
      "geometry": {
        "type": "Point",
        "coordinates": [
          1544.2,
          1411.6
        ]
      },
      "properties": {
        "id": "gameplay.exit.0",
        "name": "gameplay.exit.0",
        "category": "gameplay",
        "kind": "goal_point",
        "layer": 75,
        "playable": true,
        "insidePlayArea": true,
        "pathIndexes": [
          0,
          1,
          2
        ]
      }
    },
    {
      "type": "Feature",
      "id": "gameplay.tower_slot.1",
      "geometry": {
        "type": "Point",
        "coordinates": [
          886.2,
          1044.9
        ]
      },
      "properties": {
        "id": "gameplay.tower_slot.1",
        "name": "gameplay.tower_slot.1",
        "category": "gameplay",
        "kind": "tower_slot",
        "layer": 75,
        "playable": true,
        "insidePlayArea": true,
        "slotIndex": 0,
        "slotNumber": 1
      }
    },
    {
      "type": "Feature",
      "id": "gameplay.tower_slot.2",
      "geometry": {
        "type": "Point",
        "coordinates": [
          1978.3,
          1160.2
        ]
      },
      "properties": {
        "id": "gameplay.tower_slot.2",
        "name": "gameplay.tower_slot.2",
        "category": "gameplay",
        "kind": "tower_slot",
        "layer": 75,
        "playable": true,
        "insidePlayArea": true,
        "slotIndex": 1,
        "slotNumber": 2
      }
    },
    {
      "type": "Feature",
      "id": "gameplay.tower_slot.3",
      "geometry": {
        "type": "Point",
        "coordinates": [
          1923.2,
          1000.2
        ]
      },
      "properties": {
        "id": "gameplay.tower_slot.3",
        "name": "gameplay.tower_slot.3",
        "category": "gameplay",
        "kind": "tower_slot",
        "layer": 75,
        "playable": true,
        "insidePlayArea": true,
        "slotIndex": 2,
        "slotNumber": 3
      }
    },
    {
      "type": "Feature",
      "id": "gameplay.tower_slot.4",
      "geometry": {
        "type": "Point",
        "coordinates": [
          1542.5,
          941.6
        ]
      },
      "properties": {
        "id": "gameplay.tower_slot.4",
        "name": "gameplay.tower_slot.4",
        "category": "gameplay",
        "kind": "tower_slot",
        "layer": 75,
        "playable": true,
        "insidePlayArea": true,
        "slotIndex": 3,
        "slotNumber": 4
      }
    },
    {
      "type": "Feature",
      "id": "gameplay.tower_slot.5",
      "geometry": {
        "type": "Point",
        "coordinates": [
          1297.9,
          783.2
        ]
      },
      "properties": {
        "id": "gameplay.tower_slot.5",
        "name": "gameplay.tower_slot.5",
        "category": "gameplay",
        "kind": "tower_slot",
        "layer": 75,
        "playable": true,
        "insidePlayArea": true,
        "slotIndex": 4,
        "slotNumber": 5
      }
    },
    {
      "type": "Feature",
      "id": "gameplay.tower_slot.6",
      "geometry": {
        "type": "Point",
        "coordinates": [
          708.9,
          791.8
        ]
      },
      "properties": {
        "id": "gameplay.tower_slot.6",
        "name": "gameplay.tower_slot.6",
        "category": "gameplay",
        "kind": "tower_slot",
        "layer": 75,
        "playable": true,
        "insidePlayArea": true,
        "slotIndex": 5,
        "slotNumber": 6
      }
    },
    {
      "type": "Feature",
      "id": "gameplay.tower_slot.7",
      "geometry": {
        "type": "Point",
        "coordinates": [
          2178.1,
          550.8
        ]
      },
      "properties": {
        "id": "gameplay.tower_slot.7",
        "name": "gameplay.tower_slot.7",
        "category": "gameplay",
        "kind": "tower_slot",
        "layer": 75,
        "playable": true,
        "insidePlayArea": true,
        "slotIndex": 6,
        "slotNumber": 7
      }
    },
    {
      "type": "Feature",
      "id": "gameplay.tower_slot.8",
      "geometry": {
        "type": "Point",
        "coordinates": [
          927.6,
          914.0
        ]
      },
      "properties": {
        "id": "gameplay.tower_slot.8",
        "name": "gameplay.tower_slot.8",
        "category": "gameplay",
        "kind": "tower_slot",
        "layer": 75,
        "playable": true,
        "insidePlayArea": true,
        "slotIndex": 7,
        "slotNumber": 8
      }
    },
    {
      "type": "Feature",
      "id": "gameplay.tower_slot.9",
      "geometry": {
        "type": "Point",
        "coordinates": [
          962.0,
          1275.6
        ]
      },
      "properties": {
        "id": "gameplay.tower_slot.9",
        "name": "gameplay.tower_slot.9",
        "category": "gameplay",
        "kind": "tower_slot",
        "layer": 75,
        "playable": true,
        "insidePlayArea": true,
        "slotIndex": 8,
        "slotNumber": 9
      }
    },
    {
      "type": "Feature",
      "id": "gameplay.tower_slot.10",
      "geometry": {
        "type": "Point",
        "coordinates": [
          875.9,
          1213.7
        ]
      },
      "properties": {
        "id": "gameplay.tower_slot.10",
        "name": "gameplay.tower_slot.10",
        "category": "gameplay",
        "kind": "tower_slot",
        "layer": 75,
        "playable": true,
        "insidePlayArea": true,
        "slotIndex": 9,
        "slotNumber": 10
      }
    },
    {
      "type": "Feature",
      "id": "gameplay.call_wave_button.0",
      "geometry": {
        "type": "Point",
        "coordinates": [
          768.2,
          643.3
        ]
      },
      "properties": {
        "id": "gameplay.call_wave_button.0",
        "name": "gameplay.call_wave_button.0",
        "category": "gameplay",
        "kind": "call_wave_button",
        "layer": 100,
        "playable": true,
        "insidePlayArea": true,
        "pathIndices": [
          0
        ]
      }
    },
    {
      "type": "Feature",
      "id": "gameplay.call_wave_button.1",
      "geometry": {
        "type": "Point",
        "coordinates": [
          1415.7,
          645.2
        ]
      },
      "properties": {
        "id": "gameplay.call_wave_button.1",
        "name": "gameplay.call_wave_button.1",
        "category": "gameplay",
        "kind": "call_wave_button",
        "layer": 100,
        "playable": true,
        "insidePlayArea": true,
        "pathIndices": [
          1
        ]
      }
    },
    {
      "type": "Feature",
      "id": "gameplay.call_wave_button.2",
      "geometry": {
        "type": "Point",
        "coordinates": [
          1979.2,
          643.3
        ]
      },
      "properties": {
        "id": "gameplay.call_wave_button.2",
        "name": "gameplay.call_wave_button.2",
        "category": "gameplay",
        "kind": "call_wave_button",
        "layer": 100,
        "playable": true,
        "insidePlayArea": true,
        "pathIndices": [
          2
        ]
      }
    },
    {
      "type": "Feature",
      "id": "gameplay.hero_spawn.primary",
      "geometry": {
        "type": "Point",
        "coordinates": [
          1518.5548234254102,
          1254.2171348882846
        ]
      },
      "properties": {
        "id": "gameplay.hero_spawn.primary",
        "name": "Primary hero start",
        "category": "gameplay",
        "kind": "hero_spawn",
        "layer": 75,
        "playable": true,
        "insidePlayArea": true,
        "heroRoles": [
          "primary"
        ]
      }
    },
    {
      "type": "Feature",
      "id": "gameplay.hero_spawn.secondary",
      "geometry": {
        "type": "Point",
        "coordinates": [
          1409.5775638255636,
          1242.9118221258855
        ]
      },
      "properties": {
        "id": "gameplay.hero_spawn.secondary",
        "name": "Secondary hero start",
        "category": "gameplay",
        "kind": "hero_spawn",
        "layer": 75,
        "playable": true,
        "insidePlayArea": true,
        "heroRoles": [
          "secondary"
        ]
      }
    }
  ],
  "heroCount": 2
}
