{
  "type": "FeatureCollection",
  "name": "Sullivan's Island",
  "coordinateReferenceSystem": {
    "type": "local-cartesian",
    "note": "NOT WGS84. Canonical game units, lower-left origin, +y up.",
    "canvas": {
      "width": 2868.0,
      "height": 2064.0
    },
    "playArea": {
      "x": 474.0,
      "y": 492.0,
      "width": 1920.0,
      "height": 1080.0
    }
  },
  "metadata": {
    "level": 6,
    "levelId": "35916460-914a-457b-beb9-1c5bfe95e61a",
    "levelName": "Sullivan's Island",
    "geometrySource": "Existing Db/DML/Levels SQL routes and tower slots; no route geometry changed."
  },
  "startingGold": 360,
  "lives": 20,
  "features": [
    {
      "type": "Feature",
      "id": "gameplay.path.0",
      "geometry": {
        "type": "LineString",
        "coordinates": [
          [
            937.9,
            678.2
          ],
          [
            941.0,
            680.8
          ],
          [
            944.0,
            683.5
          ],
          [
            947.0,
            686.0
          ],
          [
            950.1,
            688.5
          ],
          [
            953.2,
            691.1
          ],
          [
            956.4,
            693.6
          ],
          [
            959.5,
            696.2
          ],
          [
            962.5,
            698.7
          ],
          [
            965.6,
            701.2
          ],
          [
            968.8,
            703.7
          ],
          [
            971.9,
            706.2
          ],
          [
            974.9,
            708.8
          ],
          [
            978.0,
            711.3
          ],
          [
            981.0,
            713.9
          ],
          [
            984.1,
            716.5
          ],
          [
            987.2,
            719.0
          ],
          [
            990.2,
            721.7
          ],
          [
            993.3,
            724.2
          ],
          [
            996.3,
            726.8
          ],
          [
            999.4,
            729.5
          ],
          [
            1002.4,
            732.1
          ],
          [
            1005.4,
            734.8
          ],
          [
            1008.3,
            737.5
          ],
          [
            1011.2,
            740.2
          ],
          [
            1014.2,
            742.8
          ],
          [
            1017.1,
            745.6
          ],
          [
            1020.0,
            748.3
          ],
          [
            1022.9,
            751.1
          ],
          [
            1025.8,
            754.0
          ],
          [
            1028.5,
            756.8
          ],
          [
            1031.3,
            759.7
          ],
          [
            1034.1,
            762.5
          ],
          [
            1036.8,
            765.5
          ],
          [
            1039.5,
            768.5
          ],
          [
            1042.1,
            771.5
          ],
          [
            1044.7,
            774.5
          ],
          [
            1047.2,
            777.7
          ],
          [
            1049.7,
            780.8
          ],
          [
            1052.1,
            784.0
          ],
          [
            1054.5,
            787.2
          ],
          [
            1056.8,
            790.4
          ],
          [
            1059.2,
            793.7
          ],
          [
            1061.5,
            796.9
          ],
          [
            1063.8,
            800.2
          ],
          [
            1066.1,
            803.5
          ],
          [
            1068.3,
            806.8
          ],
          [
            1070.5,
            810.2
          ],
          [
            1072.7,
            813.5
          ],
          [
            1074.8,
            816.8
          ],
          [
            1077.0,
            820.2
          ],
          [
            1079.0,
            823.7
          ],
          [
            1081.1,
            827.1
          ],
          [
            1083.2,
            830.5
          ],
          [
            1085.2,
            834.0
          ],
          [
            1087.1,
            837.5
          ],
          [
            1089.0,
            841.0
          ],
          [
            1090.9,
            844.5
          ],
          [
            1092.8,
            848.0
          ],
          [
            1094.7,
            851.6
          ],
          [
            1096.5,
            855.2
          ],
          [
            1098.2,
            858.8
          ],
          [
            1100.0,
            862.4
          ],
          [
            1101.7,
            866.0
          ],
          [
            1103.3,
            869.7
          ],
          [
            1104.9,
            873.3
          ],
          [
            1106.5,
            877.0
          ],
          [
            1108.0,
            880.7
          ],
          [
            1109.5,
            884.3
          ],
          [
            1111.0,
            888.1
          ],
          [
            1112.4,
            891.8
          ],
          [
            1113.8,
            895.6
          ],
          [
            1115.0,
            899.4
          ],
          [
            1116.3,
            903.2
          ],
          [
            1117.4,
            907.0
          ],
          [
            1118.5,
            910.8
          ],
          [
            1119.5,
            914.8
          ],
          [
            1120.5,
            918.7
          ],
          [
            1121.3,
            922.5
          ],
          [
            1122.1,
            926.5
          ],
          [
            1122.8,
            930.4
          ],
          [
            1123.5,
            934.3
          ],
          [
            1124.2,
            938.3
          ],
          [
            1124.8,
            942.2
          ],
          [
            1125.3,
            946.2
          ],
          [
            1125.8,
            950.2
          ],
          [
            1126.3,
            954.2
          ],
          [
            1126.7,
            958.1
          ],
          [
            1127.1,
            962.1
          ],
          [
            1127.5,
            966.1
          ],
          [
            1127.8,
            970.0
          ],
          [
            1128.1,
            974.0
          ],
          [
            1128.4,
            978.0
          ],
          [
            1128.7,
            982.0
          ],
          [
            1128.9,
            986.0
          ],
          [
            1129.2,
            990.0
          ],
          [
            1129.4,
            994.0
          ],
          [
            1129.7,
            998.0
          ],
          [
            1129.9,
            1002.0
          ],
          [
            1130.2,
            1006.0
          ],
          [
            1130.5,
            1010.0
          ],
          [
            1130.7,
            1014.0
          ],
          [
            1131.0,
            1018.0
          ],
          [
            1131.0,
            1022.0
          ],
          [
            1130.9,
            1026.0
          ],
          [
            1130.6,
            1030.0
          ],
          [
            1130.1,
            1033.9
          ],
          [
            1129.5,
            1037.8
          ],
          [
            1128.8,
            1041.8
          ],
          [
            1128.0,
            1045.7
          ],
          [
            1127.2,
            1049.7
          ],
          [
            1126.2,
            1053.5
          ],
          [
            1125.3,
            1057.4
          ],
          [
            1124.4,
            1061.3
          ],
          [
            1123.5,
            1065.2
          ],
          [
            1122.7,
            1069.1
          ],
          [
            1121.8,
            1073.0
          ],
          [
            1121.2,
            1077.0
          ],
          [
            1120.7,
            1081.0
          ],
          [
            1120.3,
            1085.0
          ],
          [
            1120.2,
            1089.0
          ],
          [
            1120.2,
            1092.9
          ],
          [
            1120.6,
            1096.9
          ],
          [
            1121.3,
            1100.8
          ],
          [
            1122.5,
            1104.7
          ],
          [
            1123.9,
            1108.4
          ],
          [
            1125.8,
            1112.0
          ],
          [
            1127.9,
            1115.3
          ],
          [
            1130.5,
            1118.4
          ],
          [
            1133.2,
            1121.3
          ],
          [
            1136.2,
            1124.0
          ],
          [
            1139.3,
            1126.5
          ],
          [
            1142.5,
            1128.8
          ],
          [
            1145.8,
            1131.0
          ],
          [
            1149.2,
            1133.2
          ],
          [
            1152.7,
            1135.2
          ],
          [
            1156.2,
            1137.2
          ],
          [
            1159.8,
            1139.0
          ],
          [
            1163.3,
            1140.8
          ],
          [
            1166.8,
            1142.6
          ],
          [
            1170.5,
            1144.3
          ],
          [
            1174.1,
            1146.0
          ],
          [
            1177.8,
            1147.7
          ],
          [
            1181.4,
            1149.2
          ],
          [
            1185.1,
            1150.8
          ],
          [
            1188.8,
            1152.4
          ],
          [
            1192.5,
            1153.9
          ],
          [
            1196.2,
            1155.4
          ],
          [
            1199.9,
            1156.9
          ],
          [
            1203.7,
            1158.3
          ],
          [
            1207.3,
            1159.8
          ],
          [
            1211.1,
            1161.2
          ],
          [
            1214.8,
            1162.6
          ],
          [
            1218.6,
            1164.0
          ],
          [
            1222.3,
            1165.3
          ],
          [
            1226.1,
            1166.7
          ],
          [
            1229.9,
            1168.1
          ],
          [
            1233.7,
            1169.4
          ],
          [
            1237.4,
            1170.8
          ],
          [
            1241.2,
            1172.1
          ],
          [
            1245.0,
            1173.4
          ],
          [
            1248.8,
            1174.8
          ],
          [
            1252.5,
            1176.0
          ],
          [
            1256.3,
            1177.4
          ],
          [
            1260.0,
            1178.7
          ],
          [
            1263.8,
            1180.0
          ],
          [
            1267.6,
            1181.4
          ],
          [
            1271.3,
            1182.8
          ],
          [
            1275.1,
            1184.2
          ],
          [
            1278.8,
            1185.6
          ],
          [
            1282.5,
            1187.1
          ],
          [
            1284.2,
            1187.8
          ]
        ]
      },
      "properties": {
        "id": "gameplay.path.0",
        "name": "gameplay.path.0",
        "category": "gameplay",
        "kind": "enemy_path",
        "layer": 75,
        "playable": true,
        "insidePlayArea": true,
        "pathIndex": 0,
        "widthPx": 140.0
      }
    },
    {
      "type": "Feature",
      "id": "gameplay.entry.0",
      "geometry": {
        "type": "Point",
        "coordinates": [
          937.9,
          678.2
        ]
      },
      "properties": {
        "id": "gameplay.entry.0",
        "name": "gameplay.entry.0",
        "category": "gameplay",
        "kind": "spawn_point",
        "layer": 75,
        "playable": true,
        "insidePlayArea": true,
        "pathIndex": 0
      }
    },
    {
      "type": "Feature",
      "id": "gameplay.path.1",
      "geometry": {
        "type": "LineString",
        "coordinates": [
          [
            1773.3,
            669.6
          ],
          [
            1771.4,
            673.1
          ],
          [
            1769.4,
            676.5
          ],
          [
            1767.3,
            680.0
          ],
          [
            1765.3,
            683.5
          ],
          [
            1763.3,
            686.9
          ],
          [
            1761.2,
            690.3
          ],
          [
            1759.2,
            693.8
          ],
          [
            1757.2,
            697.2
          ],
          [
            1755.2,
            700.7
          ],
          [
            1753.2,
            704.2
          ],
          [
            1751.1,
            707.6
          ],
          [
            1749.1,
            711.0
          ],
          [
            1747.1,
            714.5
          ],
          [
            1745.1,
            718.0
          ],
          [
            1743.2,
            721.5
          ],
          [
            1741.2,
            725.0
          ],
          [
            1739.2,
            728.5
          ],
          [
            1737.3,
            732.0
          ],
          [
            1735.4,
            735.5
          ],
          [
            1733.5,
            739.0
          ],
          [
            1731.7,
            742.5
          ],
          [
            1729.8,
            746.1
          ],
          [
            1728.0,
            749.7
          ],
          [
            1726.2,
            753.2
          ],
          [
            1724.5,
            756.8
          ],
          [
            1722.8,
            760.5
          ],
          [
            1721.0,
            764.0
          ],
          [
            1719.4,
            767.7
          ],
          [
            1717.8,
            771.4
          ],
          [
            1716.3,
            775.1
          ],
          [
            1714.8,
            778.8
          ],
          [
            1713.4,
            782.5
          ],
          [
            1712.0,
            786.2
          ],
          [
            1710.6,
            790.0
          ],
          [
            1709.2,
            793.8
          ],
          [
            1708.0,
            797.5
          ],
          [
            1706.7,
            801.3
          ],
          [
            1705.4,
            805.2
          ],
          [
            1704.2,
            809.0
          ],
          [
            1703.0,
            812.8
          ],
          [
            1701.8,
            816.6
          ],
          [
            1700.7,
            820.5
          ],
          [
            1699.5,
            824.2
          ],
          [
            1698.4,
            828.1
          ],
          [
            1697.3,
            832.0
          ],
          [
            1696.2,
            835.8
          ],
          [
            1695.2,
            839.7
          ],
          [
            1694.2,
            843.5
          ],
          [
            1693.2,
            847.4
          ],
          [
            1692.2,
            851.3
          ],
          [
            1691.2,
            855.2
          ],
          [
            1690.2,
            859.0
          ],
          [
            1689.3,
            863.0
          ],
          [
            1688.4,
            866.8
          ],
          [
            1687.5,
            870.8
          ],
          [
            1686.6,
            874.7
          ],
          [
            1685.7,
            878.5
          ],
          [
            1684.8,
            882.5
          ],
          [
            1684.0,
            886.3
          ],
          [
            1683.1,
            890.2
          ],
          [
            1682.2,
            894.2
          ],
          [
            1681.4,
            898.0
          ],
          [
            1680.5,
            902.0
          ],
          [
            1679.7,
            905.9
          ],
          [
            1678.8,
            909.8
          ],
          [
            1678.0,
            913.7
          ],
          [
            1677.2,
            917.6
          ],
          [
            1676.3,
            921.5
          ],
          [
            1675.5,
            925.4
          ],
          [
            1674.6,
            929.3
          ],
          [
            1673.8,
            933.2
          ],
          [
            1673.0,
            937.2
          ],
          [
            1672.2,
            941.1
          ],
          [
            1671.5,
            945.0
          ],
          [
            1670.7,
            949.0
          ],
          [
            1670.0,
            952.9
          ],
          [
            1669.2,
            956.8
          ],
          [
            1668.6,
            960.8
          ],
          [
            1668.0,
            964.7
          ],
          [
            1667.3,
            968.7
          ],
          [
            1666.8,
            972.6
          ],
          [
            1666.2,
            976.6
          ],
          [
            1665.8,
            980.5
          ],
          [
            1665.4,
            984.5
          ],
          [
            1665.0,
            988.5
          ],
          [
            1664.8,
            992.5
          ],
          [
            1664.5,
            996.5
          ],
          [
            1664.4,
            1000.5
          ],
          [
            1664.4,
            1004.5
          ],
          [
            1664.5,
            1008.5
          ],
          [
            1664.6,
            1012.5
          ],
          [
            1664.9,
            1016.5
          ],
          [
            1665.3,
            1020.5
          ],
          [
            1665.8,
            1024.5
          ],
          [
            1666.4,
            1028.4
          ],
          [
            1667.1,
            1032.3
          ],
          [
            1667.9,
            1036.2
          ],
          [
            1668.8,
            1040.2
          ],
          [
            1669.8,
            1044.0
          ],
          [
            1671.0,
            1047.8
          ],
          [
            1672.2,
            1051.7
          ],
          [
            1673.5,
            1055.5
          ],
          [
            1674.8,
            1059.2
          ],
          [
            1676.3,
            1062.9
          ],
          [
            1678.0,
            1066.6
          ],
          [
            1679.6,
            1070.2
          ],
          [
            1681.4,
            1073.8
          ],
          [
            1683.2,
            1077.3
          ],
          [
            1685.2,
            1080.8
          ],
          [
            1687.2,
            1084.2
          ],
          [
            1689.3,
            1087.7
          ],
          [
            1691.5,
            1091.0
          ],
          [
            1693.8,
            1094.3
          ],
          [
            1696.2,
            1097.5
          ],
          [
            1698.5,
            1100.8
          ],
          [
            1701.0,
            1103.9
          ],
          [
            1703.7,
            1106.8
          ],
          [
            1706.5,
            1109.7
          ],
          [
            1709.5,
            1112.5
          ],
          [
            1712.5,
            1115.1
          ],
          [
            1715.5,
            1117.7
          ],
          [
            1718.7,
            1120.1
          ],
          [
            1721.8,
            1122.5
          ],
          [
            1725.1,
            1124.8
          ],
          [
            1728.3,
            1127.2
          ],
          [
            1731.7,
            1129.4
          ],
          [
            1735.0,
            1131.6
          ],
          [
            1738.4,
            1133.8
          ],
          [
            1741.8,
            1135.9
          ],
          [
            1745.2,
            1138.0
          ],
          [
            1748.6,
            1140.0
          ],
          [
            1752.0,
            1142.1
          ],
          [
            1755.5,
            1144.2
          ],
          [
            1759.0,
            1146.2
          ],
          [
            1762.3,
            1148.2
          ],
          [
            1765.8,
            1150.2
          ],
          [
            1769.2,
            1152.3
          ],
          [
            1772.5,
            1154.5
          ],
          [
            1773.3,
            1155.1
          ]
        ]
      },
      "properties": {
        "id": "gameplay.path.1",
        "name": "gameplay.path.1",
        "category": "gameplay",
        "kind": "enemy_path",
        "layer": 75,
        "playable": true,
        "insidePlayArea": true,
        "pathIndex": 1,
        "widthPx": 140.0
      }
    },
    {
      "type": "Feature",
      "id": "gameplay.entry.1",
      "geometry": {
        "type": "Point",
        "coordinates": [
          1773.3,
          669.6
        ]
      },
      "properties": {
        "id": "gameplay.entry.1",
        "name": "gameplay.entry.1",
        "category": "gameplay",
        "kind": "spawn_point",
        "layer": 75,
        "playable": true,
        "insidePlayArea": true,
        "pathIndex": 1
      }
    },
    {
  "type": "Feature",
  "id": "gameplay.exit.0",
  "geometry": {
    "type": "Point",
    "coordinates": [
      1284.2,
      1187.8
    ]
  },
  "properties": {
    "id": "gameplay.exit.0",
    "name": "gameplay.exit.0",
    "category": "gameplay",
    "kind": "goal_point",
    "layer": 75,
    "playable": true,
    "insidePlayArea": true,
    "pathIndexes": [
      0
    ]
  }
},
    {
  "type": "Feature",
  "id": "gameplay.exit.1",
  "geometry": {
    "type": "Point",
    "coordinates": [
      1773.3,
      1155.1
    ]
  },
  "properties": {
    "id": "gameplay.exit.1",
    "name": "gameplay.exit.1",
    "category": "gameplay",
    "kind": "goal_point",
    "layer": 75,
    "playable": true,
    "insidePlayArea": true,
    "pathIndexes": [
      1
    ]
  }
},
    {
      "type": "Feature",
      "id": "gameplay.tower_slot.1",
      "geometry": {
        "type": "Point",
        "coordinates": [
          1759.5,
          903.8
        ]
      },
      "properties": {
        "id": "gameplay.tower_slot.1",
        "name": "gameplay.tower_slot.1",
        "category": "gameplay",
        "kind": "tower_slot",
        "layer": 75,
        "playable": true,
        "insidePlayArea": true,
        "slotIndex": 0,
        "slotNumber": 1
      }
    },
    {
      "type": "Feature",
      "id": "gameplay.tower_slot.2",
      "geometry": {
        "type": "Point",
        "coordinates": [
          1139.5,
          871.0
        ]
      },
      "properties": {
        "id": "gameplay.tower_slot.2",
        "name": "gameplay.tower_slot.2",
        "category": "gameplay",
        "kind": "tower_slot",
        "layer": 75,
        "playable": true,
        "insidePlayArea": true,
        "slotIndex": 1,
        "slotNumber": 2
      }
    },
    {
      "type": "Feature",
      "id": "gameplay.tower_slot.3",
      "geometry": {
        "type": "Point",
        "coordinates": [
          1613.2,
          941.6
        ]
      },
      "properties": {
        "id": "gameplay.tower_slot.3",
        "name": "gameplay.tower_slot.3",
        "category": "gameplay",
        "kind": "tower_slot",
        "layer": 75,
        "playable": true,
        "insidePlayArea": true,
        "slotIndex": 2,
        "slotNumber": 3
      }
    },
    {
      "type": "Feature",
      "id": "gameplay.tower_slot.4",
      "geometry": {
        "type": "Point",
        "coordinates": [
          1986.9,
          1032.8
        ]
      },
      "properties": {
        "id": "gameplay.tower_slot.4",
        "name": "gameplay.tower_slot.4",
        "category": "gameplay",
        "kind": "tower_slot",
        "layer": 75,
        "playable": true,
        "insidePlayArea": true,
        "slotIndex": 3,
        "slotNumber": 4
      }
    },
    {
      "type": "Feature",
      "id": "gameplay.tower_slot.5",
      "geometry": {
        "type": "Point",
        "coordinates": [
          1062.0,
          960.5
        ]
      },
      "properties": {
        "id": "gameplay.tower_slot.5",
        "name": "gameplay.tower_slot.5",
        "category": "gameplay",
        "kind": "tower_slot",
        "layer": 75,
        "playable": true,
        "insidePlayArea": true,
        "slotIndex": 4,
        "slotNumber": 5
      }
    },
    {
      "type": "Feature",
      "id": "gameplay.tower_slot.6",
      "geometry": {
        "type": "Point",
        "coordinates": [
          1962.8,
          798.8
        ]
      },
      "properties": {
        "id": "gameplay.tower_slot.6",
        "name": "gameplay.tower_slot.6",
        "category": "gameplay",
        "kind": "tower_slot",
        "layer": 75,
        "playable": true,
        "insidePlayArea": true,
        "slotIndex": 5,
        "slotNumber": 6
      }
    },
    {
      "type": "Feature",
      "id": "gameplay.tower_slot.7",
      "geometry": {
        "type": "Point",
        "coordinates": [
          1187.7,
          989.8
        ]
      },
      "properties": {
        "id": "gameplay.tower_slot.7",
        "name": "gameplay.tower_slot.7",
        "category": "gameplay",
        "kind": "tower_slot",
        "layer": 75,
        "playable": true,
        "insidePlayArea": true,
        "slotIndex": 6,
        "slotNumber": 7
      }
    },
    {
      "type": "Feature",
      "id": "gameplay.tower_slot.8",
      "geometry": {
        "type": "Point",
        "coordinates": [
          984.5,
          793.5
        ]
      },
      "properties": {
        "id": "gameplay.tower_slot.8",
        "name": "gameplay.tower_slot.8",
        "category": "gameplay",
        "kind": "tower_slot",
        "layer": 75,
        "playable": true,
        "insidePlayArea": true,
        "slotIndex": 7,
        "slotNumber": 8
      }
    },
    {
      "type": "Feature",
      "id": "gameplay.tower_slot.9",
      "geometry": {
        "type": "Point",
        "coordinates": [
          1096.4,
          1106.9
        ]
      },
      "properties": {
        "id": "gameplay.tower_slot.9",
        "name": "gameplay.tower_slot.9",
        "category": "gameplay",
        "kind": "tower_slot",
        "layer": 75,
        "playable": true,
        "insidePlayArea": true,
        "slotIndex": 8,
        "slotNumber": 9
      }
    },
    {
      "type": "Feature",
      "id": "gameplay.tower_slot.10",
      "geometry": {
        "type": "Point",
        "coordinates": [
          1621.8,
          822.8
        ]
      },
      "properties": {
        "id": "gameplay.tower_slot.10",
        "name": "gameplay.tower_slot.10",
        "category": "gameplay",
        "kind": "tower_slot",
        "layer": 75,
        "playable": true,
        "insidePlayArea": true,
        "slotIndex": 9,
        "slotNumber": 10
      }
    },
    {
      "type": "Feature",
      "id": "gameplay.call_wave_button.0",
      "geometry": {
        "type": "Point",
        "coordinates": [
          937.9,
          678.2
        ]
      },
      "properties": {
        "id": "gameplay.call_wave_button.0",
        "name": "gameplay.call_wave_button.0",
        "category": "gameplay",
        "kind": "call_wave_button",
        "layer": 100,
        "playable": true,
        "insidePlayArea": true,
        "pathIndices": [
          0
        ]
      }
    },
    {
      "type": "Feature",
      "id": "gameplay.call_wave_button.1",
      "geometry": {
        "type": "Point",
        "coordinates": [
          1773.3,
          669.6
        ]
      },
      "properties": {
        "id": "gameplay.call_wave_button.1",
        "name": "gameplay.call_wave_button.1",
        "category": "gameplay",
        "kind": "call_wave_button",
        "layer": 100,
        "playable": true,
        "insidePlayArea": true,
        "pathIndices": [
          1
        ]
      }
    },
    {
      "type": "Feature",
      "id": "gameplay.hero_spawn.primary",
      "geometry": {
        "type": "Point",
        "coordinates": [
          1284.2,
          1208.361448974707
        ]
      },
      "properties": {
        "id": "gameplay.hero_spawn.primary",
        "name": "Primary hero start",
        "category": "gameplay",
        "kind": "hero_spawn",
        "layer": 75,
        "playable": true,
        "insidePlayArea": true,
        "heroRoles": [
          "primary"
        ]
      }
    },
    {
      "type": "Feature",
      "id": "gameplay.hero_spawn.secondary",
      "geometry": {
        "type": "Point",
        "coordinates": [
          1773.3,
          1181.8287124479516
        ]
      },
      "properties": {
        "id": "gameplay.hero_spawn.secondary",
        "name": "Secondary hero start",
        "category": "gameplay",
        "kind": "hero_spawn",
        "layer": 75,
        "playable": true,
        "insidePlayArea": true,
        "heroRoles": [
          "secondary"
        ]
      }
    }
  ],
  "heroCount": 2
}
