{
  "type": "FeatureCollection",
  "name": "Trenton",
  "coordinateReferenceSystem": {
    "type": "local-cartesian",
    "note": "NOT WGS84. Canonical game units, lower-left origin, +y up.",
    "canvas": {
      "width": 2868.0,
      "height": 2064.0
    },
    "playArea": {
      "x": 474.0,
      "y": 492.0,
      "width": 1920.0,
      "height": 1080.0
    }
  },
  "metadata": {
    "level": 8,
    "levelId": "537aba11-6201-4fe9-b789-36607de98e41",
    "levelName": "Trenton",
    "geometrySource": "Existing Db/DML/Levels SQL routes and tower slots; no route geometry changed."
  },
  "startingGold": 380,
  "lives": 20,
  "features": [
    {
      "type": "Feature",
      "id": "gameplay.path.0",
      "geometry": {
        "type": "LineString",
        "coordinates": [
          [
            851.8,
            1394.4
          ],
          [
            855.2,
            1392.3
          ],
          [
            858.7,
            1390.3
          ],
          [
            862.2,
            1388.4
          ],
          [
            865.7,
            1386.5
          ],
          [
            869.2,
            1384.7
          ],
          [
            872.8,
            1382.8
          ],
          [
            876.4,
            1380.9
          ],
          [
            879.9,
            1379.0
          ],
          [
            883.4,
            1377.2
          ],
          [
            887.0,
            1375.2
          ],
          [
            890.5,
            1373.3
          ],
          [
            894.0,
            1371.5
          ],
          [
            897.5,
            1369.5
          ],
          [
            901.0,
            1367.6
          ],
          [
            904.5,
            1365.6
          ],
          [
            907.9,
            1363.6
          ],
          [
            911.4,
            1361.6
          ],
          [
            914.8,
            1359.5
          ],
          [
            918.2,
            1357.5
          ],
          [
            921.6,
            1355.3
          ],
          [
            925.0,
            1353.2
          ],
          [
            928.3,
            1351.0
          ],
          [
            931.6,
            1348.8
          ],
          [
            934.9,
            1346.5
          ],
          [
            938.1,
            1344.1
          ],
          [
            941.3,
            1341.7
          ],
          [
            944.5,
            1339.2
          ],
          [
            947.5,
            1336.7
          ],
          [
            950.5,
            1334.0
          ],
          [
            953.4,
            1331.2
          ],
          [
            956.1,
            1328.3
          ],
          [
            958.8,
            1325.3
          ],
          [
            961.2,
            1322.2
          ],
          [
            963.5,
            1318.8
          ],
          [
            965.6,
            1315.5
          ],
          [
            967.6,
            1312.0
          ],
          [
            969.5,
            1308.5
          ],
          [
            971.3,
            1304.9
          ],
          [
            972.9,
            1301.2
          ],
          [
            974.4,
            1297.5
          ],
          [
            975.8,
            1293.8
          ],
          [
            977.1,
            1290.0
          ],
          [
            978.3,
            1286.2
          ],
          [
            979.5,
            1282.3
          ],
          [
            980.5,
            1278.5
          ],
          [
            981.5,
            1274.6
          ],
          [
            982.5,
            1270.7
          ],
          [
            983.4,
            1266.8
          ],
          [
            984.2,
            1262.9
          ],
          [
            985.0,
            1259.0
          ],
          [
            985.9,
            1255.1
          ],
          [
            986.6,
            1251.2
          ],
          [
            987.4,
            1247.2
          ],
          [
            988.2,
            1243.3
          ],
          [
            989.0,
            1239.4
          ],
          [
            989.9,
            1235.5
          ],
          [
            990.8,
            1231.6
          ],
          [
            991.6,
            1227.7
          ],
          [
            992.6,
            1223.8
          ],
          [
            993.6,
            1220.0
          ],
          [
            994.5,
            1216.0
          ],
          [
            995.2,
            1212.1
          ],
          [
            995.8,
            1208.2
          ],
          [
            996.2,
            1204.2
          ],
          [
            996.5,
            1200.2
          ],
          [
            996.7,
            1196.2
          ],
          [
            996.9,
            1192.2
          ],
          [
            997.0,
            1188.2
          ],
          [
            997.1,
            1184.2
          ],
          [
            997.2,
            1180.2
          ],
          [
            997.5,
            1176.2
          ],
          [
            997.8,
            1172.2
          ],
          [
            998.2,
            1168.2
          ],
          [
            998.8,
            1164.3
          ],
          [
            999.5,
            1160.3
          ],
          [
            1000.5,
            1156.5
          ],
          [
            1001.8,
            1152.7
          ],
          [
            1003.2,
            1149.0
          ],
          [
            1004.9,
            1145.3
          ],
          [
            1006.8,
            1141.8
          ],
          [
            1008.8,
            1138.3
          ],
          [
            1011.1,
            1135.0
          ],
          [
            1013.5,
            1131.8
          ],
          [
            1016.0,
            1128.8
          ],
          [
            1018.7,
            1125.8
          ],
          [
            1021.3,
            1122.8
          ],
          [
            1024.2,
            1120.0
          ],
          [
            1027.0,
            1117.2
          ],
          [
            1029.9,
            1114.4
          ],
          [
            1032.8,
            1111.7
          ],
          [
            1035.8,
            1109.0
          ],
          [
            1038.9,
            1106.5
          ],
          [
            1042.0,
            1103.9
          ],
          [
            1045.0,
            1101.3
          ],
          [
            1048.2,
            1098.8
          ],
          [
            1051.3,
            1096.3
          ],
          [
            1054.5,
            1093.9
          ],
          [
            1057.7,
            1091.5
          ],
          [
            1060.8,
            1089.0
          ],
          [
            1064.0,
            1086.7
          ],
          [
            1067.2,
            1084.2
          ],
          [
            1070.5,
            1081.9
          ],
          [
            1073.7,
            1079.5
          ],
          [
            1076.9,
            1077.2
          ],
          [
            1080.2,
            1074.8
          ],
          [
            1083.4,
            1072.5
          ],
          [
            1086.6,
            1070.1
          ],
          [
            1089.8,
            1067.8
          ],
          [
            1093.1,
            1065.4
          ],
          [
            1096.3,
            1063.0
          ],
          [
            1099.5,
            1060.7
          ],
          [
            1102.8,
            1058.2
          ],
          [
            1106.0,
            1055.9
          ],
          [
            1109.2,
            1053.5
          ],
          [
            1112.3,
            1051.0
          ],
          [
            1115.5,
            1048.7
          ],
          [
            1118.7,
            1046.2
          ],
          [
            1121.9,
            1043.8
          ],
          [
            1125.1,
            1041.5
          ],
          [
            1128.3,
            1039.0
          ],
          [
            1131.5,
            1036.7
          ],
          [
            1134.8,
            1034.3
          ],
          [
            1138.0,
            1032.0
          ],
          [
            1141.3,
            1029.7
          ],
          [
            1144.6,
            1027.4
          ],
          [
            1147.8,
            1025.1
          ],
          [
            1151.2,
            1022.8
          ],
          [
            1154.4,
            1020.5
          ],
          [
            1157.7,
            1018.2
          ],
          [
            1161.0,
            1016.0
          ],
          [
            1164.2,
            1013.7
          ],
          [
            1167.5,
            1011.4
          ],
          [
            1170.8,
            1009.2
          ],
          [
            1174.2,
            1006.8
          ],
          [
            1177.5,
            1004.6
          ],
          [
            1180.8,
            1002.3
          ],
          [
            1184.0,
            1000.0
          ],
          [
            1187.3,
            997.8
          ],
          [
            1190.6,
            995.5
          ],
          [
            1193.9,
            993.2
          ],
          [
            1197.2,
            990.9
          ],
          [
            1200.5,
            988.7
          ],
          [
            1203.7,
            986.3
          ],
          [
            1207.0,
            984.0
          ],
          [
            1210.2,
            981.7
          ],
          [
            1213.5,
            979.3
          ],
          [
            1216.8,
            977.0
          ],
          [
            1220.0,
            974.7
          ],
          [
            1223.2,
            972.3
          ],
          [
            1226.4,
            969.9
          ],
          [
            1229.6,
            967.5
          ],
          [
            1232.8,
            965.1
          ],
          [
            1236.0,
            962.7
          ],
          [
            1239.2,
            960.2
          ],
          [
            1242.3,
            957.8
          ],
          [
            1245.6,
            955.5
          ],
          [
            1248.8,
            953.2
          ],
          [
            1252.1,
            950.8
          ],
          [
            1255.3,
            948.5
          ],
          [
            1258.6,
            946.2
          ],
          [
            1261.9,
            943.9
          ],
          [
            1265.2,
            941.6
          ],
          [
            1268.5,
            939.3
          ],
          [
            1271.8,
            937.0
          ],
          [
            1275.0,
            934.8
          ],
          [
            1278.2,
            932.5
          ],
          [
            1281.5,
            930.1
          ],
          [
            1284.8,
            927.8
          ],
          [
            1288.0,
            925.5
          ],
          [
            1291.2,
            923.1
          ],
          [
            1294.5,
            920.7
          ],
          [
            1297.7,
            918.3
          ],
          [
            1300.8,
            915.8
          ],
          [
            1304.0,
            913.3
          ],
          [
            1307.1,
            910.8
          ],
          [
            1310.2,
            908.3
          ],
          [
            1313.2,
            905.7
          ],
          [
            1316.2,
            903.0
          ],
          [
            1319.1,
            900.3
          ],
          [
            1322.0,
            897.5
          ],
          [
            1324.8,
            894.7
          ],
          [
            1327.5,
            891.7
          ],
          [
            1330.0,
            888.7
          ],
          [
            1332.5,
            885.5
          ],
          [
            1334.8,
            882.2
          ],
          [
            1337.0,
            878.8
          ],
          [
            1338.8,
            875.3
          ],
          [
            1340.5,
            871.7
          ],
          [
            1341.8,
            867.9
          ],
          [
            1342.9,
            864.0
          ],
          [
            1343.8,
            860.2
          ],
          [
            1344.4,
            856.2
          ],
          [
            1344.8,
            852.2
          ],
          [
            1345.1,
            848.2
          ],
          [
            1345.2,
            844.2
          ],
          [
            1345.2,
            840.2
          ],
          [
            1345.0,
            836.2
          ],
          [
            1344.7,
            832.2
          ],
          [
            1344.3,
            828.3
          ],
          [
            1343.9,
            824.3
          ],
          [
            1343.3,
            820.3
          ],
          [
            1342.8,
            816.4
          ],
          [
            1342.1,
            812.5
          ],
          [
            1341.5,
            808.5
          ],
          [
            1340.7,
            804.5
          ],
          [
            1340.0,
            800.7
          ],
          [
            1339.3,
            796.7
          ],
          [
            1338.6,
            792.8
          ],
          [
            1338.0,
            788.8
          ],
          [
            1337.6,
            784.8
          ],
          [
            1337.5,
            783.2
          ]
        ]
      },
      "properties": {
        "id": "gameplay.path.0",
        "name": "gameplay.path.0",
        "category": "gameplay",
        "kind": "enemy_path",
        "layer": 75,
        "playable": true,
        "insidePlayArea": true,
        "pathIndex": 0,
        "widthPx": 140.0
      }
    },
    {
      "type": "Feature",
      "id": "gameplay.entry.0",
      "geometry": {
        "type": "Point",
        "coordinates": [
          851.8,
          1394.4
        ]
      },
      "properties": {
        "id": "gameplay.entry.0",
        "name": "gameplay.entry.0",
        "category": "gameplay",
        "kind": "spawn_point",
        "layer": 75,
        "playable": true,
        "insidePlayArea": true,
        "pathIndex": 0
      }
    },
    {
      "type": "Feature",
      "id": "gameplay.path.1",
      "geometry": {
        "type": "LineString",
        "coordinates": [
          [
            2102.3,
            1394.4
          ],
          [
            2099.6,
            1391.5
          ],
          [
            2096.8,
            1388.5
          ],
          [
            2094.1,
            1385.7
          ],
          [
            2091.2,
            1382.8
          ],
          [
            2088.4,
            1380.0
          ],
          [
            2085.6,
            1377.2
          ],
          [
            2082.8,
            1374.3
          ],
          [
            2079.9,
            1371.5
          ],
          [
            2077.2,
            1368.7
          ],
          [
            2074.3,
            1365.8
          ],
          [
            2071.6,
            1363.0
          ],
          [
            2068.8,
            1360.1
          ],
          [
            2066.0,
            1357.2
          ],
          [
            2063.2,
            1354.3
          ],
          [
            2060.5,
            1351.3
          ],
          [
            2057.8,
            1348.4
          ],
          [
            2055.1,
            1345.5
          ],
          [
            2052.4,
            1342.5
          ],
          [
            2049.8,
            1339.5
          ],
          [
            2047.2,
            1336.5
          ],
          [
            2044.6,
            1333.4
          ],
          [
            2042.1,
            1330.3
          ],
          [
            2039.6,
            1327.2
          ],
          [
            2037.2,
            1324.0
          ],
          [
            2034.8,
            1320.8
          ],
          [
            2032.5,
            1317.5
          ],
          [
            2030.2,
            1314.2
          ],
          [
            2028.0,
            1310.8
          ],
          [
            2026.0,
            1307.4
          ],
          [
            2024.1,
            1303.9
          ],
          [
            2022.3,
            1300.3
          ],
          [
            2020.7,
            1296.7
          ],
          [
            2019.2,
            1293.0
          ],
          [
            2017.8,
            1289.2
          ],
          [
            2016.5,
            1285.4
          ],
          [
            2015.3,
            1281.6
          ],
          [
            2014.2,
            1277.8
          ],
          [
            2013.1,
            1273.9
          ],
          [
            2012.1,
            1270.0
          ],
          [
            2011.2,
            1266.2
          ],
          [
            2010.2,
            1262.2
          ],
          [
            2009.3,
            1258.3
          ],
          [
            2008.3,
            1254.5
          ],
          [
            2007.5,
            1250.5
          ],
          [
            2006.5,
            1246.7
          ],
          [
            2005.6,
            1242.8
          ],
          [
            2004.6,
            1238.9
          ],
          [
            2003.6,
            1235.0
          ],
          [
            2002.5,
            1231.2
          ],
          [
            2001.3,
            1227.4
          ],
          [
            2000.0,
            1223.6
          ],
          [
            1998.8,
            1219.8
          ],
          [
            1997.3,
            1216.1
          ],
          [
            1995.7,
            1212.4
          ],
          [
            1994.0,
            1208.8
          ],
          [
            1992.2,
            1205.2
          ],
          [
            1990.2,
            1201.8
          ],
          [
            1988.2,
            1198.2
          ],
          [
            1986.2,
            1194.8
          ],
          [
            1984.1,
            1191.5
          ],
          [
            1982.0,
            1188.0
          ],
          [
            1979.8,
            1184.7
          ],
          [
            1977.5,
            1181.4
          ],
          [
            1975.2,
            1178.2
          ],
          [
            1972.8,
            1174.9
          ],
          [
            1970.5,
            1171.7
          ],
          [
            1968.0,
            1168.5
          ],
          [
            1965.5,
            1165.3
          ],
          [
            1963.0,
            1162.2
          ],
          [
            1960.5,
            1159.2
          ],
          [
            1958.0,
            1156.1
          ],
          [
            1955.3,
            1153.0
          ],
          [
            1952.7,
            1150.0
          ],
          [
            1950.0,
            1147.0
          ],
          [
            1947.3,
            1144.1
          ],
          [
            1944.7,
            1141.2
          ],
          [
            1941.9,
            1138.2
          ],
          [
            1939.2,
            1135.3
          ],
          [
            1936.4,
            1132.4
          ],
          [
            1933.7,
            1129.5
          ],
          [
            1930.8,
            1126.7
          ],
          [
            1928.0,
            1123.8
          ],
          [
            1925.2,
            1121.0
          ],
          [
            1922.4,
            1118.2
          ],
          [
            1919.5,
            1115.3
          ],
          [
            1916.6,
            1112.6
          ],
          [
            1913.7,
            1109.9
          ],
          [
            1910.7,
            1107.2
          ],
          [
            1907.7,
            1104.6
          ],
          [
            1904.7,
            1102.0
          ],
          [
            1901.7,
            1099.4
          ],
          [
            1898.5,
            1096.8
          ],
          [
            1895.5,
            1094.3
          ],
          [
            1892.3,
            1091.8
          ],
          [
            1889.2,
            1089.2
          ],
          [
            1886.1,
            1086.8
          ],
          [
            1883.0,
            1084.2
          ],
          [
            1879.8,
            1081.8
          ],
          [
            1876.7,
            1079.3
          ],
          [
            1873.5,
            1076.9
          ],
          [
            1870.4,
            1074.4
          ],
          [
            1867.2,
            1072.0
          ],
          [
            1864.0,
            1069.5
          ],
          [
            1860.9,
            1067.0
          ],
          [
            1857.8,
            1064.5
          ],
          [
            1854.7,
            1062.1
          ],
          [
            1851.5,
            1059.6
          ],
          [
            1848.3,
            1057.1
          ],
          [
            1845.2,
            1054.6
          ],
          [
            1842.2,
            1052.0
          ],
          [
            1839.0,
            1049.5
          ],
          [
            1836.0,
            1047.0
          ],
          [
            1833.0,
            1044.4
          ],
          [
            1829.9,
            1041.8
          ],
          [
            1826.9,
            1039.2
          ],
          [
            1823.9,
            1036.5
          ],
          [
            1820.9,
            1033.8
          ],
          [
            1818.0,
            1031.2
          ],
          [
            1815.0,
            1028.5
          ],
          [
            1812.0,
            1025.8
          ],
          [
            1809.0,
            1023.2
          ],
          [
            1806.0,
            1020.5
          ],
          [
            1803.0,
            1017.8
          ],
          [
            1800.0,
            1015.2
          ],
          [
            1797.0,
            1012.6
          ],
          [
            1794.0,
            1010.0
          ],
          [
            1791.0,
            1007.3
          ],
          [
            1788.0,
            1004.7
          ],
          [
            1785.0,
            1002.0
          ],
          [
            1782.0,
            999.4
          ],
          [
            1779.0,
            996.8
          ],
          [
            1776.0,
            994.0
          ],
          [
            1773.0,
            991.4
          ],
          [
            1770.0,
            988.7
          ],
          [
            1767.1,
            986.0
          ],
          [
            1764.2,
            983.2
          ],
          [
            1761.2,
            980.5
          ],
          [
            1758.4,
            977.8
          ],
          [
            1755.5,
            975.0
          ],
          [
            1752.7,
            972.2
          ],
          [
            1749.8,
            969.3
          ],
          [
            1747.0,
            966.5
          ],
          [
            1744.3,
            963.5
          ],
          [
            1741.6,
            960.7
          ],
          [
            1738.9,
            957.7
          ],
          [
            1736.2,
            954.7
          ],
          [
            1733.6,
            951.7
          ],
          [
            1731.0,
            948.6
          ],
          [
            1728.5,
            945.5
          ],
          [
            1726.0,
            942.4
          ],
          [
            1723.5,
            939.2
          ],
          [
            1721.2,
            936.0
          ],
          [
            1718.8,
            932.8
          ],
          [
            1716.5,
            929.5
          ],
          [
            1714.2,
            926.2
          ],
          [
            1712.1,
            922.8
          ],
          [
            1710.0,
            919.5
          ],
          [
            1707.9,
            916.0
          ],
          [
            1705.9,
            912.5
          ],
          [
            1704.0,
            909.0
          ],
          [
            1702.0,
            905.6
          ],
          [
            1700.1,
            902.0
          ],
          [
            1698.2,
            898.5
          ],
          [
            1696.5,
            895.0
          ],
          [
            1694.7,
            891.4
          ],
          [
            1692.8,
            887.8
          ],
          [
            1691.1,
            884.2
          ],
          [
            1689.4,
            880.6
          ],
          [
            1687.7,
            877.0
          ],
          [
            1686.0,
            873.3
          ],
          [
            1684.3,
            869.7
          ],
          [
            1682.7,
            866.0
          ],
          [
            1681.0,
            862.4
          ],
          [
            1679.4,
            858.8
          ],
          [
            1677.8,
            855.1
          ],
          [
            1676.2,
            851.4
          ],
          [
            1674.7,
            847.8
          ],
          [
            1673.0,
            844.0
          ],
          [
            1671.5,
            840.4
          ],
          [
            1670.0,
            836.7
          ],
          [
            1668.4,
            833.0
          ],
          [
            1666.9,
            829.3
          ],
          [
            1665.3,
            825.6
          ],
          [
            1663.8,
            821.9
          ],
          [
            1662.3,
            818.2
          ],
          [
            1660.8,
            814.5
          ],
          [
            1659.3,
            810.8
          ],
          [
            1657.8,
            807.1
          ],
          [
            1656.2,
            803.4
          ],
          [
            1654.7,
            799.7
          ],
          [
            1653.2,
            796.0
          ],
          [
            1651.6,
            792.3
          ],
          [
            1650.0,
            788.7
          ],
          [
            1648.4,
            785.0
          ],
          [
            1647.6,
            783.2
          ]
        ]
      },
      "properties": {
        "id": "gameplay.path.1",
        "name": "gameplay.path.1",
        "category": "gameplay",
        "kind": "enemy_path",
        "layer": 75,
        "playable": true,
        "insidePlayArea": true,
        "pathIndex": 1,
        "widthPx": 140.0
      }
    },
    {
      "type": "Feature",
      "id": "gameplay.entry.1",
      "geometry": {
        "type": "Point",
        "coordinates": [
          2102.3,
          1394.4
        ]
      },
      "properties": {
        "id": "gameplay.entry.1",
        "name": "gameplay.entry.1",
        "category": "gameplay",
        "kind": "spawn_point",
        "layer": 75,
        "playable": true,
        "insidePlayArea": true,
        "pathIndex": 1
      }
    },
    {
  "type": "Feature",
  "id": "gameplay.exit.0",
  "geometry": {
    "type": "Point",
    "coordinates": [
      1337.5,
      783.2
    ]
  },
  "properties": {
    "id": "gameplay.exit.0",
    "name": "gameplay.exit.0",
    "category": "gameplay",
    "kind": "goal_point",
    "layer": 75,
    "playable": true,
    "insidePlayArea": true,
    "pathIndexes": [
      0
    ]
  }
},
    {
  "type": "Feature",
  "id": "gameplay.exit.1",
  "geometry": {
    "type": "Point",
    "coordinates": [
      1647.6,
      783.2
    ]
  },
  "properties": {
    "id": "gameplay.exit.1",
    "name": "gameplay.exit.1",
    "category": "gameplay",
    "kind": "goal_point",
    "layer": 75,
    "playable": true,
    "insidePlayArea": true,
    "pathIndexes": [
      1
    ]
  }
},
    {
      "type": "Feature",
      "id": "gameplay.tower_slot.1",
      "geometry": {
        "type": "Point",
        "coordinates": [
          898.3,
          1249.8
        ]
      },
      "properties": {
        "id": "gameplay.tower_slot.1",
        "name": "gameplay.tower_slot.1",
        "category": "gameplay",
        "kind": "tower_slot",
        "layer": 75,
        "playable": true,
        "insidePlayArea": true,
        "slotIndex": 0,
        "slotNumber": 1
      }
    },
    {
      "type": "Feature",
      "id": "gameplay.tower_slot.2",
      "geometry": {
        "type": "Point",
        "coordinates": [
          920.7,
          1125.8
        ]
      },
      "properties": {
        "id": "gameplay.tower_slot.2",
        "name": "gameplay.tower_slot.2",
        "category": "gameplay",
        "kind": "tower_slot",
        "layer": 75,
        "playable": true,
        "insidePlayArea": true,
        "slotIndex": 1,
        "slotNumber": 2
      }
    },
    {
      "type": "Feature",
      "id": "gameplay.tower_slot.3",
      "geometry": {
        "type": "Point",
        "coordinates": [
          1137.8,
          1249.8
        ]
      },
      "properties": {
        "id": "gameplay.tower_slot.3",
        "name": "gameplay.tower_slot.3",
        "category": "gameplay",
        "kind": "tower_slot",
        "layer": 75,
        "playable": true,
        "insidePlayArea": true,
        "slotIndex": 2,
        "slotNumber": 3
      }
    },
    {
      "type": "Feature",
      "id": "gameplay.tower_slot.4",
      "geometry": {
        "type": "Point",
        "coordinates": [
          1831.9,
          929.5
        ]
      },
      "properties": {
        "id": "gameplay.tower_slot.4",
        "name": "gameplay.tower_slot.4",
        "category": "gameplay",
        "kind": "tower_slot",
        "layer": 75,
        "playable": true,
        "insidePlayArea": true,
        "slotIndex": 3,
        "slotNumber": 4
      }
    },
    {
      "type": "Feature",
      "id": "gameplay.tower_slot.5",
      "geometry": {
        "type": "Point",
        "coordinates": [
          2030.0,
          1105.2
        ]
      },
      "properties": {
        "id": "gameplay.tower_slot.5",
        "name": "gameplay.tower_slot.5",
        "category": "gameplay",
        "kind": "tower_slot",
        "layer": 75,
        "playable": true,
        "insidePlayArea": true,
        "slotIndex": 4,
        "slotNumber": 5
      }
    },
    {
      "type": "Feature",
      "id": "gameplay.tower_slot.6",
      "geometry": {
        "type": "Point",
        "coordinates": [
          1151.5,
          941.6
        ]
      },
      "properties": {
        "id": "gameplay.tower_slot.6",
        "name": "gameplay.tower_slot.6",
        "category": "gameplay",
        "kind": "tower_slot",
        "layer": 75,
        "playable": true,
        "insidePlayArea": true,
        "slotIndex": 5,
        "slotNumber": 6
      }
    },
    {
      "type": "Feature",
      "id": "gameplay.tower_slot.7",
      "geometry": {
        "type": "Point",
        "coordinates": [
          1849.1,
          1251.5
        ]
      },
      "properties": {
        "id": "gameplay.tower_slot.7",
        "name": "gameplay.tower_slot.7",
        "category": "gameplay",
        "kind": "tower_slot",
        "layer": 75,
        "playable": true,
        "insidePlayArea": true,
        "slotIndex": 6,
        "slotNumber": 7
      }
    },
    {
      "type": "Feature",
      "id": "gameplay.tower_slot.8",
      "geometry": {
        "type": "Point",
        "coordinates": [
          2076.5,
          1244.6
        ]
      },
      "properties": {
        "id": "gameplay.tower_slot.8",
        "name": "gameplay.tower_slot.8",
        "category": "gameplay",
        "kind": "tower_slot",
        "layer": 75,
        "playable": true,
        "insidePlayArea": true,
        "slotIndex": 7,
        "slotNumber": 8
      }
    },
    {
      "type": "Feature",
      "id": "gameplay.tower_slot.9",
      "geometry": {
        "type": "Point",
        "coordinates": [
          1763.0,
          855.5
        ]
      },
      "properties": {
        "id": "gameplay.tower_slot.9",
        "name": "gameplay.tower_slot.9",
        "category": "gameplay",
        "kind": "tower_slot",
        "layer": 75,
        "playable": true,
        "insidePlayArea": true,
        "slotIndex": 8,
        "slotNumber": 9
      }
    },
    {
      "type": "Feature",
      "id": "gameplay.tower_slot.10",
      "geometry": {
        "type": "Point",
        "coordinates": [
          1067.1,
          1007.0
        ]
      },
      "properties": {
        "id": "gameplay.tower_slot.10",
        "name": "gameplay.tower_slot.10",
        "category": "gameplay",
        "kind": "tower_slot",
        "layer": 75,
        "playable": true,
        "insidePlayArea": true,
        "slotIndex": 9,
        "slotNumber": 10
      }
    },
    {
      "type": "Feature",
      "id": "gameplay.call_wave_button.0",
      "geometry": {
        "type": "Point",
        "coordinates": [
          851.8,
          1394.4
        ]
      },
      "properties": {
        "id": "gameplay.call_wave_button.0",
        "name": "gameplay.call_wave_button.0",
        "category": "gameplay",
        "kind": "call_wave_button",
        "layer": 100,
        "playable": true,
        "insidePlayArea": true,
        "pathIndices": [
          0
        ]
      }
    },
    {
      "type": "Feature",
      "id": "gameplay.call_wave_button.1",
      "geometry": {
        "type": "Point",
        "coordinates": [
          2102.3,
          1394.4
        ]
      },
      "properties": {
        "id": "gameplay.call_wave_button.1",
        "name": "gameplay.call_wave_button.1",
        "category": "gameplay",
        "kind": "call_wave_button",
        "layer": 100,
        "playable": true,
        "insidePlayArea": true,
        "pathIndices": [
          1
        ]
      }
    },
    {
      "type": "Feature",
      "id": "gameplay.hero_spawn.primary",
      "geometry": {
        "type": "Point",
        "coordinates": [
          1337.5,
          803.7614489747068
        ]
      },
      "properties": {
        "id": "gameplay.hero_spawn.primary",
        "name": "Primary hero start",
        "category": "gameplay",
        "kind": "hero_spawn",
        "layer": 75,
        "playable": true,
        "insidePlayArea": true,
        "heroRoles": [
          "primary"
        ]
      }
    },
    {
      "type": "Feature",
      "id": "gameplay.hero_spawn.secondary",
      "geometry": {
        "type": "Point",
        "coordinates": [
          1647.6,
          809.9287124479517
        ]
      },
      "properties": {
        "id": "gameplay.hero_spawn.secondary",
        "name": "Secondary hero start",
        "category": "gameplay",
        "kind": "hero_spawn",
        "layer": 75,
        "playable": true,
        "insidePlayArea": true,
        "heroRoles": [
          "secondary"
        ]
      }
    }
  ],
  "heroCount": 2
}
