{
  "type": "FeatureCollection",
  "name": "level_013_new_haven",
  "coordinateReferenceSystem": {
    "type": "local-cartesian",
    "note": "NOT WGS84. Canonical game units, lower-left origin, +y up.",
    "canvas": {
      "width": 2868.0,
      "height": 2064.0
    },
    "playArea": {
      "x": 474.0,
      "y": 492.0,
      "width": 1920.0,
      "height": 1080.0
    }
  },
  "metadata": {
    "level": 13,
    "levelId": "96170d0e-6983-47e0-bf80-93cd4c91ad3a",
    "levelName": "New Haven",
    "status": "production",
    "topology": "three-entry braided network resolving to two southern exits",
    "enemyPathCount": 4,
    "uniqueEntranceCount": 3,
    "uniqueExitCount": 2,
    "pathCoverageFraction": 0.436423,
    "towerSlotCount": 16
  },
  "features": [
    {
      "type": "Feature",
      "id": "boundary.canvas",
      "geometry": {
        "type": "Polygon",
        "coordinates": [
          [
            [
              0,
              0
            ],
            [
              2868,
              0
            ],
            [
              2868,
              2064
            ],
            [
              0,
              2064
            ],
            [
              0,
              0
            ]
          ]
        ]
      },
      "properties": {
        "id": "boundary.canvas",
        "name": "Canvas",
        "category": "boundary",
        "kind": "canvas",
        "layer": 0
      }
    },
    {
      "type": "Feature",
      "id": "boundary.play_area",
      "geometry": {
        "type": "Polygon",
        "coordinates": [
          [
            [
              474.0,
              492.0
            ],
            [
              2394.0,
              492.0
            ],
            [
              2394.0,
              1572.0
            ],
            [
              474.0,
              1572.0
            ],
            [
              474.0,
              492.0
            ]
          ]
        ]
      },
      "properties": {
        "id": "boundary.play_area",
        "name": "Play area",
        "category": "boundary",
        "kind": "play_area",
        "layer": 1
      }
    },
    {
      "type": "Feature",
      "id": "gameplay.road.0",
      "geometry": {
        "type": "LineString",
        "coordinates": [
          [
            520.0,
            1160.0
          ],
          [
            524.46,
            1164.04
          ],
          [
            529.69,
            1169.17
          ],
          [
            535.62,
            1175.25
          ],
          [
            542.19,
            1182.11
          ],
          [
            549.35,
            1189.61
          ],
          [
            557.03,
            1197.59
          ],
          [
            565.19,
            1205.89
          ],
          [
            573.75,
            1214.38
          ],
          [
            582.67,
            1222.87
          ],
          [
            591.88,
            1231.24
          ],
          [
            601.32,
            1239.32
          ],
          [
            610.94,
            1246.95
          ],
          [
            620.67,
            1253.99
          ],
          [
            630.47,
            1260.28
          ],
          [
            640.26,
            1265.67
          ],
          [
            650.0,
            1270.0
          ],
          [
            659.93,
            1273.59
          ],
          [
            670.31,
            1276.86
          ],
          [
            681.08,
            1279.78
          ],
          [
            692.19,
            1282.34
          ],
          [
            703.56,
            1284.54
          ],
          [
            715.16,
            1286.35
          ],
          [
            726.9,
            1287.76
          ],
          [
            738.75,
            1288.75
          ],
          [
            750.63,
            1289.31
          ],
          [
            762.5,
            1289.43
          ],
          [
            774.29,
            1289.09
          ],
          [
            785.94,
            1288.28
          ],
          [
            797.39,
            1286.98
          ],
          [
            808.59,
            1285.18
          ],
          [
            819.48,
            1282.85
          ],
          [
            830.0,
            1280.0
          ],
          [
            840.47,
            1276.22
          ],
          [
            851.21,
            1271.24
          ],
          [
            862.12,
            1265.23
          ],
          [
            873.12,
            1258.36
          ],
          [
            884.13,
            1250.79
          ],
          [
            895.04,
            1242.71
          ],
          [
            905.78,
            1234.26
          ],
          [
            916.25,
            1225.62
          ],
          [
            926.37,
            1216.97
          ],
          [
            936.05,
            1208.47
          ],
          [
            945.21,
            1200.28
          ],
          [
            953.75,
            1192.58
          ],
          [
            961.59,
            1185.53
          ],
          [
            968.63,
            1179.31
          ],
          [
            974.8,
            1174.07
          ],
          [
            980,
            1170
          ],
          [
            977.44,
            1164.91
          ],
          [
            974.72,
            1158.52
          ],
          [
            971.81,
            1150.99
          ],
          [
            968.67,
            1142.5
          ],
          [
            965.27,
            1133.23
          ],
          [
            961.57,
            1123.36
          ],
          [
            957.54,
            1113.06
          ],
          [
            953.12,
            1102.5
          ],
          [
            948.3,
            1091.87
          ],
          [
            943.04,
            1081.33
          ],
          [
            937.29,
            1071.06
          ],
          [
            931.02,
            1061.25
          ],
          [
            924.19,
            1052.06
          ],
          [
            916.77,
            1043.67
          ],
          [
            908.72,
            1036.26
          ],
          [
            900.0,
            1030.0
          ],
          [
            890.25,
            1024.94
          ],
          [
            879.25,
            1020.9
          ],
          [
            867.17,
            1017.74
          ],
          [
            854.18,
            1015.31
          ],
          [
            840.45,
            1013.47
          ],
          [
            826.16,
            1012.07
          ],
          [
            811.47,
            1010.96
          ],
          [
            796.56,
            1010.0
          ],
          [
            781.61,
            1009.04
          ],
          [
            766.77,
            1007.93
          ],
          [
            752.23,
            1006.53
          ],
          [
            738.16,
            1004.69
          ],
          [
            724.73,
            1002.26
          ],
          [
            712.11,
            999.1
          ],
          [
            700.48,
            995.06
          ],
          [
            690.0,
            990.0
          ],
          [
            680.15,
            983.95
          ],
          [
            670.35,
            977.11
          ],
          [
            660.67,
            969.58
          ],
          [
            651.21,
            961.45
          ],
          [
            642.05,
            952.8
          ],
          [
            633.27,
            943.73
          ],
          [
            624.95,
            934.33
          ],
          [
            617.19,
            924.69
          ],
          [
            610.06,
            914.9
          ],
          [
            603.65,
            905.06
          ],
          [
            598.04,
            895.26
          ],
          [
            593.32,
            885.59
          ],
          [
            589.57,
            876.13
          ],
          [
            586.88,
            866.99
          ],
          [
            585.33,
            858.25
          ],
          [
            585.0,
            850.0
          ],
          [
            585.93,
            841.94
          ],
          [
            588.06,
            833.75
          ],
          [
            591.3,
            825.46
          ],
          [
            595.59,
            817.15
          ],
          [
            600.83,
            808.86
          ],
          [
            606.96,
            800.65
          ],
          [
            613.89,
            792.57
          ],
          [
            621.56,
            784.69
          ],
          [
            629.88,
            777.05
          ],
          [
            638.78,
            769.7
          ],
          [
            648.18,
            762.71
          ],
          [
            658.01,
            756.13
          ],
          [
            668.18,
            750.02
          ],
          [
            678.62,
            744.42
          ],
          [
            689.25,
            739.4
          ],
          [
            700.0,
            735.0
          ],
          [
            711.31,
            731.14
          ],
          [
            723.59,
            727.69
          ],
          [
            736.72,
            724.64
          ],
          [
            750.59,
            721.99
          ],
          [
            765.06,
            719.74
          ],
          [
            780.02,
            717.88
          ],
          [
            795.36,
            716.4
          ],
          [
            810.94,
            715.31
          ],
          [
            826.64,
            714.6
          ],
          [
            842.36,
            714.27
          ],
          [
            857.96,
            714.31
          ],
          [
            873.32,
            714.73
          ],
          [
            888.33,
            715.5
          ],
          [
            902.86,
            716.65
          ],
          [
            916.79,
            718.15
          ],
          [
            930.0,
            720.0
          ],
          [
            942.95,
            722.54
          ],
          [
            956.12,
            726.0
          ],
          [
            969.42,
            730.26
          ],
          [
            982.73,
            735.2
          ],
          [
            995.99,
            740.67
          ],
          [
            1009.07,
            746.56
          ],
          [
            1021.9,
            752.73
          ],
          [
            1034.38,
            759.06
          ],
          [
            1046.4,
            765.42
          ],
          [
            1057.88,
            771.68
          ],
          [
            1068.72,
            777.72
          ],
          [
            1078.83,
            783.4
          ],
          [
            1088.1,
            788.59
          ],
          [
            1096.46,
            793.18
          ],
          [
            1103.79,
            797.02
          ],
          [
            1110,
            800
          ],
          [
            1114.64,
            797.09
          ],
          [
            1120.34,
            793.42
          ],
          [
            1126.97,
            789.09
          ],
          [
            1134.41,
            784.22
          ],
          [
            1142.53,
            778.89
          ],
          [
            1151.21,
            773.22
          ],
          [
            1160.3,
            767.31
          ],
          [
            1169.69,
            761.25
          ],
          [
            1179.24,
            755.15
          ],
          [
            1188.83,
            749.12
          ],
          [
            1198.33,
            743.25
          ],
          [
            1207.62,
            737.66
          ],
          [
            1216.55,
            732.43
          ],
          [
            1225.01,
            727.68
          ],
          [
            1232.87,
            723.5
          ],
          [
            1240.0,
            720.0
          ],
          [
            1246.67,
            717.21
          ],
          [
            1253.22,
            715.04
          ],
          [
            1259.65,
            713.39
          ],
          [
            1265.94,
            712.19
          ],
          [
            1272.07,
            711.33
          ],
          [
            1278.03,
            710.74
          ],
          [
            1283.8,
            710.33
          ],
          [
            1289.38,
            710.0
          ],
          [
            1294.73,
            709.67
          ],
          [
            1299.86,
            709.26
          ],
          [
            1304.75,
            708.67
          ],
          [
            1309.38,
            707.81
          ],
          [
            1313.73,
            706.61
          ],
          [
            1317.79,
            704.96
          ],
          [
            1321.56,
            702.79
          ],
          [
            1325.0,
            700.0
          ],
          [
            1328.04,
            696.66
          ],
          [
            1330.64,
            692.91
          ],
          [
            1332.84,
            688.78
          ],
          [
            1334.69,
            684.34
          ],
          [
            1336.22,
            679.6
          ],
          [
            1337.48,
            674.61
          ],
          [
            1338.52,
            669.42
          ],
          [
            1339.38,
            664.06
          ],
          [
            1340.1,
            658.58
          ],
          [
            1340.72,
            653.0
          ],
          [
            1341.3,
            647.38
          ],
          [
            1341.88,
            641.76
          ],
          [
            1342.49,
            636.17
          ],
          [
            1343.18,
            630.65
          ],
          [
            1344.01,
            625.25
          ],
          [
            1345.0,
            620.0
          ],
          [
            1346.1,
            614.67
          ],
          [
            1347.22,
            609.03
          ],
          [
            1348.34,
            603.16
          ],
          [
            1349.45,
            597.11
          ],
          [
            1350.56,
            590.95
          ],
          [
            1351.65,
            584.76
          ],
          [
            1352.72,
            578.58
          ],
          [
            1353.75,
            572.5
          ],
          [
            1354.74,
            566.57
          ],
          [
            1355.69,
            560.87
          ],
          [
            1356.59,
            555.45
          ],
          [
            1357.42,
            550.39
          ],
          [
            1358.19,
            545.75
          ],
          [
            1358.88,
            541.59
          ],
          [
            1359.48,
            537.99
          ],
          [
            1360,
            535
          ]
        ]
      },
      "properties": {
        "id": "gameplay.road.0",
        "name": "West column to Harbor Gate",
        "category": "gameplay",
        "kind": "enemy_path",
        "layer": 40,
        "playable": true,
        "insidePlayArea": true,
        "pathIndex": 0,
        "widthPx": 140.0
      }
    },
    {
      "type": "Feature",
      "id": "gameplay.road.1",
      "geometry": {
        "type": "LineString",
        "coordinates": [
          [
            520.0,
            1160.0
          ],
          [
            524.46,
            1164.04
          ],
          [
            529.69,
            1169.17
          ],
          [
            535.62,
            1175.25
          ],
          [
            542.19,
            1182.11
          ],
          [
            549.35,
            1189.61
          ],
          [
            557.03,
            1197.59
          ],
          [
            565.19,
            1205.89
          ],
          [
            573.75,
            1214.38
          ],
          [
            582.67,
            1222.87
          ],
          [
            591.88,
            1231.24
          ],
          [
            601.32,
            1239.32
          ],
          [
            610.94,
            1246.95
          ],
          [
            620.67,
            1253.99
          ],
          [
            630.47,
            1260.28
          ],
          [
            640.26,
            1265.67
          ],
          [
            650.0,
            1270.0
          ],
          [
            659.93,
            1273.59
          ],
          [
            670.31,
            1276.86
          ],
          [
            681.08,
            1279.78
          ],
          [
            692.19,
            1282.34
          ],
          [
            703.56,
            1284.54
          ],
          [
            715.16,
            1286.35
          ],
          [
            726.9,
            1287.76
          ],
          [
            738.75,
            1288.75
          ],
          [
            750.63,
            1289.31
          ],
          [
            762.5,
            1289.43
          ],
          [
            774.29,
            1289.09
          ],
          [
            785.94,
            1288.28
          ],
          [
            797.39,
            1286.98
          ],
          [
            808.59,
            1285.18
          ],
          [
            819.48,
            1282.85
          ],
          [
            830.0,
            1280.0
          ],
          [
            840.47,
            1276.22
          ],
          [
            851.21,
            1271.24
          ],
          [
            862.12,
            1265.23
          ],
          [
            873.12,
            1258.36
          ],
          [
            884.13,
            1250.79
          ],
          [
            895.04,
            1242.71
          ],
          [
            905.78,
            1234.26
          ],
          [
            916.25,
            1225.62
          ],
          [
            926.37,
            1216.97
          ],
          [
            936.05,
            1208.47
          ],
          [
            945.21,
            1200.28
          ],
          [
            953.75,
            1192.58
          ],
          [
            961.59,
            1185.53
          ],
          [
            968.63,
            1179.31
          ],
          [
            974.8,
            1174.07
          ],
          [
            980,
            1170
          ],
          [
            986.6,
            1166.98
          ],
          [
            994.45,
            1163.01
          ],
          [
            1003.44,
            1158.24
          ],
          [
            1013.44,
            1152.81
          ],
          [
            1024.34,
            1146.88
          ],
          [
            1036.02,
            1140.59
          ],
          [
            1048.36,
            1134.08
          ],
          [
            1061.25,
            1127.5
          ],
          [
            1074.57,
            1121.0
          ],
          [
            1088.2,
            1114.73
          ],
          [
            1102.03,
            1108.82
          ],
          [
            1115.94,
            1103.44
          ],
          [
            1129.8,
            1098.72
          ],
          [
            1143.52,
            1094.8
          ],
          [
            1156.95,
            1091.85
          ],
          [
            1170.0,
            1090.0
          ],
          [
            1183.05,
            1089.5
          ],
          [
            1196.54,
            1090.35
          ],
          [
            1210.39,
            1092.36
          ],
          [
            1224.53,
            1095.31
          ],
          [
            1238.88,
            1099.01
          ],
          [
            1253.38,
            1103.24
          ],
          [
            1267.94,
            1107.81
          ],
          [
            1282.5,
            1112.5
          ],
          [
            1296.98,
            1117.11
          ],
          [
            1311.31,
            1121.45
          ],
          [
            1325.41,
            1125.29
          ],
          [
            1339.22,
            1128.44
          ],
          [
            1352.65,
            1130.69
          ],
          [
            1365.64,
            1131.84
          ],
          [
            1378.12,
            1131.67
          ],
          [
            1390.0,
            1130.0
          ],
          [
            1401.74,
            1126.92
          ],
          [
            1413.74,
            1122.76
          ],
          [
            1425.89,
            1117.62
          ],
          [
            1438.05,
            1111.6
          ],
          [
            1450.1,
            1104.82
          ],
          [
            1461.92,
            1097.38
          ],
          [
            1473.39,
            1089.38
          ],
          [
            1484.38,
            1080.94
          ],
          [
            1494.75,
            1072.15
          ],
          [
            1504.4,
            1063.13
          ],
          [
            1513.2,
            1053.98
          ],
          [
            1521.02,
            1044.8
          ],
          [
            1527.73,
            1035.71
          ],
          [
            1533.21,
            1026.81
          ],
          [
            1537.34,
            1018.2
          ],
          [
            1540.0,
            1010.0
          ],
          [
            1540.55,
            1001.92
          ],
          [
            1538.66,
            993.64
          ],
          [
            1534.69,
            985.19
          ],
          [
            1528.98,
            976.6
          ],
          [
            1521.88,
            967.91
          ],
          [
            1513.72,
            959.16
          ],
          [
            1504.85,
            950.36
          ],
          [
            1495.62,
            941.56
          ],
          [
            1486.38,
            932.79
          ],
          [
            1477.45,
            924.09
          ],
          [
            1469.2,
            915.48
          ],
          [
            1461.95,
            906.99
          ],
          [
            1456.07,
            898.67
          ],
          [
            1451.88,
            890.54
          ],
          [
            1449.75,
            882.64
          ],
          [
            1450.0,
            875.0
          ],
          [
            1452.29,
            867.38
          ],
          [
            1455.95,
            859.58
          ],
          [
            1460.87,
            851.67
          ],
          [
            1466.95,
            843.71
          ],
          [
            1474.08,
            835.78
          ],
          [
            1482.14,
            827.93
          ],
          [
            1491.02,
            820.26
          ],
          [
            1500.62,
            812.81
          ],
          [
            1510.83,
            805.67
          ],
          [
            1521.53,
            798.9
          ],
          [
            1532.62,
            792.57
          ],
          [
            1543.98,
            786.76
          ],
          [
            1555.51,
            781.52
          ],
          [
            1567.1,
            776.94
          ],
          [
            1578.63,
            773.07
          ],
          [
            1590.0,
            770.0
          ],
          [
            1601.96,
            767.85
          ],
          [
            1615.18,
            766.66
          ],
          [
            1629.44,
            766.3
          ],
          [
            1644.53,
            766.68
          ],
          [
            1660.23,
            767.69
          ],
          [
            1676.31,
            769.22
          ],
          [
            1692.56,
            771.17
          ],
          [
            1708.75,
            773.44
          ],
          [
            1724.67,
            775.91
          ],
          [
            1740.1,
            778.47
          ],
          [
            1754.81,
            781.03
          ],
          [
            1768.59,
            783.48
          ],
          [
            1781.22,
            785.7
          ],
          [
            1792.48,
            787.6
          ],
          [
            1802.15,
            789.07
          ],
          [
            1810,
            790
          ],
          [
            1816.18,
            786.21
          ],
          [
            1823.97,
            781.75
          ],
          [
            1833.14,
            776.68
          ],
          [
            1843.48,
            771.05
          ],
          [
            1854.77,
            764.92
          ],
          [
            1866.79,
            758.34
          ],
          [
            1879.34,
            751.37
          ],
          [
            1892.19,
            744.06
          ],
          [
            1905.13,
            736.47
          ],
          [
            1917.93,
            728.65
          ],
          [
            1930.4,
            720.65
          ],
          [
            1942.3,
            712.54
          ],
          [
            1953.43,
            704.36
          ],
          [
            1963.57,
            696.18
          ],
          [
            1972.5,
            688.04
          ],
          [
            1980.0,
            680.0
          ],
          [
            1986.33,
            671.63
          ],
          [
            1991.91,
            662.56
          ],
          [
            1996.82,
            652.91
          ],
          [
            2001.09,
            642.81
          ],
          [
            2004.8,
            632.4
          ],
          [
            2008.01,
            621.82
          ],
          [
            2010.76,
            611.18
          ],
          [
            2013.12,
            600.62
          ],
          [
            2015.16,
            590.29
          ],
          [
            2016.91,
            580.29
          ],
          [
            2018.46,
            570.78
          ],
          [
            2019.84,
            561.88
          ],
          [
            2021.13,
            553.71
          ],
          [
            2022.38,
            546.43
          ],
          [
            2023.65,
            540.14
          ],
          [
            2025,
            535
          ]
        ]
      },
      "properties": {
        "id": "gameplay.road.1",
        "name": "West column to Town Gate",
        "category": "gameplay",
        "kind": "enemy_path",
        "layer": 40,
        "playable": true,
        "insidePlayArea": true,
        "pathIndex": 1,
        "widthPx": 140.0
      }
    },
    {
      "type": "Feature",
      "id": "gameplay.road.2",
      "geometry": {
        "type": "LineString",
        "coordinates": [
          [
            1450.0,
            1520.0
          ],
          [
            1445.49,
            1516.66
          ],
          [
            1440.14,
            1512.37
          ],
          [
            1434.03,
            1507.27
          ],
          [
            1427.23,
            1501.48
          ],
          [
            1419.82,
            1495.16
          ],
          [
            1411.87,
            1488.45
          ],
          [
            1403.47,
            1481.47
          ],
          [
            1394.69,
            1474.38
          ],
          [
            1385.6,
            1467.3
          ],
          [
            1376.29,
            1460.38
          ],
          [
            1366.84,
            1453.76
          ],
          [
            1357.3,
            1447.58
          ],
          [
            1347.78,
            1441.97
          ],
          [
            1338.33,
            1437.08
          ],
          [
            1329.05,
            1433.04
          ],
          [
            1320.0,
            1430.0
          ],
          [
            1310.87,
            1428.1
          ],
          [
            1301.34,
            1427.29
          ],
          [
            1291.48,
            1427.4
          ],
          [
            1281.37,
            1428.28
          ],
          [
            1271.06,
            1429.77
          ],
          [
            1260.63,
            1431.7
          ],
          [
            1250.15,
            1433.91
          ],
          [
            1239.69,
            1436.25
          ],
          [
            1229.31,
            1438.55
          ],
          [
            1219.1,
            1440.64
          ],
          [
            1209.11,
            1442.38
          ],
          [
            1199.41,
            1443.59
          ],
          [
            1190.09,
            1444.12
          ],
          [
            1181.2,
            1443.81
          ],
          [
            1172.81,
            1442.49
          ],
          [
            1165.0,
            1440.0
          ],
          [
            1157.41,
            1436.44
          ],
          [
            1149.69,
            1432.06
          ],
          [
            1141.95,
            1426.94
          ],
          [
            1134.26,
            1421.17
          ],
          [
            1126.72,
            1414.82
          ],
          [
            1119.43,
            1407.98
          ],
          [
            1112.47,
            1400.72
          ],
          [
            1105.94,
            1393.12
          ],
          [
            1099.92,
            1385.28
          ],
          [
            1094.52,
            1377.26
          ],
          [
            1089.81,
            1369.14
          ],
          [
            1085.9,
            1361.02
          ],
          [
            1082.87,
            1352.96
          ],
          [
            1080.82,
            1345.05
          ],
          [
            1079.83,
            1337.37
          ],
          [
            1080.0,
            1330.0
          ],
          [
            1081.35,
            1322.53
          ],
          [
            1083.8,
            1314.56
          ],
          [
            1087.27,
            1306.19
          ],
          [
            1091.68,
            1297.54
          ],
          [
            1096.95,
            1288.71
          ],
          [
            1103.01,
            1279.8
          ],
          [
            1109.78,
            1270.92
          ],
          [
            1117.19,
            1262.19
          ],
          [
            1125.15,
            1253.69
          ],
          [
            1133.59,
            1245.55
          ],
          [
            1142.43,
            1237.87
          ],
          [
            1151.6,
            1230.74
          ],
          [
            1161.02,
            1224.29
          ],
          [
            1170.61,
            1218.61
          ],
          [
            1180.3,
            1213.81
          ],
          [
            1190.0,
            1210.0
          ],
          [
            1200.17,
            1207.49
          ],
          [
            1211.24,
            1206.37
          ],
          [
            1223.07,
            1206.46
          ],
          [
            1235.55,
            1207.54
          ],
          [
            1248.54,
            1209.42
          ],
          [
            1261.92,
            1211.89
          ],
          [
            1275.58,
            1214.76
          ],
          [
            1289.38,
            1217.81
          ],
          [
            1303.19,
            1220.86
          ],
          [
            1316.9,
            1223.7
          ],
          [
            1330.39,
            1226.12
          ],
          [
            1343.52,
            1227.93
          ],
          [
            1356.17,
            1228.92
          ],
          [
            1368.21,
            1228.9
          ],
          [
            1379.53,
            1227.66
          ],
          [
            1390.0,
            1225.0
          ],
          [
            1400.05,
            1221.06
          ],
          [
            1410.16,
            1216.18
          ],
          [
            1420.24,
            1210.44
          ],
          [
            1430.2,
            1203.95
          ],
          [
            1439.95,
            1196.78
          ],
          [
            1449.43,
            1189.04
          ],
          [
            1458.53,
            1180.81
          ],
          [
            1467.19,
            1172.19
          ],
          [
            1475.3,
            1163.26
          ],
          [
            1482.8,
            1154.13
          ],
          [
            1489.59,
            1144.87
          ],
          [
            1495.59,
            1135.59
          ],
          [
            1500.71,
            1126.37
          ],
          [
            1504.88,
            1117.3
          ],
          [
            1508.0,
            1108.48
          ],
          [
            1510.0,
            1100.0
          ],
          [
            1510.92,
            1091.47
          ],
          [
            1510.91,
            1082.5
          ],
          [
            1510.01,
            1073.18
          ],
          [
            1508.24,
            1063.59
          ],
          [
            1505.66,
            1053.83
          ],
          [
            1502.31,
            1043.98
          ],
          [
            1498.22,
            1034.14
          ],
          [
            1493.44,
            1024.38
          ],
          [
            1488.0,
            1014.79
          ],
          [
            1481.95,
            1005.47
          ],
          [
            1475.32,
            996.5
          ],
          [
            1468.16,
            987.97
          ],
          [
            1460.51,
            979.97
          ],
          [
            1452.41,
            972.58
          ],
          [
            1443.89,
            965.89
          ],
          [
            1435.0,
            960.0
          ],
          [
            1425.31,
            955.06
          ],
          [
            1414.45,
            951.08
          ],
          [
            1402.57,
            947.94
          ],
          [
            1389.8,
            945.51
          ],
          [
            1376.31,
            943.66
          ],
          [
            1362.21,
            942.26
          ],
          [
            1347.67,
            941.19
          ],
          [
            1332.81,
            940.31
          ],
          [
            1317.79,
            939.51
          ],
          [
            1302.75,
            938.64
          ],
          [
            1287.83,
            937.58
          ],
          [
            1273.16,
            936.21
          ],
          [
            1258.91,
            934.4
          ],
          [
            1245.2,
            932.01
          ],
          [
            1232.18,
            928.92
          ],
          [
            1220.0,
            925.0
          ],
          [
            1208.1,
            920.2
          ],
          [
            1195.93,
            914.64
          ],
          [
            1183.6,
            908.43
          ],
          [
            1171.21,
            901.68
          ],
          [
            1158.89,
            894.5
          ],
          [
            1146.74,
            887.02
          ],
          [
            1134.89,
            879.33
          ],
          [
            1123.44,
            871.56
          ],
          [
            1112.5,
            863.82
          ],
          [
            1102.2,
            856.23
          ],
          [
            1092.64,
            848.88
          ],
          [
            1083.95,
            841.91
          ],
          [
            1076.22,
            835.43
          ],
          [
            1069.58,
            829.54
          ],
          [
            1064.13,
            824.36
          ],
          [
            1060.0,
            820.0
          ],
          [
            1057.45,
            816.38
          ],
          [
            1056.54,
            813.3
          ],
          [
            1057.09,
            810.7
          ],
          [
            1058.91,
            808.55
          ],
          [
            1061.79,
            806.8
          ],
          [
            1065.57,
            805.4
          ],
          [
            1070.03,
            804.29
          ],
          [
            1075.0,
            803.44
          ],
          [
            1080.28,
            802.79
          ],
          [
            1085.68,
            802.3
          ],
          [
            1091.02,
            801.92
          ],
          [
            1096.09,
            801.6
          ],
          [
            1100.72,
            801.3
          ],
          [
            1104.71,
            800.96
          ],
          [
            1107.86,
            800.55
          ],
          [
            1110,
            800
          ],
          [
            1114.64,
            797.09
          ],
          [
            1120.34,
            793.42
          ],
          [
            1126.97,
            789.09
          ],
          [
            1134.41,
            784.22
          ],
          [
            1142.53,
            778.89
          ],
          [
            1151.21,
            773.22
          ],
          [
            1160.3,
            767.31
          ],
          [
            1169.69,
            761.25
          ],
          [
            1179.24,
            755.15
          ],
          [
            1188.83,
            749.12
          ],
          [
            1198.33,
            743.25
          ],
          [
            1207.62,
            737.66
          ],
          [
            1216.55,
            732.43
          ],
          [
            1225.01,
            727.68
          ],
          [
            1232.87,
            723.5
          ],
          [
            1240.0,
            720.0
          ],
          [
            1246.67,
            717.21
          ],
          [
            1253.22,
            715.04
          ],
          [
            1259.65,
            713.39
          ],
          [
            1265.94,
            712.19
          ],
          [
            1272.07,
            711.33
          ],
          [
            1278.03,
            710.74
          ],
          [
            1283.8,
            710.33
          ],
          [
            1289.38,
            710.0
          ],
          [
            1294.73,
            709.67
          ],
          [
            1299.86,
            709.26
          ],
          [
            1304.75,
            708.67
          ],
          [
            1309.38,
            707.81
          ],
          [
            1313.73,
            706.61
          ],
          [
            1317.79,
            704.96
          ],
          [
            1321.56,
            702.79
          ],
          [
            1325.0,
            700.0
          ],
          [
            1328.04,
            696.66
          ],
          [
            1330.64,
            692.91
          ],
          [
            1332.84,
            688.78
          ],
          [
            1334.69,
            684.34
          ],
          [
            1336.22,
            679.6
          ],
          [
            1337.48,
            674.61
          ],
          [
            1338.52,
            669.42
          ],
          [
            1339.38,
            664.06
          ],
          [
            1340.1,
            658.58
          ],
          [
            1340.72,
            653.0
          ],
          [
            1341.3,
            647.38
          ],
          [
            1341.88,
            641.76
          ],
          [
            1342.49,
            636.17
          ],
          [
            1343.18,
            630.65
          ],
          [
            1344.01,
            625.25
          ],
          [
            1345.0,
            620.0
          ],
          [
            1346.1,
            614.67
          ],
          [
            1347.22,
            609.03
          ],
          [
            1348.34,
            603.16
          ],
          [
            1349.45,
            597.11
          ],
          [
            1350.56,
            590.95
          ],
          [
            1351.65,
            584.76
          ],
          [
            1352.72,
            578.58
          ],
          [
            1353.75,
            572.5
          ],
          [
            1354.74,
            566.57
          ],
          [
            1355.69,
            560.87
          ],
          [
            1356.59,
            555.45
          ],
          [
            1357.42,
            550.39
          ],
          [
            1358.19,
            545.75
          ],
          [
            1358.88,
            541.59
          ],
          [
            1359.48,
            537.99
          ],
          [
            1360,
            535
          ]
        ]
      },
      "properties": {
        "id": "gameplay.road.2",
        "name": "Northern column to Harbor Gate",
        "category": "gameplay",
        "kind": "enemy_path",
        "layer": 40,
        "playable": true,
        "insidePlayArea": true,
        "pathIndex": 2,
        "widthPx": 140.0
      }
    },
    {
      "type": "Feature",
      "id": "gameplay.road.3",
      "geometry": {
        "type": "LineString",
        "coordinates": [
          [
            2340.0,
            1160.0
          ],
          [
            2335.54,
            1164.42
          ],
          [
            2330.31,
            1170.08
          ],
          [
            2324.38,
            1176.79
          ],
          [
            2317.81,
            1184.38
          ],
          [
            2310.65,
            1192.67
          ],
          [
            2302.97,
            1201.48
          ],
          [
            2294.81,
            1210.65
          ],
          [
            2286.25,
            1220.0
          ],
          [
            2277.33,
            1229.35
          ],
          [
            2268.12,
            1238.52
          ],
          [
            2258.68,
            1247.33
          ],
          [
            2249.06,
            1255.62
          ],
          [
            2239.33,
            1263.21
          ],
          [
            2229.53,
            1269.92
          ],
          [
            2219.74,
            1275.58
          ],
          [
            2210.0,
            1280.0
          ],
          [
            2200.03,
            1283.5
          ],
          [
            2189.55,
            1286.49
          ],
          [
            2178.63,
            1289.0
          ],
          [
            2167.34,
            1291.02
          ],
          [
            2155.76,
            1292.55
          ],
          [
            2143.96,
            1293.62
          ],
          [
            2132.02,
            1294.23
          ],
          [
            2120.0,
            1294.38
          ],
          [
            2107.98,
            1294.07
          ],
          [
            2096.04,
            1293.33
          ],
          [
            2084.24,
            1292.15
          ],
          [
            2072.66,
            1290.55
          ],
          [
            2061.37,
            1288.52
          ],
          [
            2050.45,
            1286.08
          ],
          [
            2039.97,
            1283.24
          ],
          [
            2030.0,
            1280.0
          ],
          [
            2020.12,
            1276.2
          ],
          [
            2009.92,
            1271.72
          ],
          [
            1999.53,
            1266.61
          ],
          [
            1989.06,
            1260.94
          ],
          [
            1978.63,
            1254.76
          ],
          [
            1968.36,
            1248.12
          ],
          [
            1958.36,
            1241.1
          ],
          [
            1948.75,
            1233.75
          ],
          [
            1939.65,
            1226.12
          ],
          [
            1931.17,
            1218.28
          ],
          [
            1923.44,
            1210.28
          ],
          [
            1916.56,
            1202.19
          ],
          [
            1910.66,
            1194.05
          ],
          [
            1905.86,
            1185.94
          ],
          [
            1902.27,
            1177.9
          ],
          [
            1900.0,
            1170.0
          ],
          [
            1899.01,
            1161.89
          ],
          [
            1899.13,
            1153.25
          ],
          [
            1900.29,
            1144.18
          ],
          [
            1902.42,
            1134.77
          ],
          [
            1905.46,
            1125.11
          ],
          [
            1909.35,
            1115.3
          ],
          [
            1914.01,
            1105.44
          ],
          [
            1919.38,
            1095.62
          ],
          [
            1925.39,
            1085.94
          ],
          [
            1931.98,
            1076.49
          ],
          [
            1939.09,
            1067.37
          ],
          [
            1946.64,
            1058.67
          ],
          [
            1954.57,
            1050.49
          ],
          [
            1962.82,
            1042.92
          ],
          [
            1971.32,
            1036.06
          ],
          [
            1980.0,
            1030.0
          ],
          [
            1989.39,
            1024.94
          ],
          [
            1999.94,
            1020.9
          ],
          [
            2011.5,
            1017.74
          ],
          [
            2023.91,
            1015.31
          ],
          [
            2036.99,
            1013.47
          ],
          [
            2050.61,
            1012.07
          ],
          [
            2064.58,
            1010.96
          ],
          [
            2078.75,
            1010.0
          ],
          [
            2092.96,
            1009.04
          ],
          [
            2107.05,
            1007.93
          ],
          [
            2120.86,
            1006.53
          ],
          [
            2134.22,
            1004.69
          ],
          [
            2146.98,
            1002.26
          ],
          [
            2158.96,
            999.1
          ],
          [
            2170.03,
            995.06
          ],
          [
            2180.0,
            990.0
          ],
          [
            2189.4,
            983.95
          ],
          [
            2198.79,
            977.11
          ],
          [
            2208.08,
            969.58
          ],
          [
            2217.19,
            961.45
          ],
          [
            2226.02,
            952.8
          ],
          [
            2234.49,
            943.73
          ],
          [
            2242.51,
            934.33
          ],
          [
            2250.0,
            924.69
          ],
          [
            2256.86,
            914.9
          ],
          [
            2263.01,
            905.06
          ],
          [
            2268.35,
            895.26
          ],
          [
            2272.81,
            885.59
          ],
          [
            2276.29,
            876.13
          ],
          [
            2278.71,
            866.99
          ],
          [
            2279.98,
            858.25
          ],
          [
            2280.0,
            850.0
          ],
          [
            2278.65,
            841.98
          ],
          [
            2275.94,
            833.88
          ],
          [
            2271.97,
            825.75
          ],
          [
            2266.88,
            817.62
          ],
          [
            2260.76,
            809.53
          ],
          [
            2253.75,
            801.53
          ],
          [
            2245.96,
            793.65
          ],
          [
            2237.5,
            785.94
          ],
          [
            2228.5,
            778.43
          ],
          [
            2219.06,
            771.17
          ],
          [
            2209.32,
            764.19
          ],
          [
            2199.38,
            757.54
          ],
          [
            2189.36,
            751.25
          ],
          [
            2179.38,
            745.38
          ],
          [
            2169.55,
            739.94
          ],
          [
            2160.0,
            735.0
          ],
          [
            2150.38,
            730.39
          ],
          [
            2140.3,
            725.94
          ],
          [
            2129.82,
            721.7
          ],
          [
            2118.98,
            717.7
          ],
          [
            2107.85,
            713.96
          ],
          [
            2096.46,
            710.52
          ],
          [
            2084.86,
            707.42
          ],
          [
            2073.12,
            704.69
          ],
          [
            2061.29,
            702.35
          ],
          [
            2049.4,
            700.45
          ],
          [
            2037.53,
            699.02
          ],
          [
            2025.7,
            698.09
          ],
          [
            2013.99,
            697.68
          ],
          [
            2002.43,
            697.85
          ],
          [
            1991.09,
            698.61
          ],
          [
            1980.0,
            700.0
          ],
          [
            1968.79,
            702.36
          ],
          [
            1957.11,
            705.88
          ],
          [
            1945.08,
            710.42
          ],
          [
            1932.81,
            715.82
          ],
          [
            1920.43,
            721.91
          ],
          [
            1908.05,
            728.55
          ],
          [
            1895.78,
            735.57
          ],
          [
            1883.75,
            742.81
          ],
          [
            1872.07,
            750.13
          ],
          [
            1860.86,
            757.35
          ],
          [
            1850.23,
            764.33
          ],
          [
            1840.31,
            770.9
          ],
          [
            1831.21,
            776.91
          ],
          [
            1823.05,
            782.2
          ],
          [
            1815.94,
            786.62
          ],
          [
            1810,
            790
          ],
          [
            1816.18,
            786.21
          ],
          [
            1823.97,
            781.75
          ],
          [
            1833.14,
            776.68
          ],
          [
            1843.48,
            771.05
          ],
          [
            1854.77,
            764.92
          ],
          [
            1866.79,
            758.34
          ],
          [
            1879.34,
            751.37
          ],
          [
            1892.19,
            744.06
          ],
          [
            1905.13,
            736.47
          ],
          [
            1917.93,
            728.65
          ],
          [
            1930.4,
            720.65
          ],
          [
            1942.3,
            712.54
          ],
          [
            1953.43,
            704.36
          ],
          [
            1963.57,
            696.18
          ],
          [
            1972.5,
            688.04
          ],
          [
            1980.0,
            680.0
          ],
          [
            1986.33,
            671.63
          ],
          [
            1991.91,
            662.56
          ],
          [
            1996.82,
            652.91
          ],
          [
            2001.09,
            642.81
          ],
          [
            2004.8,
            632.4
          ],
          [
            2008.01,
            621.82
          ],
          [
            2010.76,
            611.18
          ],
          [
            2013.12,
            600.62
          ],
          [
            2015.16,
            590.29
          ],
          [
            2016.91,
            580.29
          ],
          [
            2018.46,
            570.78
          ],
          [
            2019.84,
            561.88
          ],
          [
            2021.13,
            553.71
          ],
          [
            2022.38,
            546.43
          ],
          [
            2023.65,
            540.14
          ],
          [
            2025,
            535
          ]
        ]
      },
      "properties": {
        "id": "gameplay.road.3",
        "name": "Eastern column to Town Gate",
        "category": "gameplay",
        "kind": "enemy_path",
        "layer": 40,
        "playable": true,
        "insidePlayArea": true,
        "pathIndex": 3,
        "widthPx": 140.0
      }
    },
    {
      "type": "Feature",
      "id": "gameplay.entry.0",
      "geometry": {
        "type": "Point",
        "coordinates": [
          520.0,
          1160.0
        ]
      },
      "properties": {
        "id": "gameplay.entry.0",
        "name": "Route 1 entrance",
        "category": "gameplay",
        "kind": "spawn_point",
        "layer": 75,
        "playable": true,
        "insidePlayArea": true,
        "pathIndex": 0
      }
    },
    {
      "type": "Feature",
      "id": "gameplay.entry.1",
      "geometry": {
        "type": "Point",
        "coordinates": [
          520.0,
          1160.0
        ]
      },
      "properties": {
        "id": "gameplay.entry.1",
        "name": "Route 2 entrance",
        "category": "gameplay",
        "kind": "spawn_point",
        "layer": 75,
        "playable": true,
        "insidePlayArea": true,
        "pathIndex": 1
      }
    },
    {
      "type": "Feature",
      "id": "gameplay.entry.2",
      "geometry": {
        "type": "Point",
        "coordinates": [
          1450.0,
          1520.0
        ]
      },
      "properties": {
        "id": "gameplay.entry.2",
        "name": "Route 3 entrance",
        "category": "gameplay",
        "kind": "spawn_point",
        "layer": 75,
        "playable": true,
        "insidePlayArea": true,
        "pathIndex": 2
      }
    },
    {
      "type": "Feature",
      "id": "gameplay.entry.3",
      "geometry": {
        "type": "Point",
        "coordinates": [
          2340.0,
          1160.0
        ]
      },
      "properties": {
        "id": "gameplay.entry.3",
        "name": "Route 4 entrance",
        "category": "gameplay",
        "kind": "spawn_point",
        "layer": 75,
        "playable": true,
        "insidePlayArea": true,
        "pathIndex": 3
      }
    },
    {
      "type": "Feature",
      "id": "gameplay.exit.0",
      "geometry": {
        "type": "Point",
        "coordinates": [
          1360,
          535
        ]
      },
      "properties": {
        "id": "gameplay.exit.0",
        "name": "Route 1 exit",
        "category": "gameplay",
        "kind": "goal_point",
        "layer": 75,
        "playable": true,
        "insidePlayArea": true,
        "pathIndex": 0
      }
    },
    {
      "type": "Feature",
      "id": "gameplay.exit.1",
      "geometry": {
        "type": "Point",
        "coordinates": [
          2025,
          535
        ]
      },
      "properties": {
        "id": "gameplay.exit.1",
        "name": "Route 2 exit",
        "category": "gameplay",
        "kind": "goal_point",
        "layer": 75,
        "playable": true,
        "insidePlayArea": true,
        "pathIndex": 1
      }
    },
    {
      "type": "Feature",
      "id": "gameplay.exit.2",
      "geometry": {
        "type": "Point",
        "coordinates": [
          1360,
          535
        ]
      },
      "properties": {
        "id": "gameplay.exit.2",
        "name": "Route 3 exit",
        "category": "gameplay",
        "kind": "goal_point",
        "layer": 75,
        "playable": true,
        "insidePlayArea": true,
        "pathIndex": 2
      }
    },
    {
      "type": "Feature",
      "id": "gameplay.exit.3",
      "geometry": {
        "type": "Point",
        "coordinates": [
          2025,
          535
        ]
      },
      "properties": {
        "id": "gameplay.exit.3",
        "name": "Route 4 exit",
        "category": "gameplay",
        "kind": "goal_point",
        "layer": 75,
        "playable": true,
        "insidePlayArea": true,
        "pathIndex": 3
      }
    },
    {
      "type": "Feature",
      "id": "gameplay.tower_slot.1",
      "geometry": {
        "type": "Point",
        "coordinates": [
          1468.0,
          1360.0
        ]
      },
      "properties": {
        "id": "gameplay.tower_slot.1",
        "name": "Tower slot 1",
        "category": "gameplay",
        "kind": "tower_slot",
        "layer": 75,
        "playable": true,
        "insidePlayArea": true,
        "slotIndex": 0,
        "slotNumber": 1
      }
    },
    {
      "type": "Feature",
      "id": "gameplay.tower_slot.2",
      "geometry": {
        "type": "Point",
        "coordinates": [
          1876.0,
          1348.0
        ]
      },
      "properties": {
        "id": "gameplay.tower_slot.2",
        "name": "Tower slot 2",
        "category": "gameplay",
        "kind": "tower_slot",
        "layer": 75,
        "playable": true,
        "insidePlayArea": true,
        "slotIndex": 1,
        "slotNumber": 2
      }
    },
    {
      "type": "Feature",
      "id": "gameplay.tower_slot.3",
      "geometry": {
        "type": "Point",
        "coordinates": [
          1216.0,
          1324.0
        ]
      },
      "properties": {
        "id": "gameplay.tower_slot.3",
        "name": "Tower slot 3",
        "category": "gameplay",
        "kind": "tower_slot",
        "layer": 75,
        "playable": true,
        "insidePlayArea": true,
        "slotIndex": 2,
        "slotNumber": 3
      }
    },
    {
      "type": "Feature",
      "id": "gameplay.tower_slot.4",
      "geometry": {
        "type": "Point",
        "coordinates": [
          988.0,
          1288.0
        ]
      },
      "properties": {
        "id": "gameplay.tower_slot.4",
        "name": "Tower slot 4",
        "category": "gameplay",
        "kind": "tower_slot",
        "layer": 75,
        "playable": true,
        "insidePlayArea": true,
        "slotIndex": 3,
        "slotNumber": 4
      }
    },
    {
      "type": "Feature",
      "id": "gameplay.tower_slot.5",
      "geometry": {
        "type": "Point",
        "coordinates": [
          1612.0,
          1204.0
        ]
      },
      "properties": {
        "id": "gameplay.tower_slot.5",
        "name": "Tower slot 5",
        "category": "gameplay",
        "kind": "tower_slot",
        "layer": 75,
        "playable": true,
        "insidePlayArea": true,
        "slotIndex": 4,
        "slotNumber": 5
      }
    },
    {
      "type": "Feature",
      "id": "gameplay.tower_slot.6",
      "geometry": {
        "type": "Point",
        "coordinates": [
          772.0,
          1144.0
        ]
      },
      "properties": {
        "id": "gameplay.tower_slot.6",
        "name": "Tower slot 6",
        "category": "gameplay",
        "kind": "tower_slot",
        "layer": 75,
        "playable": true,
        "insidePlayArea": true,
        "slotIndex": 5,
        "slotNumber": 6
      }
    },
    {
      "type": "Feature",
      "id": "gameplay.tower_slot.7",
      "geometry": {
        "type": "Point",
        "coordinates": [
          2092.0,
          1144.0
        ]
      },
      "properties": {
        "id": "gameplay.tower_slot.7",
        "name": "Tower slot 7",
        "category": "gameplay",
        "kind": "tower_slot",
        "layer": 75,
        "playable": true,
        "insidePlayArea": true,
        "slotIndex": 6,
        "slotNumber": 7
      }
    },
    {
      "type": "Feature",
      "id": "gameplay.tower_slot.8",
      "geometry": {
        "type": "Point",
        "coordinates": [
          1792.0,
          1048.0
        ]
      },
      "properties": {
        "id": "gameplay.tower_slot.8",
        "name": "Tower slot 8",
        "category": "gameplay",
        "kind": "tower_slot",
        "layer": 75,
        "playable": true,
        "insidePlayArea": true,
        "slotIndex": 7,
        "slotNumber": 8
      }
    },
    {
      "type": "Feature",
      "id": "gameplay.tower_slot.9",
      "geometry": {
        "type": "Point",
        "coordinates": [
          1360.0,
          1036.0
        ]
      },
      "properties": {
        "id": "gameplay.tower_slot.9",
        "name": "Tower slot 9",
        "category": "gameplay",
        "kind": "tower_slot",
        "layer": 75,
        "playable": true,
        "insidePlayArea": true,
        "slotIndex": 8,
        "slotNumber": 9
      }
    },
    {
      "type": "Feature",
      "id": "gameplay.tower_slot.10",
      "geometry": {
        "type": "Point",
        "coordinates": [
          1036.0,
          976.0
        ]
      },
      "properties": {
        "id": "gameplay.tower_slot.10",
        "name": "Tower slot 10",
        "category": "gameplay",
        "kind": "tower_slot",
        "layer": 75,
        "playable": true,
        "insidePlayArea": true,
        "slotIndex": 9,
        "slotNumber": 10
      }
    },
    {
      "type": "Feature",
      "id": "gameplay.tower_slot.11",
      "geometry": {
        "type": "Point",
        "coordinates": [
          1648.0,
          904.0
        ]
      },
      "properties": {
        "id": "gameplay.tower_slot.11",
        "name": "Tower slot 11",
        "category": "gameplay",
        "kind": "tower_slot",
        "layer": 75,
        "playable": true,
        "insidePlayArea": true,
        "slotIndex": 10,
        "slotNumber": 11
      }
    },
    {
      "type": "Feature",
      "id": "gameplay.tower_slot.12",
      "geometry": {
        "type": "Point",
        "coordinates": [
          1960.0,
          892.0
        ]
      },
      "properties": {
        "id": "gameplay.tower_slot.12",
        "name": "Tower slot 12",
        "category": "gameplay",
        "kind": "tower_slot",
        "layer": 75,
        "playable": true,
        "insidePlayArea": true,
        "slotIndex": 11,
        "slotNumber": 12
      }
    },
    {
      "type": "Feature",
      "id": "gameplay.tower_slot.13",
      "geometry": {
        "type": "Point",
        "coordinates": [
          856.0,
          880.0
        ]
      },
      "properties": {
        "id": "gameplay.tower_slot.13",
        "name": "Tower slot 13",
        "category": "gameplay",
        "kind": "tower_slot",
        "layer": 75,
        "playable": true,
        "insidePlayArea": true,
        "slotIndex": 12,
        "slotNumber": 13
      }
    },
    {
      "type": "Feature",
      "id": "gameplay.tower_slot.14",
      "geometry": {
        "type": "Point",
        "coordinates": [
          2164.0,
          880.0
        ]
      },
      "properties": {
        "id": "gameplay.tower_slot.14",
        "name": "Tower slot 14",
        "category": "gameplay",
        "kind": "tower_slot",
        "layer": 75,
        "playable": true,
        "insidePlayArea": true,
        "slotIndex": 13,
        "slotNumber": 14
      }
    },
    {
      "type": "Feature",
      "id": "gameplay.tower_slot.15",
      "geometry": {
        "type": "Point",
        "coordinates": [
          1528.0,
          700.0
        ]
      },
      "properties": {
        "id": "gameplay.tower_slot.15",
        "name": "Tower slot 15",
        "category": "gameplay",
        "kind": "tower_slot",
        "layer": 75,
        "playable": true,
        "insidePlayArea": true,
        "slotIndex": 14,
        "slotNumber": 15
      }
    },
    {
      "type": "Feature",
      "id": "gameplay.tower_slot.16",
      "geometry": {
        "type": "Point",
        "coordinates": [
          1792.0,
          700.0
        ]
      },
      "properties": {
        "id": "gameplay.tower_slot.16",
        "name": "Tower slot 16",
        "category": "gameplay",
        "kind": "tower_slot",
        "layer": 75,
        "playable": true,
        "insidePlayArea": true,
        "slotIndex": 15,
        "slotNumber": 16
      }
    }
  ]
}
