{
  "type": "FeatureCollection",
  "name": "Long Island",
  "coordinateReferenceSystem": {
    "type": "local-cartesian",
    "note": "NOT WGS84. Canonical game units, lower-left origin, +y up.",
    "canvas": {
      "width": 2868.0,
      "height": 2064.0
    },
    "playArea": {
      "x": 474.0,
      "y": 492.0,
      "width": 1920.0,
      "height": 1080.0
    }
  },
  "metadata": {
    "level": 7,
    "levelId": "99633efd-f135-44fc-8248-b8635a6db957",
    "levelName": "Long Island",
    "geometrySource": "Existing Db/DML/Levels SQL routes and tower slots; no route geometry changed."
  },
  "startingGold": 420,
  "lives": 20,
  "features": [
    {
      "type": "Feature",
      "id": "gameplay.path.0",
      "geometry": {
        "type": "LineString",
        "coordinates": [
          [
            863.9,
            602.5
          ],
          [
            865.2,
            606.2
          ],
          [
            866.5,
            610.0
          ],
          [
            867.9,
            613.8
          ],
          [
            869.2,
            617.5
          ],
          [
            870.5,
            621.3
          ],
          [
            871.9,
            625.1
          ],
          [
            873.2,
            628.8
          ],
          [
            874.5,
            632.7
          ],
          [
            875.9,
            636.4
          ],
          [
            877.2,
            640.2
          ],
          [
            878.5,
            644.0
          ],
          [
            879.9,
            647.7
          ],
          [
            881.2,
            651.5
          ],
          [
            882.5,
            655.2
          ],
          [
            883.9,
            659.0
          ],
          [
            885.2,
            662.8
          ],
          [
            886.6,
            666.5
          ],
          [
            888.0,
            670.3
          ],
          [
            889.2,
            674.1
          ],
          [
            890.6,
            677.8
          ],
          [
            892.0,
            681.7
          ],
          [
            893.3,
            685.4
          ],
          [
            894.6,
            689.2
          ],
          [
            896.0,
            692.9
          ],
          [
            897.4,
            696.7
          ],
          [
            898.8,
            700.5
          ],
          [
            900.1,
            704.2
          ],
          [
            901.5,
            708.0
          ],
          [
            902.8,
            711.8
          ],
          [
            904.2,
            715.5
          ],
          [
            905.5,
            719.2
          ],
          [
            907.0,
            723.0
          ],
          [
            908.4,
            726.8
          ],
          [
            909.8,
            730.5
          ],
          [
            911.2,
            734.2
          ],
          [
            912.8,
            737.9
          ],
          [
            914.4,
            741.5
          ],
          [
            915.9,
            745.2
          ],
          [
            917.5,
            748.9
          ],
          [
            919.1,
            752.6
          ],
          [
            920.8,
            756.2
          ],
          [
            922.4,
            759.9
          ],
          [
            924.0,
            763.5
          ],
          [
            925.6,
            767.2
          ],
          [
            927.3,
            770.8
          ],
          [
            929.0,
            774.5
          ],
          [
            930.5,
            778.2
          ],
          [
            932.2,
            781.8
          ],
          [
            933.9,
            785.5
          ],
          [
            935.5,
            789.1
          ],
          [
            937.0,
            792.8
          ],
          [
            938.6,
            796.5
          ],
          [
            940.2,
            800.1
          ],
          [
            941.8,
            803.8
          ],
          [
            943.3,
            807.5
          ],
          [
            944.8,
            811.2
          ],
          [
            946.2,
            815.0
          ],
          [
            947.7,
            818.7
          ],
          [
            949.0,
            822.4
          ],
          [
            950.4,
            826.2
          ],
          [
            951.7,
            830.0
          ],
          [
            952.9,
            833.8
          ],
          [
            954.0,
            837.6
          ],
          [
            955.1,
            841.5
          ],
          [
            956.0,
            845.3
          ],
          [
            956.9,
            849.2
          ],
          [
            957.6,
            853.2
          ],
          [
            958.2,
            857.2
          ],
          [
            958.6,
            861.2
          ],
          [
            958.7,
            865.2
          ],
          [
            958.4,
            869.1
          ],
          [
            957.6,
            873.0
          ],
          [
            956.6,
            876.9
          ],
          [
            955.3,
            880.7
          ],
          [
            953.7,
            884.3
          ],
          [
            951.9,
            887.9
          ],
          [
            949.9,
            891.4
          ],
          [
            947.8,
            894.8
          ],
          [
            945.5,
            898.1
          ],
          [
            943.2,
            901.3
          ],
          [
            940.8,
            904.5
          ],
          [
            938.4,
            907.7
          ],
          [
            936.0,
            910.9
          ],
          [
            933.5,
            914.1
          ],
          [
            931.2,
            917.3
          ],
          [
            929.0,
            920.7
          ],
          [
            927.0,
            924.1
          ],
          [
            925.1,
            927.7
          ],
          [
            923.6,
            931.4
          ],
          [
            922.8,
            935.2
          ],
          [
            922.5,
            939.2
          ],
          [
            923.0,
            943.2
          ],
          [
            924.2,
            947.0
          ],
          [
            926.1,
            950.5
          ],
          [
            928.5,
            953.8
          ],
          [
            931.0,
            956.8
          ],
          [
            933.9,
            959.7
          ],
          [
            936.9,
            962.3
          ],
          [
            940.0,
            964.8
          ],
          [
            943.2,
            967.2
          ],
          [
            946.5,
            969.3
          ],
          [
            949.9,
            971.5
          ],
          [
            953.4,
            973.5
          ],
          [
            956.8,
            975.6
          ],
          [
            960.3,
            977.5
          ],
          [
            963.8,
            979.5
          ],
          [
            967.3,
            981.3
          ],
          [
            970.9,
            983.2
          ],
          [
            974.4,
            985.0
          ],
          [
            978.0,
            986.9
          ],
          [
            981.5,
            988.8
          ],
          [
            985.0,
            990.6
          ],
          [
            988.6,
            992.5
          ],
          [
            992.1,
            994.3
          ],
          [
            995.6,
            996.2
          ],
          [
            999.1,
            998.2
          ],
          [
            1002.6,
            1000.1
          ],
          [
            1006.1,
            1002.0
          ],
          [
            1009.6,
            1004.1
          ],
          [
            1013.0,
            1006.2
          ],
          [
            1016.4,
            1008.2
          ],
          [
            1019.8,
            1010.4
          ],
          [
            1023.1,
            1012.6
          ],
          [
            1026.4,
            1014.9
          ],
          [
            1029.7,
            1017.2
          ],
          [
            1033.0,
            1019.5
          ],
          [
            1036.2,
            1021.8
          ],
          [
            1039.5,
            1024.2
          ],
          [
            1042.7,
            1026.5
          ],
          [
            1046.0,
            1028.8
          ],
          [
            1049.2,
            1031.2
          ],
          [
            1052.5,
            1033.5
          ],
          [
            1055.8,
            1035.8
          ],
          [
            1059.0,
            1038.1
          ],
          [
            1062.2,
            1040.4
          ],
          [
            1065.5,
            1042.8
          ],
          [
            1068.8,
            1045.1
          ],
          [
            1072.0,
            1047.4
          ],
          [
            1075.2,
            1049.8
          ],
          [
            1078.5,
            1052.1
          ],
          [
            1081.8,
            1054.5
          ],
          [
            1085.0,
            1056.8
          ],
          [
            1088.2,
            1059.2
          ],
          [
            1091.5,
            1061.5
          ],
          [
            1094.7,
            1063.8
          ],
          [
            1097.9,
            1066.2
          ],
          [
            1101.1,
            1068.6
          ],
          [
            1104.3,
            1071.0
          ],
          [
            1107.5,
            1073.4
          ],
          [
            1110.8,
            1075.8
          ],
          [
            1114.0,
            1078.2
          ],
          [
            1117.1,
            1080.6
          ],
          [
            1120.3,
            1083.0
          ],
          [
            1123.5,
            1085.4
          ],
          [
            1126.7,
            1087.8
          ],
          [
            1129.8,
            1090.3
          ],
          [
            1133.0,
            1092.8
          ],
          [
            1136.2,
            1095.2
          ],
          [
            1139.3,
            1097.7
          ],
          [
            1142.5,
            1100.2
          ],
          [
            1145.5,
            1102.7
          ],
          [
            1148.7,
            1105.2
          ],
          [
            1151.8,
            1107.7
          ],
          [
            1154.9,
            1110.2
          ],
          [
            1158.0,
            1112.8
          ],
          [
            1161.0,
            1115.3
          ],
          [
            1164.1,
            1117.9
          ],
          [
            1167.1,
            1120.5
          ],
          [
            1170.1,
            1123.2
          ],
          [
            1173.1,
            1125.8
          ],
          [
            1176.0,
            1128.5
          ],
          [
            1179.0,
            1131.3
          ],
          [
            1181.8,
            1134.1
          ],
          [
            1184.7,
            1136.9
          ],
          [
            1187.5,
            1139.8
          ],
          [
            1190.2,
            1142.6
          ],
          [
            1193.0,
            1145.5
          ],
          [
            1195.8,
            1148.4
          ],
          [
            1198.5,
            1151.3
          ],
          [
            1201.2,
            1154.2
          ],
          [
            1204.0,
            1157.2
          ],
          [
            1206.6,
            1160.2
          ],
          [
            1209.3,
            1163.2
          ],
          [
            1212.0,
            1166.1
          ],
          [
            1214.7,
            1169.1
          ],
          [
            1217.3,
            1172.0
          ],
          [
            1220.0,
            1175.0
          ],
          [
            1222.7,
            1178.0
          ],
          [
            1225.3,
            1181.0
          ],
          [
            1228.1,
            1183.9
          ],
          [
            1230.8,
            1186.8
          ],
          [
            1233.5,
            1189.8
          ],
          [
            1236.3,
            1192.7
          ],
          [
            1239.1,
            1195.5
          ],
          [
            1241.9,
            1198.3
          ],
          [
            1244.8,
            1201.2
          ],
          [
            1247.7,
            1204.0
          ],
          [
            1250.5,
            1206.7
          ],
          [
            1253.5,
            1209.4
          ],
          [
            1256.5,
            1212.0
          ],
          [
            1259.5,
            1214.7
          ],
          [
            1262.5,
            1217.2
          ],
          [
            1265.6,
            1219.8
          ],
          [
            1268.8,
            1222.3
          ],
          [
            1271.9,
            1224.8
          ],
          [
            1275.1,
            1227.2
          ],
          [
            1278.3,
            1229.5
          ],
          [
            1281.7,
            1231.8
          ],
          [
            1285.0,
            1234.0
          ],
          [
            1288.2,
            1236.2
          ],
          [
            1291.6,
            1238.5
          ],
          [
            1295.0,
            1240.6
          ],
          [
            1298.4,
            1242.7
          ],
          [
            1301.8,
            1244.8
          ],
          [
            1305.2,
            1246.9
          ],
          [
            1308.7,
            1249.0
          ],
          [
            1312.1,
            1251.0
          ],
          [
            1315.5,
            1253.0
          ],
          [
            1319.0,
            1255.0
          ],
          [
            1322.5,
            1257.0
          ],
          [
            1326.0,
            1259.0
          ],
          [
            1329.4,
            1261.0
          ],
          [
            1332.9,
            1262.9
          ],
          [
            1336.4,
            1264.8
          ],
          [
            1339.9,
            1266.8
          ],
          [
            1343.3,
            1268.8
          ],
          [
            1346.8,
            1270.8
          ],
          [
            1350.3,
            1272.7
          ],
          [
            1353.8,
            1274.7
          ],
          [
            1357.3,
            1276.7
          ],
          [
            1360.8,
            1278.7
          ],
          [
            1364.2,
            1280.7
          ],
          [
            1367.7,
            1282.7
          ],
          [
            1371.1,
            1284.8
          ],
          [
            1374.5,
            1286.8
          ],
          [
            1378.0,
            1288.9
          ],
          [
            1381.3,
            1291.0
          ],
          [
            1384.7,
            1293.2
          ],
          [
            1388.1,
            1295.3
          ],
          [
            1391.4,
            1297.5
          ],
          [
            1394.7,
            1299.8
          ],
          [
            1398.0,
            1302.0
          ],
          [
            1401.2,
            1304.4
          ],
          [
            1404.5,
            1306.8
          ],
          [
            1407.6,
            1309.2
          ],
          [
            1410.8,
            1311.8
          ],
          [
            1413.8,
            1314.3
          ],
          [
            1416.9,
            1316.8
          ],
          [
            1419.9,
            1319.5
          ],
          [
            1422.9,
            1322.1
          ],
          [
            1425.9,
            1324.8
          ],
          [
            1428.8,
            1327.5
          ],
          [
            1431.8,
            1330.2
          ],
          [
            1434.7,
            1333.0
          ],
          [
            1437.5,
            1335.7
          ],
          [
            1440.5,
            1338.5
          ],
          [
            1443.3,
            1341.3
          ],
          [
            1446.1,
            1344.2
          ],
          [
            1449.0,
            1347.0
          ],
          [
            1451.7,
            1349.8
          ],
          [
            1454.5,
            1352.7
          ],
          [
            1457.3,
            1355.6
          ],
          [
            1460.0,
            1358.5
          ],
          [
            1462.8,
            1361.4
          ],
          [
            1465.5,
            1364.3
          ],
          [
            1468.2,
            1367.2
          ],
          [
            1471.0,
            1370.2
          ],
          [
            1473.7,
            1373.2
          ],
          [
            1476.3,
            1376.1
          ],
          [
            1479.0,
            1379.0
          ],
          [
            1481.8,
            1382.0
          ],
          [
            1484.5,
            1385.0
          ],
          [
            1487.1,
            1388.0
          ],
          [
            1489.8,
            1390.9
          ],
          [
            1492.5,
            1393.8
          ],
          [
            1495.2,
            1396.8
          ],
          [
            1498.0,
            1399.7
          ],
          [
            1500.8,
            1402.5
          ],
          [
            1501.2,
            1403.0
          ]
        ]
      },
      "properties": {
        "id": "gameplay.path.0",
        "name": "gameplay.path.0",
        "category": "gameplay",
        "kind": "enemy_path",
        "layer": 75,
        "playable": true,
        "insidePlayArea": true,
        "pathIndex": 0,
        "widthPx": 140.0
      }
    },
    {
      "type": "Feature",
      "id": "gameplay.entry.0",
      "geometry": {
        "type": "Point",
        "coordinates": [
          863.9,
          602.5
        ]
      },
      "properties": {
        "id": "gameplay.entry.0",
        "name": "gameplay.entry.0",
        "category": "gameplay",
        "kind": "spawn_point",
        "layer": 75,
        "playable": true,
        "insidePlayArea": true,
        "pathIndex": 0
      }
    },
    {
      "type": "Feature",
      "id": "gameplay.path.1",
      "geometry": {
        "type": "LineString",
        "coordinates": [
          [
            1416.8,
            602.5
          ],
          [
            1416.5,
            606.5
          ],
          [
            1416.3,
            610.5
          ],
          [
            1416.0,
            614.5
          ],
          [
            1415.7,
            618.5
          ],
          [
            1415.4,
            622.4
          ],
          [
            1415.1,
            626.4
          ],
          [
            1414.8,
            630.4
          ],
          [
            1414.5,
            634.4
          ],
          [
            1414.1,
            638.3
          ],
          [
            1413.8,
            642.3
          ],
          [
            1413.5,
            646.3
          ],
          [
            1413.1,
            650.3
          ],
          [
            1412.8,
            654.3
          ],
          [
            1412.5,
            658.3
          ],
          [
            1412.2,
            662.3
          ],
          [
            1411.8,
            666.2
          ],
          [
            1411.5,
            670.2
          ],
          [
            1411.2,
            674.2
          ],
          [
            1410.8,
            678.2
          ],
          [
            1410.5,
            682.2
          ],
          [
            1410.2,
            686.2
          ],
          [
            1410.0,
            690.2
          ],
          [
            1409.7,
            694.2
          ],
          [
            1409.4,
            698.2
          ],
          [
            1409.1,
            702.2
          ],
          [
            1408.8,
            706.2
          ],
          [
            1408.5,
            710.2
          ],
          [
            1408.3,
            714.2
          ],
          [
            1408.0,
            718.2
          ],
          [
            1407.8,
            722.2
          ],
          [
            1407.5,
            726.1
          ],
          [
            1407.3,
            730.1
          ],
          [
            1407.2,
            734.1
          ],
          [
            1407.0,
            738.1
          ],
          [
            1406.8,
            742.1
          ],
          [
            1406.5,
            746.1
          ],
          [
            1406.4,
            750.1
          ],
          [
            1406.2,
            754.1
          ],
          [
            1406.1,
            758.1
          ],
          [
            1406.0,
            762.1
          ],
          [
            1405.8,
            766.1
          ],
          [
            1405.8,
            770.1
          ],
          [
            1405.8,
            774.1
          ],
          [
            1405.7,
            778.1
          ],
          [
            1405.7,
            782.1
          ],
          [
            1405.7,
            786.1
          ],
          [
            1405.7,
            790.1
          ],
          [
            1405.8,
            794.1
          ],
          [
            1405.9,
            798.1
          ],
          [
            1406.0,
            802.1
          ],
          [
            1406.2,
            806.0
          ],
          [
            1406.5,
            810.0
          ],
          [
            1406.9,
            814.0
          ],
          [
            1407.3,
            818.0
          ],
          [
            1407.8,
            822.0
          ],
          [
            1408.5,
            826.0
          ],
          [
            1409.1,
            829.9
          ],
          [
            1409.9,
            833.8
          ],
          [
            1410.8,
            837.7
          ],
          [
            1411.7,
            841.6
          ],
          [
            1412.7,
            845.5
          ],
          [
            1413.7,
            849.3
          ],
          [
            1414.8,
            853.2
          ],
          [
            1416.0,
            857.0
          ],
          [
            1417.2,
            860.8
          ],
          [
            1418.5,
            864.6
          ],
          [
            1419.8,
            868.4
          ],
          [
            1421.1,
            872.2
          ],
          [
            1422.5,
            876.0
          ],
          [
            1423.8,
            879.7
          ],
          [
            1425.2,
            883.5
          ],
          [
            1426.6,
            887.2
          ],
          [
            1428.0,
            891.0
          ],
          [
            1429.3,
            894.7
          ],
          [
            1430.7,
            898.5
          ],
          [
            1432.0,
            902.2
          ],
          [
            1433.3,
            906.0
          ],
          [
            1434.5,
            909.8
          ],
          [
            1435.7,
            913.7
          ],
          [
            1436.7,
            917.5
          ],
          [
            1437.7,
            921.4
          ],
          [
            1438.5,
            925.3
          ],
          [
            1439.3,
            929.2
          ],
          [
            1439.9,
            933.2
          ],
          [
            1440.4,
            937.2
          ],
          [
            1440.7,
            941.2
          ],
          [
            1440.8,
            945.2
          ],
          [
            1440.8,
            949.2
          ],
          [
            1440.7,
            953.2
          ],
          [
            1440.5,
            957.2
          ],
          [
            1440.0,
            961.2
          ],
          [
            1439.5,
            965.1
          ],
          [
            1438.9,
            969.0
          ],
          [
            1438.2,
            973.0
          ],
          [
            1437.4,
            976.9
          ],
          [
            1436.5,
            980.8
          ],
          [
            1435.5,
            984.7
          ],
          [
            1434.4,
            988.5
          ],
          [
            1433.3,
            992.3
          ],
          [
            1432.0,
            996.2
          ],
          [
            1430.8,
            1000.0
          ],
          [
            1429.5,
            1003.8
          ],
          [
            1428.2,
            1007.5
          ],
          [
            1426.8,
            1011.3
          ],
          [
            1425.4,
            1015.0
          ],
          [
            1424.0,
            1018.8
          ],
          [
            1422.5,
            1022.5
          ],
          [
            1421.1,
            1026.2
          ],
          [
            1419.6,
            1030.0
          ],
          [
            1418.2,
            1033.7
          ],
          [
            1416.8,
            1037.4
          ],
          [
            1415.3,
            1041.2
          ],
          [
            1413.9,
            1044.9
          ],
          [
            1412.5,
            1048.7
          ],
          [
            1411.2,
            1052.4
          ],
          [
            1409.9,
            1056.2
          ],
          [
            1408.7,
            1060.0
          ],
          [
            1407.5,
            1063.8
          ],
          [
            1406.3,
            1067.7
          ],
          [
            1405.2,
            1071.5
          ],
          [
            1404.0,
            1075.3
          ],
          [
            1402.8,
            1079.1
          ],
          [
            1401.5,
            1082.9
          ],
          [
            1400.2,
            1086.7
          ],
          [
            1398.8,
            1090.5
          ],
          [
            1397.5,
            1094.2
          ],
          [
            1396.2,
            1098.0
          ],
          [
            1394.8,
            1101.8
          ],
          [
            1393.4,
            1105.5
          ],
          [
            1392.0,
            1109.2
          ],
          [
            1390.6,
            1113.0
          ],
          [
            1389.2,
            1116.8
          ],
          [
            1387.8,
            1120.5
          ],
          [
            1386.5,
            1124.2
          ],
          [
            1385.1,
            1128.0
          ],
          [
            1383.8,
            1131.8
          ],
          [
            1382.5,
            1135.6
          ],
          [
            1381.3,
            1139.4
          ],
          [
            1380.0,
            1143.2
          ],
          [
            1378.9,
            1147.0
          ],
          [
            1377.8,
            1150.9
          ],
          [
            1376.8,
            1154.8
          ],
          [
            1375.8,
            1158.7
          ],
          [
            1375.0,
            1162.5
          ],
          [
            1374.2,
            1166.5
          ],
          [
            1373.5,
            1170.4
          ],
          [
            1372.9,
            1174.3
          ],
          [
            1372.5,
            1178.3
          ],
          [
            1372.2,
            1182.3
          ],
          [
            1372.0,
            1186.3
          ],
          [
            1372.0,
            1190.3
          ],
          [
            1372.2,
            1194.3
          ],
          [
            1372.3,
            1198.3
          ],
          [
            1372.7,
            1202.3
          ],
          [
            1373.1,
            1206.2
          ],
          [
            1373.7,
            1210.2
          ],
          [
            1374.2,
            1214.2
          ],
          [
            1375.0,
            1218.1
          ],
          [
            1375.8,
            1222.0
          ],
          [
            1376.8,
            1225.9
          ],
          [
            1377.9,
            1229.8
          ],
          [
            1379.0,
            1233.6
          ],
          [
            1380.2,
            1237.4
          ],
          [
            1381.6,
            1241.2
          ],
          [
            1383.0,
            1244.9
          ],
          [
            1384.5,
            1248.7
          ],
          [
            1386.0,
            1252.3
          ],
          [
            1387.7,
            1256.0
          ],
          [
            1389.3,
            1259.6
          ],
          [
            1391.0,
            1263.2
          ],
          [
            1392.8,
            1266.8
          ],
          [
            1394.7,
            1270.3
          ],
          [
            1396.5,
            1273.8
          ],
          [
            1398.5,
            1277.3
          ],
          [
            1400.5,
            1280.8
          ],
          [
            1402.5,
            1284.3
          ],
          [
            1404.5,
            1287.8
          ],
          [
            1406.5,
            1291.2
          ],
          [
            1408.7,
            1294.6
          ],
          [
            1410.8,
            1298.0
          ],
          [
            1413.1,
            1301.2
          ],
          [
            1415.4,
            1304.5
          ],
          [
            1417.8,
            1307.8
          ],
          [
            1420.2,
            1311.0
          ],
          [
            1422.6,
            1314.1
          ],
          [
            1425.0,
            1317.2
          ],
          [
            1427.5,
            1320.4
          ],
          [
            1430.1,
            1323.5
          ],
          [
            1432.6,
            1326.6
          ],
          [
            1435.2,
            1329.7
          ],
          [
            1437.8,
            1332.7
          ],
          [
            1440.3,
            1335.8
          ],
          [
            1443.0,
            1338.8
          ],
          [
            1445.6,
            1341.8
          ],
          [
            1448.2,
            1344.8
          ],
          [
            1450.9,
            1347.8
          ],
          [
            1453.5,
            1350.8
          ],
          [
            1456.2,
            1353.8
          ],
          [
            1458.9,
            1356.8
          ],
          [
            1461.6,
            1359.7
          ],
          [
            1464.2,
            1362.7
          ],
          [
            1467.0,
            1365.6
          ],
          [
            1469.7,
            1368.5
          ],
          [
            1472.4,
            1371.5
          ],
          [
            1475.1,
            1374.5
          ],
          [
            1477.8,
            1377.4
          ],
          [
            1480.5,
            1380.3
          ],
          [
            1483.2,
            1383.2
          ],
          [
            1486.0,
            1386.2
          ],
          [
            1488.7,
            1389.1
          ],
          [
            1491.4,
            1392.0
          ],
          [
            1494.1,
            1395.0
          ],
          [
            1496.8,
            1398.0
          ],
          [
            1499.5,
            1401.0
          ],
          [
            1501.2,
            1403.0
          ]
        ]
      },
      "properties": {
        "id": "gameplay.path.1",
        "name": "gameplay.path.1",
        "category": "gameplay",
        "kind": "enemy_path",
        "layer": 75,
        "playable": true,
        "insidePlayArea": true,
        "pathIndex": 1,
        "widthPx": 140.0
      }
    },
    {
      "type": "Feature",
      "id": "gameplay.entry.1",
      "geometry": {
        "type": "Point",
        "coordinates": [
          1416.8,
          602.5
        ]
      },
      "properties": {
        "id": "gameplay.entry.1",
        "name": "gameplay.entry.1",
        "category": "gameplay",
        "kind": "spawn_point",
        "layer": 75,
        "playable": true,
        "insidePlayArea": true,
        "pathIndex": 1
      }
    },
    {
      "type": "Feature",
      "id": "gameplay.path.2",
      "geometry": {
        "type": "LineString",
        "coordinates": [
          [
            1950.8,
            602.5
          ],
          [
            1950.0,
            606.4
          ],
          [
            1949.3,
            610.3
          ],
          [
            1948.5,
            614.2
          ],
          [
            1947.7,
            618.2
          ],
          [
            1946.8,
            622.0
          ],
          [
            1945.9,
            626.0
          ],
          [
            1945.0,
            629.8
          ],
          [
            1944.2,
            633.8
          ],
          [
            1943.2,
            637.7
          ],
          [
            1942.3,
            641.5
          ],
          [
            1941.5,
            645.5
          ],
          [
            1940.6,
            649.3
          ],
          [
            1939.7,
            653.3
          ],
          [
            1938.8,
            657.2
          ],
          [
            1938.0,
            661.1
          ],
          [
            1937.1,
            665.0
          ],
          [
            1936.3,
            668.9
          ],
          [
            1935.5,
            672.8
          ],
          [
            1934.7,
            676.8
          ],
          [
            1933.8,
            680.7
          ],
          [
            1933.0,
            684.5
          ],
          [
            1932.2,
            688.5
          ],
          [
            1931.5,
            692.4
          ],
          [
            1930.8,
            696.3
          ],
          [
            1930.0,
            700.3
          ],
          [
            1929.3,
            704.2
          ],
          [
            1928.6,
            708.2
          ],
          [
            1928.0,
            712.1
          ],
          [
            1927.3,
            716.0
          ],
          [
            1926.7,
            720.0
          ],
          [
            1926.2,
            724.0
          ],
          [
            1925.6,
            728.0
          ],
          [
            1925.0,
            731.9
          ],
          [
            1924.6,
            735.8
          ],
          [
            1924.2,
            739.8
          ],
          [
            1923.8,
            743.8
          ],
          [
            1923.5,
            747.8
          ],
          [
            1923.2,
            751.8
          ],
          [
            1923.0,
            755.8
          ],
          [
            1922.8,
            759.8
          ],
          [
            1922.8,
            763.8
          ],
          [
            1922.8,
            767.8
          ],
          [
            1923.0,
            771.8
          ],
          [
            1923.3,
            775.8
          ],
          [
            1923.8,
            779.8
          ],
          [
            1924.5,
            783.7
          ],
          [
            1925.4,
            787.6
          ],
          [
            1926.5,
            791.5
          ],
          [
            1927.8,
            795.2
          ],
          [
            1929.2,
            799.0
          ],
          [
            1930.7,
            802.7
          ],
          [
            1932.3,
            806.3
          ],
          [
            1934.2,
            809.8
          ],
          [
            1936.0,
            813.4
          ],
          [
            1938.0,
            816.9
          ],
          [
            1940.0,
            820.3
          ],
          [
            1942.2,
            823.8
          ],
          [
            1944.3,
            827.1
          ],
          [
            1946.5,
            830.5
          ],
          [
            1948.7,
            833.8
          ],
          [
            1951.0,
            837.1
          ],
          [
            1953.2,
            840.4
          ],
          [
            1955.3,
            843.8
          ],
          [
            1957.5,
            847.1
          ],
          [
            1959.7,
            850.5
          ],
          [
            1961.8,
            853.8
          ],
          [
            1963.8,
            857.3
          ],
          [
            1965.8,
            860.8
          ],
          [
            1967.7,
            864.3
          ],
          [
            1969.3,
            868.0
          ],
          [
            1970.9,
            871.7
          ],
          [
            1972.2,
            875.5
          ],
          [
            1973.3,
            879.3
          ],
          [
            1974.2,
            883.2
          ],
          [
            1974.7,
            887.2
          ],
          [
            1975.0,
            891.2
          ],
          [
            1974.8,
            895.2
          ],
          [
            1974.5,
            899.1
          ],
          [
            1973.8,
            903.0
          ],
          [
            1973.2,
            907.0
          ],
          [
            1972.2,
            910.9
          ],
          [
            1971.2,
            914.8
          ],
          [
            1970.0,
            918.6
          ],
          [
            1968.7,
            922.3
          ],
          [
            1967.3,
            926.1
          ],
          [
            1965.8,
            929.8
          ],
          [
            1964.2,
            933.5
          ],
          [
            1962.5,
            937.1
          ],
          [
            1960.7,
            940.7
          ],
          [
            1958.8,
            944.2
          ],
          [
            1957.0,
            947.8
          ],
          [
            1955.0,
            951.2
          ],
          [
            1952.9,
            954.7
          ],
          [
            1950.8,
            958.0
          ],
          [
            1948.7,
            961.5
          ],
          [
            1946.5,
            964.8
          ],
          [
            1944.2,
            968.1
          ],
          [
            1942.0,
            971.4
          ],
          [
            1939.7,
            974.7
          ],
          [
            1937.3,
            977.9
          ],
          [
            1934.9,
            981.1
          ],
          [
            1932.5,
            984.2
          ],
          [
            1930.0,
            987.5
          ],
          [
            1927.5,
            990.5
          ],
          [
            1925.0,
            993.7
          ],
          [
            1922.5,
            996.8
          ],
          [
            1919.9,
            999.8
          ],
          [
            1917.3,
            1002.8
          ],
          [
            1914.7,
            1005.9
          ],
          [
            1912.0,
            1008.9
          ],
          [
            1909.4,
            1011.8
          ],
          [
            1906.7,
            1014.8
          ],
          [
            1904.0,
            1017.8
          ],
          [
            1901.2,
            1020.6
          ],
          [
            1898.3,
            1023.4
          ],
          [
            1895.3,
            1026.1
          ],
          [
            1892.4,
            1028.8
          ],
          [
            1889.3,
            1031.4
          ],
          [
            1886.2,
            1034.0
          ],
          [
            1883.2,
            1036.5
          ],
          [
            1880.0,
            1038.8
          ],
          [
            1876.8,
            1041.2
          ],
          [
            1873.5,
            1043.7
          ],
          [
            1870.3,
            1046.0
          ],
          [
            1867.0,
            1048.2
          ],
          [
            1863.7,
            1050.5
          ],
          [
            1860.3,
            1052.7
          ],
          [
            1857.0,
            1054.9
          ],
          [
            1853.7,
            1057.1
          ],
          [
            1850.3,
            1059.2
          ],
          [
            1847.0,
            1061.4
          ],
          [
            1843.5,
            1063.5
          ],
          [
            1840.2,
            1065.7
          ],
          [
            1836.8,
            1067.8
          ],
          [
            1833.3,
            1069.8
          ],
          [
            1830.0,
            1072.0
          ],
          [
            1826.5,
            1074.1
          ],
          [
            1823.2,
            1076.2
          ],
          [
            1819.8,
            1078.3
          ],
          [
            1816.4,
            1080.5
          ],
          [
            1813.0,
            1082.6
          ],
          [
            1809.7,
            1084.8
          ],
          [
            1806.3,
            1087.0
          ],
          [
            1803.0,
            1089.2
          ],
          [
            1799.7,
            1091.4
          ],
          [
            1796.4,
            1093.7
          ],
          [
            1793.1,
            1096.0
          ],
          [
            1789.9,
            1098.3
          ],
          [
            1786.7,
            1100.8
          ],
          [
            1783.5,
            1103.2
          ],
          [
            1780.3,
            1105.6
          ],
          [
            1777.1,
            1108.0
          ],
          [
            1773.9,
            1110.4
          ],
          [
            1770.7,
            1112.8
          ],
          [
            1767.5,
            1115.2
          ],
          [
            1764.3,
            1117.5
          ],
          [
            1761.0,
            1120.0
          ],
          [
            1757.8,
            1122.3
          ],
          [
            1754.7,
            1124.7
          ],
          [
            1751.4,
            1127.0
          ],
          [
            1748.2,
            1129.5
          ],
          [
            1745.0,
            1131.8
          ],
          [
            1741.8,
            1134.2
          ],
          [
            1738.6,
            1136.7
          ],
          [
            1735.4,
            1139.0
          ],
          [
            1732.2,
            1141.5
          ],
          [
            1729.0,
            1144.0
          ],
          [
            1726.0,
            1146.4
          ],
          [
            1722.8,
            1148.9
          ],
          [
            1719.7,
            1151.5
          ],
          [
            1716.6,
            1154.0
          ],
          [
            1713.5,
            1156.5
          ],
          [
            1710.5,
            1159.2
          ],
          [
            1707.5,
            1161.8
          ],
          [
            1704.5,
            1164.5
          ],
          [
            1701.6,
            1167.2
          ],
          [
            1698.7,
            1170.0
          ],
          [
            1695.8,
            1172.7
          ],
          [
            1693.0,
            1175.5
          ],
          [
            1690.2,
            1178.5
          ],
          [
            1687.5,
            1181.4
          ],
          [
            1684.9,
            1184.4
          ],
          [
            1682.3,
            1187.5
          ],
          [
            1679.8,
            1190.6
          ],
          [
            1677.5,
            1193.8
          ],
          [
            1675.3,
            1197.2
          ],
          [
            1673.2,
            1200.6
          ],
          [
            1671.2,
            1204.1
          ],
          [
            1669.5,
            1207.7
          ],
          [
            1667.8,
            1211.2
          ],
          [
            1666.2,
            1215.0
          ],
          [
            1664.7,
            1218.7
          ],
          [
            1663.2,
            1222.4
          ],
          [
            1661.8,
            1226.2
          ],
          [
            1660.5,
            1229.9
          ],
          [
            1659.2,
            1233.7
          ],
          [
            1658.0,
            1237.5
          ],
          [
            1656.7,
            1241.2
          ],
          [
            1655.3,
            1245.0
          ],
          [
            1654.0,
            1248.8
          ],
          [
            1652.5,
            1252.5
          ],
          [
            1651.0,
            1256.2
          ],
          [
            1649.5,
            1260.0
          ],
          [
            1647.8,
            1263.6
          ],
          [
            1646.0,
            1267.2
          ],
          [
            1644.2,
            1270.7
          ],
          [
            1642.2,
            1274.2
          ],
          [
            1640.2,
            1277.7
          ],
          [
            1638.0,
            1281.0
          ],
          [
            1635.7,
            1284.2
          ],
          [
            1633.3,
            1287.5
          ],
          [
            1630.8,
            1290.5
          ],
          [
            1628.2,
            1293.6
          ],
          [
            1625.5,
            1296.6
          ],
          [
            1622.8,
            1299.5
          ],
          [
            1620.0,
            1302.4
          ],
          [
            1617.2,
            1305.2
          ],
          [
            1614.3,
            1308.0
          ],
          [
            1611.5,
            1310.8
          ],
          [
            1608.6,
            1313.6
          ],
          [
            1605.7,
            1316.3
          ],
          [
            1602.8,
            1319.0
          ],
          [
            1599.8,
            1321.7
          ],
          [
            1596.8,
            1324.4
          ],
          [
            1593.8,
            1327.0
          ],
          [
            1590.8,
            1329.7
          ],
          [
            1587.8,
            1332.3
          ],
          [
            1584.8,
            1334.9
          ],
          [
            1581.7,
            1337.5
          ],
          [
            1578.7,
            1340.1
          ],
          [
            1575.6,
            1342.7
          ],
          [
            1572.5,
            1345.2
          ],
          [
            1569.5,
            1347.8
          ],
          [
            1566.3,
            1350.3
          ],
          [
            1563.3,
            1352.9
          ],
          [
            1560.2,
            1355.4
          ],
          [
            1557.1,
            1358.0
          ],
          [
            1554.0,
            1360.5
          ],
          [
            1550.8,
            1363.0
          ],
          [
            1547.8,
            1365.5
          ],
          [
            1544.7,
            1368.0
          ],
          [
            1541.5,
            1370.5
          ],
          [
            1538.4,
            1373.0
          ],
          [
            1535.2,
            1375.5
          ],
          [
            1532.2,
            1378.0
          ],
          [
            1529.0,
            1380.5
          ],
          [
            1525.8,
            1383.0
          ],
          [
            1522.8,
            1385.5
          ],
          [
            1519.6,
            1388.0
          ],
          [
            1516.5,
            1390.5
          ],
          [
            1513.3,
            1393.0
          ],
          [
            1510.2,
            1395.5
          ],
          [
            1507.2,
            1398.0
          ],
          [
            1504.0,
            1400.5
          ],
          [
            1501.2,
            1403.0
          ]
        ]
      },
      "properties": {
        "id": "gameplay.path.2",
        "name": "gameplay.path.2",
        "category": "gameplay",
        "kind": "enemy_path",
        "layer": 75,
        "playable": true,
        "insidePlayArea": true,
        "pathIndex": 2,
        "widthPx": 140.0
      }
    },
    {
      "type": "Feature",
      "id": "gameplay.entry.2",
      "geometry": {
        "type": "Point",
        "coordinates": [
          1950.8,
          602.5
        ]
      },
      "properties": {
        "id": "gameplay.entry.2",
        "name": "gameplay.entry.2",
        "category": "gameplay",
        "kind": "spawn_point",
        "layer": 75,
        "playable": true,
        "insidePlayArea": true,
        "pathIndex": 2
      }
    },
    {
      "type": "Feature",
      "id": "gameplay.exit.0",
      "geometry": {
        "type": "Point",
        "coordinates": [
          1501.2,
          1403.0
        ]
      },
      "properties": {
        "id": "gameplay.exit.0",
        "name": "gameplay.exit.0",
        "category": "gameplay",
        "kind": "goal_point",
        "layer": 75,
        "playable": true,
        "insidePlayArea": true,
        "pathIndexes": [
          0,
          1,
          2
        ]
      }
    },
    {
      "type": "Feature",
      "id": "gameplay.tower_slot.1",
      "geometry": {
        "type": "Point",
        "coordinates": [
          1051.6,
          1034.6
        ]
      },
      "properties": {
        "id": "gameplay.tower_slot.1",
        "name": "gameplay.tower_slot.1",
        "category": "gameplay",
        "kind": "tower_slot",
        "layer": 75,
        "playable": true,
        "insidePlayArea": true,
        "slotIndex": 0,
        "slotNumber": 1
      }
    },
    {
      "type": "Feature",
      "id": "gameplay.tower_slot.2",
      "geometry": {
        "type": "Point",
        "coordinates": [
          1599.3,
          1318.7
        ]
      },
      "properties": {
        "id": "gameplay.tower_slot.2",
        "name": "gameplay.tower_slot.2",
        "category": "gameplay",
        "kind": "tower_slot",
        "layer": 75,
        "playable": true,
        "insidePlayArea": true,
        "slotIndex": 1,
        "slotNumber": 2
      }
    },
    {
      "type": "Feature",
      "id": "gameplay.tower_slot.3",
      "geometry": {
        "type": "Point",
        "coordinates": [
          1384.0,
          1316.9
        ]
      },
      "properties": {
        "id": "gameplay.tower_slot.3",
        "name": "gameplay.tower_slot.3",
        "category": "gameplay",
        "kind": "tower_slot",
        "layer": 75,
        "playable": true,
        "insidePlayArea": true,
        "slotIndex": 2,
        "slotNumber": 3
      }
    },
    {
      "type": "Feature",
      "id": "gameplay.tower_slot.4",
      "geometry": {
        "type": "Point",
        "coordinates": [
          1962.8,
          910.7
        ]
      },
      "properties": {
        "id": "gameplay.tower_slot.4",
        "name": "gameplay.tower_slot.4",
        "category": "gameplay",
        "kind": "tower_slot",
        "layer": 75,
        "playable": true,
        "insidePlayArea": true,
        "slotIndex": 3,
        "slotNumber": 4
      }
    },
    {
      "type": "Feature",
      "id": "gameplay.tower_slot.5",
      "geometry": {
        "type": "Point",
        "coordinates": [
          1349.6,
          864.2
        ]
      },
      "properties": {
        "id": "gameplay.tower_slot.5",
        "name": "gameplay.tower_slot.5",
        "category": "gameplay",
        "kind": "tower_slot",
        "layer": 75,
        "playable": true,
        "insidePlayArea": true,
        "slotIndex": 4,
        "slotNumber": 5
      }
    },
    {
      "type": "Feature",
      "id": "gameplay.tower_slot.6",
      "geometry": {
        "type": "Point",
        "coordinates": [
          972.4,
          1100.0
        ]
      },
      "properties": {
        "id": "gameplay.tower_slot.6",
        "name": "gameplay.tower_slot.6",
        "category": "gameplay",
        "kind": "tower_slot",
        "layer": 75,
        "playable": true,
        "insidePlayArea": true,
        "slotIndex": 5,
        "slotNumber": 6
      }
    },
    {
      "type": "Feature",
      "id": "gameplay.tower_slot.7",
      "geometry": {
        "type": "Point",
        "coordinates": [
          1833.6,
          981.2
        ]
      },
      "properties": {
        "id": "gameplay.tower_slot.7",
        "name": "gameplay.tower_slot.7",
        "category": "gameplay",
        "kind": "tower_slot",
        "layer": 75,
        "playable": true,
        "insidePlayArea": true,
        "slotIndex": 6,
        "slotNumber": 7
      }
    },
    {
      "type": "Feature",
      "id": "gameplay.tower_slot.8",
      "geometry": {
        "type": "Point",
        "coordinates": [
          1447.8,
          1172.3
        ]
      },
      "properties": {
        "id": "gameplay.tower_slot.8",
        "name": "gameplay.tower_slot.8",
        "category": "gameplay",
        "kind": "tower_slot",
        "layer": 75,
        "playable": true,
        "insidePlayArea": true,
        "slotIndex": 7,
        "slotNumber": 8
      }
    },
    {
      "type": "Feature",
      "id": "gameplay.tower_slot.9",
      "geometry": {
        "type": "Point",
        "coordinates": [
          996.5,
          864.2
        ]
      },
      "properties": {
        "id": "gameplay.tower_slot.9",
        "name": "gameplay.tower_slot.9",
        "category": "gameplay",
        "kind": "tower_slot",
        "layer": 75,
        "playable": true,
        "insidePlayArea": true,
        "slotIndex": 8,
        "slotNumber": 9
      }
    },
    {
      "type": "Feature",
      "id": "gameplay.tower_slot.10",
      "geometry": {
        "type": "Point",
        "coordinates": [
          1509.8,
          890.0
        ]
      },
      "properties": {
        "id": "gameplay.tower_slot.10",
        "name": "gameplay.tower_slot.10",
        "category": "gameplay",
        "kind": "tower_slot",
        "layer": 75,
        "playable": true,
        "insidePlayArea": true,
        "slotIndex": 9,
        "slotNumber": 10
      }
    },
    {
      "type": "Feature",
      "id": "gameplay.call_wave_button.0",
      "geometry": {
        "type": "Point",
        "coordinates": [
          878.5,
          644.0
        ]
      },
      "properties": {
        "id": "gameplay.call_wave_button.0",
        "name": "gameplay.call_wave_button.0",
        "category": "gameplay",
        "kind": "call_wave_button",
        "layer": 100,
        "playable": true,
        "insidePlayArea": true,
        "pathIndices": [
          0
        ]
      }
    },
    {
      "type": "Feature",
      "id": "gameplay.call_wave_button.1",
      "geometry": {
        "type": "Point",
        "coordinates": [
          1413.8,
          642.3
        ]
      },
      "properties": {
        "id": "gameplay.call_wave_button.1",
        "name": "gameplay.call_wave_button.1",
        "category": "gameplay",
        "kind": "call_wave_button",
        "layer": 100,
        "playable": true,
        "insidePlayArea": true,
        "pathIndices": [
          1
        ]
      }
    },
    {
      "type": "Feature",
      "id": "gameplay.call_wave_button.2",
      "geometry": {
        "type": "Point",
        "coordinates": [
          1941.5,
          645.5
        ]
      },
      "properties": {
        "id": "gameplay.call_wave_button.2",
        "name": "gameplay.call_wave_button.2",
        "category": "gameplay",
        "kind": "call_wave_button",
        "layer": 100,
        "playable": true,
        "insidePlayArea": true,
        "pathIndices": [
          2
        ]
      }
    },
    {
      "type": "Feature",
      "id": "gameplay.hero_spawn.primary",
      "geometry": {
        "type": "Point",
        "coordinates": [
          1467.474606421907,
          1258.453587255899
        ]
      },
      "properties": {
        "id": "gameplay.hero_spawn.primary",
        "name": "Primary hero start",
        "category": "gameplay",
        "kind": "hero_spawn",
        "layer": 75,
        "playable": true,
        "insidePlayArea": true,
        "heroRoles": [
          "primary"
        ]
      }
    },
    {
      "type": "Feature",
      "id": "gameplay.hero_spawn.secondary",
      "geometry": {
        "type": "Point",
        "coordinates": [
          1366.5775638255634,
          1242.9118221258855
        ]
      },
      "properties": {
        "id": "gameplay.hero_spawn.secondary",
        "name": "Secondary hero start",
        "category": "gameplay",
        "kind": "hero_spawn",
        "layer": 75,
        "playable": true,
        "insidePlayArea": true,
        "heroRoles": [
          "secondary"
        ]
      }
    }
  ],
  "heroCount": 2
}
