{
  "type": "FeatureCollection",
  "name": "Savannah",
  "coordinateReferenceSystem": {
    "type": "local-cartesian",
    "note": "NOT WGS84. Canonical game units, lower-left origin, +y up.",
    "canvas": {
      "width": 2868.0,
      "height": 2064.0
    },
    "playArea": {
      "x": 474.0,
      "y": 492.0,
      "width": 1920.0,
      "height": 1080.0
    }
  },
  "metadata": {
    "level": 14,
    "levelId": "46157f59-b21b-4b03-9151-d404c6cd6d0b",
    "levelName": "Savannah",
    "geometrySource": "Existing Db/DML/Levels SQL routes and tower slots; no route geometry changed."
  },
  "startingGold": 480,
  "lives": 20,
  "features": [
    {
      "type": "Feature",
      "id": "gameplay.path.0",
      "geometry": {
        "type": "LineString",
        "coordinates": [
          [
            1109.3,
            1551.3
          ],
          [
            1159.5,
            1521.8
          ],
          [
            1199.6,
            1482.0
          ],
          [
            1206.3,
            1482.0
          ],
          [
            1256.6,
            1432.6
          ],
          [
            1270.0,
            1406.0
          ],
          [
            1270.0,
            1303.8
          ],
          [
            1209.7,
            1240.7
          ],
          [
            1182.9,
            1227.7
          ],
          [
            1136.0,
            1224.3
          ],
          [
            1089.2,
            1210.3
          ],
          [
            992.1,
            1210.4
          ],
          [
            975.3,
            1199.6
          ],
          [
            921.8,
            1173.9
          ],
          [
            811.3,
            1173.3
          ],
          [
            791.2,
            1184.7
          ],
          [
            744.3,
            1191.4
          ],
          [
            727.6,
            1200.4
          ],
          [
            657.3,
            1201.1
          ],
          [
            640.6,
            1218.1
          ],
          [
            590.3,
            1216.1
          ]
        ]
      },
      "properties": {
        "id": "gameplay.path.0",
        "name": "gameplay.path.0",
        "category": "gameplay",
        "kind": "enemy_path",
        "layer": 75,
        "playable": true,
        "insidePlayArea": true,
        "pathIndex": 0,
        "widthPx": 140.0
      }
    },
    {
      "type": "Feature",
      "id": "gameplay.entry.0",
      "geometry": {
        "type": "Point",
        "coordinates": [
          1109.3,
          1551.3
        ]
      },
      "properties": {
        "id": "gameplay.entry.0",
        "name": "gameplay.entry.0",
        "category": "gameplay",
        "kind": "spawn_point",
        "layer": 75,
        "playable": true,
        "insidePlayArea": true,
        "pathIndex": 0
      }
    },
    {
      "type": "Feature",
      "id": "gameplay.path.1",
      "geometry": {
        "type": "LineString",
        "coordinates": [
          [
            2274.3,
            1283.3
          ],
          [
            2254.2,
            1241.1
          ],
          [
            2230.8,
            1216.8
          ],
          [
            2230.8,
            1190.9
          ],
          [
            2220.7,
            1173.6
          ],
          [
            2220.7,
            1154.9
          ],
          [
            2167.2,
            1099.3
          ],
          [
            2117.0,
            1091.4
          ],
          [
            2083.5,
            1071.0
          ],
          [
            2043.3,
            1070.3
          ],
          [
            2029.9,
            1080.2
          ],
          [
            1956.3,
            1083.4
          ],
          [
            1922.8,
            1093.3
          ],
          [
            1865.9,
            1093.6
          ],
          [
            1852.5,
            1103.0
          ],
          [
            1742.0,
            1104.5
          ],
          [
            1701.8,
            1066.8
          ],
          [
            1668.4,
            1042.4
          ],
          [
            1661.7,
            1042.7
          ],
          [
            1648.3,
            1026.0
          ],
          [
            1494.3,
            1025.6
          ],
          [
            1484.2,
            1033.3
          ],
          [
            1450.7,
            1033.8
          ],
          [
            1437.3,
            1024.3
          ],
          [
            1417.3,
            1024.0
          ],
          [
            1343.6,
            1001.5
          ],
          [
            1303.4,
            972.9
          ],
          [
            1105.9,
            969.1
          ],
          [
            1095.9,
            960.9
          ],
          [
            1028.9,
            944.0
          ],
          [
            1018.9,
            935.6
          ],
          [
            931.8,
            936.1
          ],
          [
            895.0,
            952.8
          ],
          [
            797.9,
            952.3
          ],
          [
            791.2,
            945.1
          ],
          [
            647.3,
            948.5
          ],
          [
            630.5,
            942.1
          ],
          [
            523.4,
            941.6
          ]
        ]
      },
      "properties": {
        "id": "gameplay.path.1",
        "name": "gameplay.path.1",
        "category": "gameplay",
        "kind": "enemy_path",
        "layer": 75,
        "playable": true,
        "insidePlayArea": true,
        "pathIndex": 1,
        "widthPx": 140.0
      }
    },
    {
      "type": "Feature",
      "id": "gameplay.entry.1",
      "geometry": {
        "type": "Point",
        "coordinates": [
          2274.3,
          1283.3
        ]
      },
      "properties": {
        "id": "gameplay.entry.1",
        "name": "gameplay.entry.1",
        "category": "gameplay",
        "kind": "spawn_point",
        "layer": 75,
        "playable": true,
        "insidePlayArea": true,
        "pathIndex": 1
      }
    },
    {
      "type": "Feature",
      "id": "gameplay.path.2",
      "geometry": {
        "type": "LineString",
        "coordinates": [
          [
            2331.2,
            662.1
          ],
          [
            2297.7,
            627.9
          ],
          [
            2254.2,
            614.7
          ],
          [
            2204.0,
            563.8
          ],
          [
            2110.3,
            525.5
          ],
          [
            2086.8,
            526.5
          ],
          [
            2043.3,
            560.1
          ],
          [
            2026.6,
            560.8
          ],
          [
            1986.4,
            600.3
          ],
          [
            1949.6,
            598.3
          ],
          [
            1912.7,
            612.2
          ],
          [
            1896.0,
            613.7
          ],
          [
            1875.9,
            635.9
          ],
          [
            1862.5,
            662.2
          ],
          [
            1865.9,
            694.5
          ],
          [
            1886.0,
            724.3
          ],
          [
            1886.0,
            739.9
          ],
          [
            1845.8,
            778.4
          ],
          [
            1809.0,
            792.6
          ],
          [
            1762.1,
            794.0
          ],
          [
            1725.3,
            832.3
          ],
          [
            1701.8,
            842.3
          ],
          [
            1624.8,
            843.7
          ],
          [
            1584.7,
            805.3
          ],
          [
            1534.4,
            778.1
          ],
          [
            1514.3,
            757.8
          ],
          [
            1276.7,
            764.5
          ],
          [
            1246.5,
            751.6
          ],
          [
            1182.9,
            700.1
          ],
          [
            1119.3,
            698.2
          ],
          [
            1099.2,
            708.4
          ],
          [
            1042.3,
            708.1
          ],
          [
            1032.3,
            714.5
          ],
          [
            915.1,
            714.6
          ],
          [
            891.6,
            727.7
          ],
          [
            881.6,
            736.9
          ],
          [
            858.2,
            737.7
          ],
          [
            757.7,
            738.1
          ],
          [
            751.0,
            733.7
          ],
          [
            734.3,
            727.8
          ],
          [
            677.4,
            728.3
          ],
          [
            670.7,
            734.5
          ],
          [
            556.9,
            734.0
          ]
        ]
      },
      "properties": {
        "id": "gameplay.path.2",
        "name": "gameplay.path.2",
        "category": "gameplay",
        "kind": "enemy_path",
        "layer": 75,
        "playable": true,
        "insidePlayArea": true,
        "pathIndex": 2,
        "widthPx": 140.0
      }
    },
    {
      "type": "Feature",
      "id": "gameplay.entry.2",
      "geometry": {
        "type": "Point",
        "coordinates": [
          2331.2,
          662.1
        ]
      },
      "properties": {
        "id": "gameplay.entry.2",
        "name": "gameplay.entry.2",
        "category": "gameplay",
        "kind": "spawn_point",
        "layer": 75,
        "playable": true,
        "insidePlayArea": true,
        "pathIndex": 2
      }
    },
    {
      "type": "Feature",
      "id": "gameplay.path.3",
      "geometry": {
        "type": "LineString",
        "coordinates": [
          [
            1485.9,
            549.1
          ],
          [
            1435.7,
            532.3
          ],
          [
            1383.8,
            514.1
          ],
          [
            1286.7,
            514.6
          ],
          [
            1219.7,
            547.4
          ],
          [
            1146.1,
            621.6
          ],
          [
            1129.3,
            627.9
          ],
          [
            1102.6,
            654.2
          ],
          [
            1082.5,
            658.2
          ],
          [
            1022.2,
            716.6
          ],
          [
            915.1,
            714.6
          ],
          [
            891.6,
            727.7
          ],
          [
            881.6,
            736.9
          ],
          [
            858.2,
            737.7
          ],
          [
            757.7,
            738.1
          ],
          [
            751.0,
            733.7
          ],
          [
            734.3,
            727.8
          ],
          [
            677.4,
            728.3
          ],
          [
            670.7,
            734.5
          ],
          [
            556.9,
            734.0
          ]
        ]
      },
      "properties": {
        "id": "gameplay.path.3",
        "name": "gameplay.path.3",
        "category": "gameplay",
        "kind": "enemy_path",
        "layer": 75,
        "playable": true,
        "insidePlayArea": true,
        "pathIndex": 3,
        "widthPx": 140.0
      }
    },
    {
      "type": "Feature",
      "id": "gameplay.entry.3",
      "geometry": {
        "type": "Point",
        "coordinates": [
          1485.9,
          549.1
        ]
      },
      "properties": {
        "id": "gameplay.entry.3",
        "name": "gameplay.entry.3",
        "category": "gameplay",
        "kind": "spawn_point",
        "layer": 75,
        "playable": true,
        "insidePlayArea": true,
        "pathIndex": 3
      }
    },
    {
  "type": "Feature",
  "id": "gameplay.exit.0",
  "geometry": {
    "type": "Point",
    "coordinates": [
      590.3,
      1216.1
    ]
  },
  "properties": {
    "id": "gameplay.exit.0",
    "name": "gameplay.exit.0",
    "category": "gameplay",
    "kind": "goal_point",
    "layer": 75,
    "playable": true,
    "insidePlayArea": true,
    "pathIndexes": [
      0
    ]
  }
},
    {
  "type": "Feature",
  "id": "gameplay.exit.1",
  "geometry": {
    "type": "Point",
    "coordinates": [
      523.4,
      941.6
    ]
  },
  "properties": {
    "id": "gameplay.exit.1",
    "name": "gameplay.exit.1",
    "category": "gameplay",
    "kind": "goal_point",
    "layer": 75,
    "playable": true,
    "insidePlayArea": true,
    "pathIndexes": [
      1
    ]
  }
},
    {
  "type": "Feature",
  "id": "gameplay.exit.2",
  "geometry": {
    "type": "Point",
    "coordinates": [
      556.9,
      734.0
    ]
  },
  "properties": {
    "id": "gameplay.exit.2",
    "name": "gameplay.exit.2",
    "category": "gameplay",
    "kind": "goal_point",
    "layer": 75,
    "playable": true,
    "insidePlayArea": true,
    "pathIndexes": [
      2,
      3
    ]
  }
},
    {
      "type": "Feature",
      "id": "gameplay.tower_slot.1",
      "geometry": {
        "type": "Point",
        "coordinates": [
          1080.8,
          1373.5
        ]
      },
      "properties": {
        "id": "gameplay.tower_slot.1",
        "name": "gameplay.tower_slot.1",
        "category": "gameplay",
        "kind": "tower_slot",
        "layer": 75,
        "playable": true,
        "insidePlayArea": true,
        "slotIndex": 0,
        "slotNumber": 1
      }
    },
    {
      "type": "Feature",
      "id": "gameplay.tower_slot.2",
      "geometry": {
        "type": "Point",
        "coordinates": [
          1460.8,
          1417.0
        ]
      },
      "properties": {
        "id": "gameplay.tower_slot.2",
        "name": "gameplay.tower_slot.2",
        "category": "gameplay",
        "kind": "tower_slot",
        "layer": 75,
        "playable": true,
        "insidePlayArea": true,
        "slotIndex": 1,
        "slotNumber": 2
      }
    },
    {
      "type": "Feature",
      "id": "gameplay.tower_slot.3",
      "geometry": {
        "type": "Point",
        "coordinates": [
          1723.6,
          1373.5
        ]
      },
      "properties": {
        "id": "gameplay.tower_slot.3",
        "name": "gameplay.tower_slot.3",
        "category": "gameplay",
        "kind": "tower_slot",
        "layer": 75,
        "playable": true,
        "insidePlayArea": true,
        "slotIndex": 2,
        "slotNumber": 3
      }
    },
    {
      "type": "Feature",
      "id": "gameplay.tower_slot.4",
      "geometry": {
        "type": "Point",
        "coordinates": [
          844.8,
          1314.9
        ]
      },
      "properties": {
        "id": "gameplay.tower_slot.4",
        "name": "gameplay.tower_slot.4",
        "category": "gameplay",
        "kind": "tower_slot",
        "layer": 75,
        "playable": true,
        "insidePlayArea": true,
        "slotIndex": 3,
        "slotNumber": 4
      }
    },
    {
      "type": "Feature",
      "id": "gameplay.tower_slot.5",
      "geometry": {
        "type": "Point",
        "coordinates": [
          1328.5,
          1159.2
        ]
      },
      "properties": {
        "id": "gameplay.tower_slot.5",
        "name": "gameplay.tower_slot.5",
        "category": "gameplay",
        "kind": "tower_slot",
        "layer": 75,
        "playable": true,
        "insidePlayArea": true,
        "slotIndex": 4,
        "slotNumber": 5
      }
    },
    {
      "type": "Feature",
      "id": "gameplay.tower_slot.6",
      "geometry": {
        "type": "Point",
        "coordinates": [
          1589.7,
          1174.3
        ]
      },
      "properties": {
        "id": "gameplay.tower_slot.6",
        "name": "gameplay.tower_slot.6",
        "category": "gameplay",
        "kind": "tower_slot",
        "layer": 75,
        "playable": true,
        "insidePlayArea": true,
        "slotIndex": 5,
        "slotNumber": 6
      }
    },
    {
      "type": "Feature",
      "id": "gameplay.tower_slot.7",
      "geometry": {
        "type": "Point",
        "coordinates": [
          697.5,
          1129.1
        ]
      },
      "properties": {
        "id": "gameplay.tower_slot.7",
        "name": "gameplay.tower_slot.7",
        "category": "gameplay",
        "kind": "tower_slot",
        "layer": 75,
        "playable": true,
        "insidePlayArea": true,
        "slotIndex": 6,
        "slotNumber": 7
      }
    },
    {
      "type": "Feature",
      "id": "gameplay.tower_slot.8",
      "geometry": {
        "type": "Point",
        "coordinates": [
          1008.8,
          1099.0
        ]
      },
      "properties": {
        "id": "gameplay.tower_slot.8",
        "name": "gameplay.tower_slot.8",
        "category": "gameplay",
        "kind": "tower_slot",
        "layer": 75,
        "playable": true,
        "insidePlayArea": true,
        "slotIndex": 7,
        "slotNumber": 8
      }
    },
    {
      "type": "Feature",
      "id": "gameplay.tower_slot.9",
      "geometry": {
        "type": "Point",
        "coordinates": [
          1819.0,
          1010.2
        ]
      },
      "properties": {
        "id": "gameplay.tower_slot.9",
        "name": "gameplay.tower_slot.9",
        "category": "gameplay",
        "kind": "tower_slot",
        "layer": 75,
        "playable": true,
        "insidePlayArea": true,
        "slotIndex": 8,
        "slotNumber": 9
      }
    },
    {
      "type": "Feature",
      "id": "gameplay.tower_slot.10",
      "geometry": {
        "type": "Point",
        "coordinates": [
          1141.1,
          879.7
        ]
      },
      "properties": {
        "id": "gameplay.tower_slot.10",
        "name": "gameplay.tower_slot.10",
        "category": "gameplay",
        "kind": "tower_slot",
        "layer": 75,
        "playable": true,
        "insidePlayArea": true,
        "slotIndex": 9,
        "slotNumber": 10
      }
    },
    {
      "type": "Feature",
      "id": "gameplay.tower_slot.11",
      "geometry": {
        "type": "Point",
        "coordinates": [
          1460.8,
          931.6
        ]
      },
      "properties": {
        "id": "gameplay.tower_slot.11",
        "name": "gameplay.tower_slot.11",
        "category": "gameplay",
        "kind": "tower_slot",
        "layer": 75,
        "playable": true,
        "insidePlayArea": true,
        "slotIndex": 10,
        "slotNumber": 11
      }
    },
    {
      "type": "Feature",
      "id": "gameplay.tower_slot.12",
      "geometry": {
        "type": "Point",
        "coordinates": [
          1363.7,
          678.8
        ]
      },
      "properties": {
        "id": "gameplay.tower_slot.12",
        "name": "gameplay.tower_slot.12",
        "category": "gameplay",
        "kind": "tower_slot",
        "layer": 75,
        "playable": true,
        "insidePlayArea": true,
        "slotIndex": 11,
        "slotNumber": 12
      }
    },
    {
      "type": "Feature",
      "id": "gameplay.tower_slot.13",
      "geometry": {
        "type": "Point",
        "coordinates": [
          1671.7,
          729.0
        ]
      },
      "properties": {
        "id": "gameplay.tower_slot.13",
        "name": "gameplay.tower_slot.13",
        "category": "gameplay",
        "kind": "tower_slot",
        "layer": 75,
        "playable": true,
        "insidePlayArea": true,
        "slotIndex": 12,
        "slotNumber": 13
      }
    },
    {
      "type": "Feature",
      "id": "gameplay.call_wave_button.0",
      "geometry": {
        "type": "Point",
        "coordinates": [
          1270.0,
          1406.0
        ]
      },
      "properties": {
        "id": "gameplay.call_wave_button.0",
        "name": "gameplay.call_wave_button.0",
        "category": "gameplay",
        "kind": "call_wave_button",
        "layer": 100,
        "playable": true,
        "insidePlayArea": true,
        "pathIndices": [
          0
        ]
      }
    },
    {
      "type": "Feature",
      "id": "gameplay.call_wave_button.1",
      "geometry": {
        "type": "Point",
        "coordinates": [
          2274.3,
          1283.3
        ]
      },
      "properties": {
        "id": "gameplay.call_wave_button.1",
        "name": "gameplay.call_wave_button.1",
        "category": "gameplay",
        "kind": "call_wave_button",
        "layer": 100,
        "playable": true,
        "insidePlayArea": true,
        "pathIndices": [
          1
        ]
      }
    },
    {
      "type": "Feature",
      "id": "gameplay.call_wave_button.2",
      "geometry": {
        "type": "Point",
        "coordinates": [
          1862.5,
          662.2
        ]
      },
      "properties": {
        "id": "gameplay.call_wave_button.2",
        "name": "gameplay.call_wave_button.2",
        "category": "gameplay",
        "kind": "call_wave_button",
        "layer": 100,
        "playable": true,
        "insidePlayArea": true,
        "pathIndices": [
          2
        ]
      }
    },
    {
      "type": "Feature",
      "id": "gameplay.call_wave_button.3",
      "geometry": {
        "type": "Point",
        "coordinates": [
          1102.6,
          654.2
        ]
      },
      "properties": {
        "id": "gameplay.call_wave_button.3",
        "name": "gameplay.call_wave_button.3",
        "category": "gameplay",
        "kind": "call_wave_button",
        "layer": 100,
        "playable": true,
        "insidePlayArea": true,
        "pathIndices": [
          3
        ]
      }
    },
    {
      "type": "Feature",
      "id": "gameplay.hero_spawn.primary",
      "geometry": {
        "type": "Point",
        "coordinates": [
          660.3930982206973,
          1216.1
        ]
      },
      "properties": {
        "id": "gameplay.hero_spawn.primary",
        "name": "Primary hero start",
        "category": "gameplay",
        "kind": "hero_spawn",
        "layer": 75,
        "playable": true,
        "insidePlayArea": true,
        "heroRoles": [
          "primary"
        ]
      }
    },
    {
      "type": "Feature",
      "id": "gameplay.hero_spawn.secondary",
      "geometry": {
        "type": "Point",
        "coordinates": [
          557.6339737153286,
          968.3287124479517
        ]
      },
      "properties": {
        "id": "gameplay.hero_spawn.secondary",
        "name": "Secondary hero start",
        "category": "gameplay",
        "kind": "hero_spawn",
        "layer": 75,
        "playable": true,
        "insidePlayArea": true,
        "heroRoles": [
          "secondary"
        ]
      }
    }
  ],
  "heroCount": 2
}
