{
  "type": "FeatureCollection",
  "name": "Moore's Creek Bridge",
  "coordinateReferenceSystem": {
    "type": "local-cartesian",
    "note": "NOT WGS84. Canonical game units, lower-left origin, +y up.",
    "canvas": {
      "width": 2868.0,
      "height": 2064.0
    },
    "playArea": {
      "x": 474.0,
      "y": 492.0,
      "width": 1920.0,
      "height": 1080.0
    }
  },
  "metadata": {
    "level": 4,
    "levelId": "4cbeebf1-cd0c-4818-84b1-cb62f246d1ed",
    "levelName": "Moore's Creek Bridge",
    "geometrySource": "Existing Db/DML/Levels SQL routes and tower slots; no route geometry changed."
  },
  "startingGold": 330,
  "lives": 20,
  "features": [
    {
      "type": "Feature",
      "id": "gameplay.path.0",
      "geometry": {
        "type": "LineString",
        "coordinates": [
          [
            715.7,
            1428.8
          ],
          [
            717.5,
            1425.2
          ],
          [
            719.1,
            1421.6
          ],
          [
            720.8,
            1418.0
          ],
          [
            722.4,
            1414.3
          ],
          [
            724.0,
            1410.6
          ],
          [
            725.6,
            1407.0
          ],
          [
            727.2,
            1403.3
          ],
          [
            728.8,
            1399.6
          ],
          [
            730.4,
            1396.0
          ],
          [
            732.0,
            1392.3
          ],
          [
            733.6,
            1388.7
          ],
          [
            735.4,
            1385.0
          ],
          [
            737.0,
            1381.4
          ],
          [
            738.7,
            1377.8
          ],
          [
            740.5,
            1374.2
          ],
          [
            742.2,
            1370.5
          ],
          [
            744.0,
            1367.0
          ],
          [
            745.9,
            1363.5
          ],
          [
            747.7,
            1359.9
          ],
          [
            749.6,
            1356.3
          ],
          [
            751.5,
            1352.8
          ],
          [
            753.5,
            1349.4
          ],
          [
            755.5,
            1346.0
          ],
          [
            757.6,
            1342.5
          ],
          [
            759.7,
            1339.2
          ],
          [
            761.9,
            1335.8
          ],
          [
            764.1,
            1332.5
          ],
          [
            766.5,
            1329.2
          ],
          [
            768.8,
            1326.0
          ],
          [
            771.2,
            1322.8
          ],
          [
            773.6,
            1319.6
          ],
          [
            776.1,
            1316.4
          ],
          [
            778.5,
            1313.2
          ],
          [
            781.0,
            1310.1
          ],
          [
            783.5,
            1307.0
          ],
          [
            786.0,
            1303.8
          ],
          [
            788.5,
            1300.7
          ],
          [
            791.0,
            1297.6
          ],
          [
            793.5,
            1294.5
          ],
          [
            796.0,
            1291.5
          ],
          [
            798.6,
            1288.4
          ],
          [
            801.2,
            1285.3
          ],
          [
            803.9,
            1282.3
          ],
          [
            806.5,
            1279.3
          ],
          [
            809.2,
            1276.3
          ],
          [
            811.9,
            1273.4
          ],
          [
            814.6,
            1270.5
          ],
          [
            817.4,
            1267.6
          ],
          [
            820.1,
            1264.7
          ],
          [
            823.0,
            1261.8
          ],
          [
            825.8,
            1259.0
          ],
          [
            828.7,
            1256.2
          ],
          [
            831.6,
            1253.5
          ],
          [
            834.5,
            1250.8
          ],
          [
            837.5,
            1248.2
          ],
          [
            840.5,
            1245.5
          ],
          [
            843.6,
            1243.0
          ],
          [
            846.7,
            1240.4
          ],
          [
            849.9,
            1237.9
          ],
          [
            853.0,
            1235.5
          ],
          [
            856.2,
            1233.1
          ],
          [
            859.5,
            1230.8
          ],
          [
            862.8,
            1228.5
          ],
          [
            866.0,
            1226.2
          ],
          [
            869.5,
            1224.1
          ],
          [
            872.9,
            1222.0
          ],
          [
            876.4,
            1220.0
          ],
          [
            879.9,
            1218.2
          ],
          [
            883.4,
            1216.3
          ],
          [
            887.0,
            1214.7
          ],
          [
            890.7,
            1213.0
          ],
          [
            894.4,
            1211.5
          ],
          [
            898.1,
            1210.1
          ],
          [
            901.9,
            1208.7
          ],
          [
            905.7,
            1207.4
          ],
          [
            909.5,
            1206.2
          ],
          [
            913.3,
            1205.0
          ],
          [
            917.1,
            1203.8
          ],
          [
            921.0,
            1202.8
          ],
          [
            924.9,
            1201.7
          ],
          [
            928.7,
            1200.7
          ],
          [
            932.6,
            1199.7
          ],
          [
            936.5,
            1198.7
          ],
          [
            940.4,
            1197.7
          ],
          [
            944.2,
            1196.8
          ],
          [
            948.1,
            1195.8
          ],
          [
            952.0,
            1194.9
          ],
          [
            955.9,
            1194.0
          ],
          [
            959.8,
            1193.0
          ],
          [
            963.6,
            1192.0
          ],
          [
            967.5,
            1191.0
          ],
          [
            971.4,
            1190.0
          ],
          [
            975.2,
            1189.0
          ],
          [
            979.1,
            1188.0
          ],
          [
            983.0,
            1186.8
          ],
          [
            986.8,
            1185.8
          ],
          [
            990.6,
            1184.6
          ],
          [
            994.5,
            1183.4
          ],
          [
            998.2,
            1182.2
          ],
          [
            1002.0,
            1180.9
          ],
          [
            1005.9,
            1179.5
          ],
          [
            1009.6,
            1178.2
          ],
          [
            1013.3,
            1176.7
          ],
          [
            1017.0,
            1175.2
          ],
          [
            1020.7,
            1173.7
          ],
          [
            1024.3,
            1172.0
          ],
          [
            1028.0,
            1170.3
          ],
          [
            1031.6,
            1168.6
          ],
          [
            1035.2,
            1166.8
          ],
          [
            1038.8,
            1165.0
          ],
          [
            1042.3,
            1163.2
          ],
          [
            1045.8,
            1161.4
          ],
          [
            1049.4,
            1159.5
          ],
          [
            1053.0,
            1157.7
          ],
          [
            1056.5,
            1155.8
          ],
          [
            1060.0,
            1153.8
          ],
          [
            1063.5,
            1151.9
          ],
          [
            1067.0,
            1150.0
          ],
          [
            1070.5,
            1148.0
          ],
          [
            1073.9,
            1146.0
          ],
          [
            1077.4,
            1144.0
          ],
          [
            1080.8,
            1142.0
          ],
          [
            1084.3,
            1140.0
          ],
          [
            1087.8,
            1138.0
          ],
          [
            1091.2,
            1135.9
          ],
          [
            1094.6,
            1133.8
          ],
          [
            1098.0,
            1131.8
          ],
          [
            1101.5,
            1129.7
          ],
          [
            1104.8,
            1127.6
          ],
          [
            1108.2,
            1125.5
          ],
          [
            1111.7,
            1123.4
          ],
          [
            1115.0,
            1121.2
          ],
          [
            1118.5,
            1119.2
          ],
          [
            1121.8,
            1117.0
          ],
          [
            1125.2,
            1114.9
          ],
          [
            1128.6,
            1112.8
          ],
          [
            1132.0,
            1110.6
          ],
          [
            1135.3,
            1108.5
          ],
          [
            1138.8,
            1106.3
          ],
          [
            1142.1,
            1104.2
          ],
          [
            1145.5,
            1102.0
          ],
          [
            1148.8,
            1099.8
          ],
          [
            1152.2,
            1097.7
          ],
          [
            1155.6,
            1095.5
          ],
          [
            1159.0,
            1093.4
          ],
          [
            1162.3,
            1091.2
          ],
          [
            1165.7,
            1089.0
          ],
          [
            1169.0,
            1086.9
          ],
          [
            1172.4,
            1084.8
          ],
          [
            1175.8,
            1082.6
          ],
          [
            1179.2,
            1080.4
          ],
          [
            1182.5,
            1078.2
          ],
          [
            1185.8,
            1076.1
          ],
          [
            1189.2,
            1074.0
          ],
          [
            1192.6,
            1071.8
          ],
          [
            1196.0,
            1069.7
          ],
          [
            1199.4,
            1067.5
          ],
          [
            1202.8,
            1065.4
          ],
          [
            1206.2,
            1063.2
          ],
          [
            1209.5,
            1061.1
          ],
          [
            1212.8,
            1059.0
          ],
          [
            1216.2,
            1056.8
          ],
          [
            1219.6,
            1054.6
          ],
          [
            1223.0,
            1052.4
          ],
          [
            1226.3,
            1050.2
          ],
          [
            1229.7,
            1048.0
          ],
          [
            1233.0,
            1045.8
          ],
          [
            1236.3,
            1043.7
          ],
          [
            1239.7,
            1041.5
          ],
          [
            1243.0,
            1039.2
          ],
          [
            1246.3,
            1037.0
          ],
          [
            1249.7,
            1034.8
          ],
          [
            1253.0,
            1032.7
          ],
          [
            1256.3,
            1030.4
          ],
          [
            1259.7,
            1028.2
          ],
          [
            1263.0,
            1026.0
          ],
          [
            1266.3,
            1023.8
          ],
          [
            1269.7,
            1021.5
          ],
          [
            1273.0,
            1019.3
          ],
          [
            1276.3,
            1017.0
          ],
          [
            1279.6,
            1014.8
          ],
          [
            1282.9,
            1012.5
          ],
          [
            1286.2,
            1010.3
          ],
          [
            1289.5,
            1008.1
          ],
          [
            1292.8,
            1005.8
          ],
          [
            1296.2,
            1003.6
          ],
          [
            1299.5,
            1001.3
          ],
          [
            1302.8,
            999.1
          ],
          [
            1306.1,
            996.8
          ],
          [
            1309.4,
            994.6
          ],
          [
            1312.7,
            992.3
          ],
          [
            1316.0,
            990.2
          ],
          [
            1319.3,
            987.9
          ],
          [
            1322.7,
            985.7
          ],
          [
            1326.0,
            983.4
          ],
          [
            1329.2,
            981.2
          ],
          [
            1332.6,
            978.9
          ],
          [
            1335.9,
            976.7
          ],
          [
            1339.2,
            974.5
          ],
          [
            1342.5,
            972.2
          ],
          [
            1345.8,
            970.0
          ],
          [
            1349.2,
            967.8
          ],
          [
            1352.5,
            965.5
          ],
          [
            1355.8,
            963.3
          ],
          [
            1359.2,
            961.0
          ],
          [
            1362.5,
            958.8
          ],
          [
            1365.7,
            956.5
          ],
          [
            1369.0,
            954.2
          ],
          [
            1372.2,
            951.8
          ],
          [
            1375.5,
            949.5
          ],
          [
            1378.7,
            947.1
          ],
          [
            1381.9,
            944.7
          ],
          [
            1385.1,
            942.3
          ],
          [
            1388.2,
            939.9
          ],
          [
            1391.5,
            937.5
          ],
          [
            1394.6,
            935.0
          ],
          [
            1397.8,
            932.6
          ],
          [
            1401.0,
            930.2
          ],
          [
            1404.2,
            927.8
          ],
          [
            1407.3,
            925.3
          ],
          [
            1410.6,
            923.0
          ],
          [
            1413.8,
            920.7
          ],
          [
            1417.1,
            918.3
          ],
          [
            1420.4,
            916.0
          ],
          [
            1423.7,
            913.8
          ],
          [
            1427.0,
            911.7
          ],
          [
            1430.5,
            909.5
          ],
          [
            1433.8,
            907.5
          ],
          [
            1437.3,
            905.5
          ],
          [
            1440.8,
            903.5
          ],
          [
            1444.3,
            901.7
          ],
          [
            1448.0,
            899.8
          ],
          [
            1451.5,
            898.1
          ],
          [
            1455.2,
            896.5
          ],
          [
            1458.8,
            894.8
          ],
          [
            1462.5,
            893.3
          ],
          [
            1466.3,
            891.9
          ],
          [
            1470.0,
            890.5
          ],
          [
            1473.8,
            889.3
          ],
          [
            1477.7,
            888.1
          ],
          [
            1481.5,
            887.0
          ],
          [
            1485.3,
            885.9
          ],
          [
            1489.2,
            884.8
          ],
          [
            1493.1,
            883.9
          ],
          [
            1497.0,
            883.0
          ],
          [
            1500.9,
            882.0
          ],
          [
            1504.8,
            881.2
          ],
          [
            1508.7,
            880.3
          ],
          [
            1512.6,
            879.5
          ],
          [
            1516.5,
            878.7
          ],
          [
            1520.5,
            877.9
          ],
          [
            1524.3,
            877.2
          ],
          [
            1528.3,
            876.4
          ],
          [
            1532.2,
            875.7
          ],
          [
            1536.2,
            874.9
          ],
          [
            1540.1,
            874.1
          ],
          [
            1544.0,
            873.3
          ],
          [
            1548.0,
            872.6
          ],
          [
            1551.8,
            871.8
          ],
          [
            1555.8,
            871.0
          ],
          [
            1559.7,
            870.2
          ],
          [
            1563.6,
            869.3
          ],
          [
            1567.5,
            868.5
          ],
          [
            1571.4,
            867.5
          ],
          [
            1575.3,
            866.6
          ],
          [
            1579.2,
            865.6
          ],
          [
            1583.0,
            864.6
          ],
          [
            1586.8,
            863.5
          ],
          [
            1590.7,
            862.3
          ],
          [
            1594.5,
            861.2
          ],
          [
            1598.3,
            859.9
          ],
          [
            1602.1,
            858.6
          ],
          [
            1605.8,
            857.2
          ],
          [
            1609.6,
            855.8
          ],
          [
            1613.3,
            854.5
          ],
          [
            1617.1,
            853.0
          ],
          [
            1620.8,
            851.5
          ],
          [
            1624.5,
            850.0
          ],
          [
            1628.2,
            848.5
          ],
          [
            1631.9,
            847.0
          ],
          [
            1635.5,
            845.3
          ],
          [
            1639.2,
            843.8
          ],
          [
            1642.9,
            842.1
          ],
          [
            1646.5,
            840.5
          ],
          [
            1650.2,
            838.8
          ],
          [
            1653.8,
            837.2
          ],
          [
            1657.5,
            835.5
          ],
          [
            1661.0,
            833.8
          ],
          [
            1664.7,
            832.1
          ],
          [
            1668.3,
            830.4
          ],
          [
            1672.0,
            828.7
          ],
          [
            1675.6,
            827.0
          ],
          [
            1679.2,
            825.3
          ],
          [
            1682.8,
            823.7
          ],
          [
            1686.5,
            822.0
          ],
          [
            1690.2,
            820.4
          ],
          [
            1693.8,
            818.8
          ],
          [
            1697.5,
            817.2
          ],
          [
            1701.1,
            815.5
          ],
          [
            1704.8,
            814.0
          ],
          [
            1708.5,
            812.4
          ],
          [
            1712.2,
            810.8
          ],
          [
            1715.8,
            809.3
          ],
          [
            1719.5,
            807.8
          ],
          [
            1723.2,
            806.3
          ],
          [
            1727.0,
            804.8
          ],
          [
            1730.7,
            803.3
          ],
          [
            1734.4,
            801.8
          ],
          [
            1738.1,
            800.3
          ],
          [
            1741.8,
            798.8
          ],
          [
            1745.5,
            797.4
          ],
          [
            1749.2,
            795.9
          ],
          [
            1753.0,
            794.5
          ],
          [
            1756.7,
            793.0
          ],
          [
            1760.5,
            791.5
          ],
          [
            1764.2,
            790.1
          ],
          [
            1767.9,
            788.6
          ],
          [
            1771.6,
            787.2
          ],
          [
            1775.3,
            785.7
          ],
          [
            1779.0,
            784.2
          ],
          [
            1782.8,
            782.8
          ],
          [
            1786.5,
            781.3
          ],
          [
            1790.2,
            779.9
          ],
          [
            1794.0,
            778.5
          ],
          [
            1797.7,
            777.0
          ],
          [
            1801.5,
            775.5
          ],
          [
            1805.2,
            774.1
          ],
          [
            1808.9,
            772.7
          ],
          [
            1812.6,
            771.2
          ],
          [
            1816.3,
            769.7
          ],
          [
            1820.0,
            768.2
          ],
          [
            1823.8,
            766.8
          ],
          [
            1827.5,
            765.3
          ],
          [
            1831.2,
            763.8
          ],
          [
            1834.9,
            762.3
          ],
          [
            1838.7,
            760.8
          ],
          [
            1842.3,
            759.4
          ],
          [
            1846.0,
            757.9
          ],
          [
            1849.8,
            756.4
          ],
          [
            1853.5,
            754.9
          ],
          [
            1857.2,
            753.4
          ],
          [
            1860.9,
            751.8
          ],
          [
            1864.6,
            750.3
          ],
          [
            1868.2,
            748.8
          ],
          [
            1872.0,
            747.2
          ],
          [
            1875.7,
            745.8
          ],
          [
            1879.3,
            744.2
          ],
          [
            1883.0,
            742.6
          ],
          [
            1886.7,
            741.0
          ],
          [
            1890.4,
            739.5
          ],
          [
            1894.0,
            737.9
          ],
          [
            1897.8,
            736.3
          ],
          [
            1901.4,
            734.7
          ],
          [
            1905.0,
            733.1
          ],
          [
            1908.7,
            731.5
          ],
          [
            1912.4,
            729.9
          ],
          [
            1916.0,
            728.2
          ],
          [
            1919.7,
            726.7
          ],
          [
            1923.3,
            725.0
          ],
          [
            1927.0,
            723.4
          ],
          [
            1930.7,
            721.8
          ],
          [
            1934.3,
            720.1
          ],
          [
            1938.0,
            718.5
          ],
          [
            1941.6,
            716.8
          ],
          [
            1945.2,
            715.2
          ],
          [
            1948.9,
            713.5
          ],
          [
            1952.5,
            711.9
          ],
          [
            1956.2,
            710.2
          ],
          [
            1959.8,
            708.6
          ],
          [
            1963.5,
            707.0
          ],
          [
            1967.1,
            705.3
          ],
          [
            1970.8,
            703.6
          ],
          [
            1974.4,
            702.0
          ],
          [
            1978.0,
            700.3
          ],
          [
            1981.7,
            698.6
          ],
          [
            1985.3,
            697.0
          ],
          [
            1989.0,
            695.3
          ],
          [
            1992.5,
            693.6
          ],
          [
            1996.2,
            692.0
          ],
          [
            1999.8,
            690.3
          ],
          [
            2003.5,
            688.6
          ],
          [
            2007.1,
            687.0
          ],
          [
            2010.8,
            685.2
          ],
          [
            2014.3,
            683.6
          ],
          [
            2018.0,
            681.9
          ],
          [
            2021.6,
            680.2
          ],
          [
            2025.2,
            678.5
          ],
          [
            2028.9,
            676.8
          ],
          [
            2032.5,
            675.2
          ],
          [
            2036.2,
            673.5
          ],
          [
            2039.8,
            671.8
          ],
          [
            2043.4,
            670.2
          ],
          [
            2047.1,
            668.5
          ],
          [
            2050.7,
            666.8
          ],
          [
            2054.3,
            665.1
          ],
          [
            2057.9,
            663.5
          ],
          [
            2061.6,
            661.8
          ],
          [
            2065.2,
            660.1
          ],
          [
            2068.8,
            658.4
          ],
          [
            2072.4,
            656.8
          ],
          [
            2076.1,
            655.1
          ],
          [
            2078.2,
            654.1
          ]
        ]
      },
      "properties": {
        "id": "gameplay.path.0",
        "name": "gameplay.path.0",
        "category": "gameplay",
        "kind": "enemy_path",
        "layer": 75,
        "playable": true,
        "insidePlayArea": true,
        "pathIndex": 0,
        "widthPx": 140.0
      }
    },
    {
      "type": "Feature",
      "id": "gameplay.entry.0",
      "geometry": {
        "type": "Point",
        "coordinates": [
          715.7,
          1428.8
        ]
      },
      "properties": {
        "id": "gameplay.entry.0",
        "name": "gameplay.entry.0",
        "category": "gameplay",
        "kind": "spawn_point",
        "layer": 75,
        "playable": true,
        "insidePlayArea": true,
        "pathIndex": 0
      }
    },
    {
  "type": "Feature",
  "id": "gameplay.exit.0",
  "geometry": {
    "type": "Point",
    "coordinates": [
      2078.2,
      654.1
    ]
  },
  "properties": {
    "id": "gameplay.exit.0",
    "name": "gameplay.exit.0",
    "category": "gameplay",
    "kind": "goal_point",
    "layer": 75,
    "playable": true,
    "insidePlayArea": true,
    "pathIndexes": [
      0
    ]
  }
},
    {
      "type": "Feature",
      "id": "gameplay.tower_slot.1",
      "geometry": {
        "type": "Point",
        "coordinates": [
          1668.2,
          774.6
        ]
      },
      "properties": {
        "id": "gameplay.tower_slot.1",
        "name": "gameplay.tower_slot.1",
        "category": "gameplay",
        "kind": "tower_slot",
        "layer": 75,
        "playable": true,
        "insidePlayArea": true,
        "slotIndex": 0,
        "slotNumber": 1
      }
    },
    {
      "type": "Feature",
      "id": "gameplay.tower_slot.2",
      "geometry": {
        "type": "Point",
        "coordinates": [
          944.8,
          1103.5
        ]
      },
      "properties": {
        "id": "gameplay.tower_slot.2",
        "name": "gameplay.tower_slot.2",
        "category": "gameplay",
        "kind": "tower_slot",
        "layer": 75,
        "playable": true,
        "insidePlayArea": true,
        "slotIndex": 1,
        "slotNumber": 2
      }
    },
    {
      "type": "Feature",
      "id": "gameplay.tower_slot.3",
      "geometry": {
        "type": "Point",
        "coordinates": [
          1509.8,
          829.7
        ]
      },
      "properties": {
        "id": "gameplay.tower_slot.3",
        "name": "gameplay.tower_slot.3",
        "category": "gameplay",
        "kind": "tower_slot",
        "layer": 75,
        "playable": true,
        "insidePlayArea": true,
        "slotIndex": 2,
        "slotNumber": 3
      }
    },
    {
      "type": "Feature",
      "id": "gameplay.tower_slot.4",
      "geometry": {
        "type": "Point",
        "coordinates": [
          1139.5,
          1168.8
        ]
      },
      "properties": {
        "id": "gameplay.tower_slot.4",
        "name": "gameplay.tower_slot.4",
        "category": "gameplay",
        "kind": "tower_slot",
        "layer": 75,
        "playable": true,
        "insidePlayArea": true,
        "slotIndex": 3,
        "slotNumber": 4
      }
    },
    {
      "type": "Feature",
      "id": "gameplay.tower_slot.5",
      "geometry": {
        "type": "Point",
        "coordinates": [
          924.1,
          1272.2
        ]
      },
      "properties": {
        "id": "gameplay.tower_slot.5",
        "name": "gameplay.tower_slot.5",
        "category": "gameplay",
        "kind": "tower_slot",
        "layer": 75,
        "playable": true,
        "insidePlayArea": true,
        "slotIndex": 4,
        "slotNumber": 5
      }
    },
    {
      "type": "Feature",
      "id": "gameplay.tower_slot.6",
      "geometry": {
        "type": "Point",
        "coordinates": [
          717.5,
          1268.7
        ]
      },
      "properties": {
        "id": "gameplay.tower_slot.6",
        "name": "gameplay.tower_slot.6",
        "category": "gameplay",
        "kind": "tower_slot",
        "layer": 75,
        "playable": true,
        "insidePlayArea": true,
        "slotIndex": 5,
        "slotNumber": 6
      }
    },
    {
      "type": "Feature",
      "id": "gameplay.tower_slot.7",
      "geometry": {
        "type": "Point",
        "coordinates": [
          1974.8,
          995.0
        ]
      },
      "properties": {
        "id": "gameplay.tower_slot.7",
        "name": "gameplay.tower_slot.7",
        "category": "gameplay",
        "kind": "tower_slot",
        "layer": 75,
        "playable": true,
        "insidePlayArea": true,
        "slotIndex": 6,
        "slotNumber": 7
      }
    },
    {
      "type": "Feature",
      "id": "gameplay.tower_slot.8",
      "geometry": {
        "type": "Point",
        "coordinates": [
          967.2,
          1370.3
        ]
      },
      "properties": {
        "id": "gameplay.tower_slot.8",
        "name": "gameplay.tower_slot.8",
        "category": "gameplay",
        "kind": "tower_slot",
        "layer": 75,
        "playable": true,
        "insidePlayArea": true,
        "slotIndex": 7,
        "slotNumber": 8
      }
    },
    {
      "type": "Feature",
      "id": "gameplay.tower_slot.9",
      "geometry": {
        "type": "Point",
        "coordinates": [
          1845.7,
          957.1
        ]
      },
      "properties": {
        "id": "gameplay.tower_slot.9",
        "name": "gameplay.tower_slot.9",
        "category": "gameplay",
        "kind": "tower_slot",
        "layer": 75,
        "playable": true,
        "insidePlayArea": true,
        "slotIndex": 8,
        "slotNumber": 9
      }
    },
    {
      "type": "Feature",
      "id": "gameplay.tower_slot.10",
      "geometry": {
        "type": "Point",
        "coordinates": [
          1819.8,
          843.5
        ]
      },
      "properties": {
        "id": "gameplay.tower_slot.10",
        "name": "gameplay.tower_slot.10",
        "category": "gameplay",
        "kind": "tower_slot",
        "layer": 75,
        "playable": true,
        "insidePlayArea": true,
        "slotIndex": 9,
        "slotNumber": 10
      }
    },
    {
      "type": "Feature",
      "id": "gameplay.call_wave_button.0",
      "geometry": {
        "type": "Point",
        "coordinates": [
          719.1,
          1421.6
        ]
      },
      "properties": {
        "id": "gameplay.call_wave_button.0",
        "name": "gameplay.call_wave_button.0",
        "category": "gameplay",
        "kind": "call_wave_button",
        "layer": 100,
        "playable": true,
        "insidePlayArea": true,
        "pathIndices": [
          0
        ]
      }
    },
    {
      "type": "Feature",
      "id": "gameplay.hero_spawn.primary",
      "geometry": {
        "type": "Point",
        "coordinates": [
          2078.2,
          674.6614489747068
        ]
      },
      "properties": {
        "id": "gameplay.hero_spawn.primary",
        "name": "Primary hero start",
        "category": "gameplay",
        "kind": "hero_spawn",
        "layer": 75,
        "playable": true,
        "insidePlayArea": true,
        "heroRoles": [
          "primary"
        ]
      }
    }
  ],
  "heroCount": 1
}
