{
  "type": "FeatureCollection",
  "name": "Princeton",
  "coordinateReferenceSystem": {
    "type": "local-cartesian",
    "note": "NOT WGS84. Canonical game units, lower-left origin, +y up.",
    "canvas": {
      "width": 2868.0,
      "height": 2064.0
    },
    "playArea": {
      "x": 474.0,
      "y": 492.0,
      "width": 1920.0,
      "height": 1080.0
    }
  },
  "metadata": {
    "level": 9,
    "levelId": "9c6679ab-c028-48ab-95b7-93318f37c1a9",
    "levelName": "Princeton",
    "geometrySource": "Existing Db/DML/Levels SQL routes and tower slots; no route geometry changed."
  },
  "startingGold": 400,
  "lives": 20,
  "features": [
    {
      "type": "Feature",
      "id": "gameplay.path.0",
      "geometry": {
        "type": "LineString",
        "coordinates": [
          [
            536.6,
            516.4
          ],
          [
            540.6,
            516.7
          ],
          [
            544.5,
            516.8
          ],
          [
            548.5,
            517.1
          ],
          [
            552.5,
            517.3
          ],
          [
            556.5,
            517.6
          ],
          [
            560.5,
            517.8
          ],
          [
            564.5,
            518.0
          ],
          [
            568.5,
            518.3
          ],
          [
            572.5,
            518.5
          ],
          [
            576.5,
            518.8
          ],
          [
            580.5,
            519.0
          ],
          [
            584.5,
            519.3
          ],
          [
            588.5,
            519.5
          ],
          [
            592.5,
            519.8
          ],
          [
            596.5,
            520.0
          ],
          [
            600.5,
            520.2
          ],
          [
            604.5,
            520.5
          ],
          [
            608.5,
            520.7
          ],
          [
            612.5,
            521.0
          ],
          [
            616.5,
            521.2
          ],
          [
            620.5,
            521.5
          ],
          [
            624.5,
            521.7
          ],
          [
            628.4,
            521.9
          ],
          [
            632.4,
            522.2
          ],
          [
            636.4,
            522.3
          ],
          [
            640.4,
            522.6
          ],
          [
            644.4,
            522.8
          ],
          [
            648.4,
            523.0
          ],
          [
            652.4,
            523.3
          ],
          [
            656.4,
            523.5
          ],
          [
            660.4,
            523.8
          ],
          [
            664.4,
            524.0
          ],
          [
            668.4,
            524.2
          ],
          [
            672.4,
            524.4
          ],
          [
            676.4,
            524.7
          ],
          [
            680.4,
            524.8
          ],
          [
            684.4,
            525.0
          ],
          [
            688.3,
            525.2
          ],
          [
            692.3,
            525.5
          ],
          [
            696.3,
            525.7
          ],
          [
            700.3,
            525.8
          ],
          [
            704.3,
            526.0
          ],
          [
            708.3,
            526.1
          ],
          [
            712.3,
            526.2
          ],
          [
            716.3,
            526.3
          ],
          [
            720.3,
            526.5
          ],
          [
            724.3,
            526.5
          ],
          [
            728.3,
            526.7
          ],
          [
            732.3,
            526.8
          ],
          [
            736.3,
            526.9
          ],
          [
            740.3,
            527.0
          ],
          [
            744.3,
            527.1
          ],
          [
            748.3,
            527.2
          ],
          [
            752.3,
            527.3
          ],
          [
            756.3,
            527.4
          ],
          [
            760.3,
            527.5
          ],
          [
            764.3,
            527.7
          ],
          [
            768.3,
            527.8
          ],
          [
            772.3,
            527.9
          ],
          [
            776.3,
            528.0
          ],
          [
            780.3,
            528.2
          ],
          [
            784.2,
            528.3
          ],
          [
            788.2,
            528.5
          ],
          [
            792.2,
            528.8
          ],
          [
            796.2,
            528.9
          ],
          [
            800.2,
            529.2
          ],
          [
            804.2,
            529.3
          ],
          [
            808.2,
            529.6
          ],
          [
            812.2,
            529.8
          ],
          [
            816.2,
            530.1
          ],
          [
            820.2,
            530.4
          ],
          [
            824.2,
            530.7
          ],
          [
            828.2,
            531.0
          ],
          [
            832.2,
            531.3
          ],
          [
            836.1,
            531.7
          ],
          [
            840.1,
            532.0
          ],
          [
            844.1,
            532.5
          ],
          [
            848.1,
            532.8
          ],
          [
            852.1,
            533.2
          ],
          [
            856.0,
            533.7
          ],
          [
            860.0,
            534.2
          ],
          [
            864.0,
            534.6
          ],
          [
            868.0,
            535.0
          ],
          [
            872.0,
            535.5
          ],
          [
            876.0,
            535.9
          ],
          [
            879.9,
            536.3
          ],
          [
            883.9,
            536.8
          ],
          [
            887.9,
            537.2
          ],
          [
            891.9,
            537.6
          ],
          [
            895.8,
            538.0
          ],
          [
            899.8,
            538.5
          ],
          [
            903.8,
            539.0
          ],
          [
            907.8,
            539.3
          ],
          [
            911.7,
            539.8
          ],
          [
            915.7,
            540.2
          ],
          [
            919.6,
            540.8
          ],
          [
            923.6,
            541.2
          ],
          [
            927.6,
            541.7
          ],
          [
            931.6,
            542.2
          ],
          [
            935.5,
            542.7
          ],
          [
            939.5,
            543.2
          ],
          [
            943.5,
            543.7
          ],
          [
            947.5,
            544.2
          ],
          [
            951.4,
            544.7
          ],
          [
            955.4,
            545.2
          ],
          [
            959.4,
            545.8
          ],
          [
            963.3,
            546.3
          ],
          [
            967.2,
            547.0
          ],
          [
            971.2,
            547.5
          ],
          [
            975.2,
            548.2
          ],
          [
            979.1,
            548.8
          ],
          [
            983.0,
            549.4
          ],
          [
            987.0,
            550.0
          ],
          [
            991.0,
            550.8
          ],
          [
            994.9,
            551.5
          ],
          [
            998.9,
            552.2
          ],
          [
            1002.8,
            552.9
          ],
          [
            1006.7,
            553.7
          ],
          [
            1010.6,
            554.5
          ],
          [
            1014.5,
            555.2
          ],
          [
            1018.5,
            556.1
          ],
          [
            1022.3,
            557.0
          ],
          [
            1026.2,
            557.8
          ],
          [
            1030.2,
            558.8
          ],
          [
            1034.0,
            559.8
          ],
          [
            1037.9,
            560.8
          ],
          [
            1041.8,
            561.8
          ],
          [
            1045.6,
            562.9
          ],
          [
            1049.5,
            564.0
          ],
          [
            1053.2,
            565.2
          ],
          [
            1057.0,
            566.4
          ],
          [
            1060.8,
            567.7
          ],
          [
            1064.7,
            569.0
          ],
          [
            1068.4,
            570.3
          ],
          [
            1072.2,
            571.8
          ],
          [
            1075.8,
            573.2
          ],
          [
            1079.5,
            574.8
          ],
          [
            1083.2,
            576.3
          ],
          [
            1086.9,
            577.9
          ],
          [
            1090.6,
            579.5
          ],
          [
            1094.2,
            581.2
          ],
          [
            1097.8,
            582.9
          ],
          [
            1101.5,
            584.7
          ],
          [
            1105.0,
            586.4
          ],
          [
            1108.6,
            588.2
          ],
          [
            1112.1,
            590.1
          ],
          [
            1115.7,
            592.0
          ],
          [
            1119.2,
            594.0
          ],
          [
            1122.7,
            595.9
          ],
          [
            1126.1,
            597.9
          ],
          [
            1129.5,
            600.0
          ],
          [
            1133.0,
            602.0
          ],
          [
            1136.3,
            604.1
          ],
          [
            1139.7,
            606.2
          ],
          [
            1143.0,
            608.5
          ],
          [
            1146.4,
            610.7
          ],
          [
            1149.7,
            612.9
          ],
          [
            1153.0,
            615.2
          ],
          [
            1156.2,
            617.5
          ],
          [
            1159.5,
            619.8
          ],
          [
            1162.7,
            622.2
          ],
          [
            1165.9,
            624.7
          ],
          [
            1169.0,
            627.1
          ],
          [
            1172.2,
            629.5
          ],
          [
            1175.3,
            632.1
          ],
          [
            1178.4,
            634.7
          ],
          [
            1181.5,
            637.2
          ],
          [
            1184.5,
            639.8
          ],
          [
            1187.5,
            642.5
          ],
          [
            1190.4,
            645.2
          ],
          [
            1193.3,
            647.9
          ],
          [
            1196.2,
            650.7
          ],
          [
            1199.1,
            653.5
          ],
          [
            1201.9,
            656.3
          ],
          [
            1204.7,
            659.2
          ],
          [
            1207.4,
            662.2
          ],
          [
            1210.1,
            665.1
          ],
          [
            1212.7,
            668.2
          ],
          [
            1215.3,
            671.2
          ],
          [
            1217.8,
            674.3
          ],
          [
            1220.3,
            677.4
          ],
          [
            1222.8,
            680.6
          ],
          [
            1225.1,
            683.8
          ],
          [
            1227.4,
            687.1
          ],
          [
            1229.7,
            690.4
          ],
          [
            1231.8,
            693.7
          ],
          [
            1234.0,
            697.1
          ],
          [
            1236.0,
            700.5
          ],
          [
            1238.0,
            704.0
          ],
          [
            1240.0,
            707.5
          ],
          [
            1241.8,
            711.1
          ],
          [
            1243.5,
            714.7
          ],
          [
            1245.0,
            718.4
          ],
          [
            1246.5,
            722.1
          ],
          [
            1247.9,
            725.8
          ],
          [
            1249.2,
            729.7
          ],
          [
            1250.2,
            733.5
          ],
          [
            1251.0,
            737.5
          ],
          [
            1251.7,
            741.4
          ],
          [
            1252.1,
            745.3
          ],
          [
            1252.2,
            749.3
          ],
          [
            1252.0,
            753.3
          ],
          [
            1251.5,
            757.3
          ],
          [
            1250.4,
            761.2
          ],
          [
            1249.0,
            764.9
          ],
          [
            1247.0,
            768.4
          ],
          [
            1244.8,
            771.8
          ],
          [
            1242.3,
            774.8
          ],
          [
            1239.7,
            777.8
          ],
          [
            1236.8,
            780.5
          ],
          [
            1233.7,
            783.2
          ],
          [
            1230.6,
            785.7
          ],
          [
            1227.3,
            788.0
          ],
          [
            1224.1,
            790.3
          ],
          [
            1220.8,
            792.5
          ],
          [
            1217.4,
            794.7
          ],
          [
            1214.0,
            796.8
          ],
          [
            1210.5,
            798.8
          ],
          [
            1207.1,
            800.9
          ],
          [
            1203.7,
            802.9
          ],
          [
            1200.2,
            804.9
          ],
          [
            1196.7,
            806.9
          ],
          [
            1193.2,
            808.9
          ],
          [
            1189.8,
            810.9
          ],
          [
            1186.3,
            813.0
          ],
          [
            1182.9,
            815.0
          ],
          [
            1179.5,
            817.0
          ],
          [
            1176.1,
            819.2
          ],
          [
            1172.8,
            821.3
          ],
          [
            1169.4,
            823.5
          ],
          [
            1166.0,
            825.8
          ],
          [
            1162.8,
            828.0
          ],
          [
            1159.5,
            830.2
          ],
          [
            1156.1,
            832.5
          ],
          [
            1152.8,
            834.6
          ],
          [
            1149.3,
            836.8
          ],
          [
            1146.0,
            838.9
          ],
          [
            1142.6,
            841.0
          ],
          [
            1139.2,
            843.1
          ],
          [
            1135.8,
            845.2
          ],
          [
            1132.3,
            847.2
          ],
          [
            1128.9,
            849.3
          ],
          [
            1125.5,
            851.3
          ],
          [
            1122.0,
            853.3
          ],
          [
            1118.5,
            855.4
          ],
          [
            1115.1,
            857.5
          ],
          [
            1111.7,
            859.5
          ],
          [
            1108.2,
            861.5
          ],
          [
            1104.8,
            863.5
          ],
          [
            1101.3,
            865.5
          ],
          [
            1097.9,
            867.5
          ],
          [
            1094.5,
            869.6
          ],
          [
            1091.0,
            871.6
          ],
          [
            1087.5,
            873.7
          ],
          [
            1084.1,
            875.7
          ],
          [
            1080.7,
            877.8
          ],
          [
            1077.2,
            879.8
          ],
          [
            1073.8,
            881.9
          ],
          [
            1070.4,
            884.0
          ],
          [
            1067.0,
            886.0
          ],
          [
            1063.6,
            888.2
          ],
          [
            1060.2,
            890.3
          ],
          [
            1056.8,
            892.5
          ],
          [
            1053.5,
            894.6
          ],
          [
            1050.1,
            896.8
          ],
          [
            1046.8,
            899.0
          ],
          [
            1043.5,
            901.2
          ],
          [
            1040.2,
            903.5
          ],
          [
            1036.8,
            905.7
          ],
          [
            1033.5,
            908.0
          ],
          [
            1030.3,
            910.3
          ],
          [
            1027.0,
            912.7
          ],
          [
            1023.8,
            915.0
          ],
          [
            1020.6,
            917.4
          ],
          [
            1017.4,
            919.8
          ],
          [
            1014.1,
            922.2
          ],
          [
            1011.0,
            924.5
          ],
          [
            1007.8,
            926.9
          ],
          [
            1004.5,
            929.3
          ],
          [
            1001.3,
            931.7
          ],
          [
            998.1,
            934.0
          ],
          [
            994.9,
            936.5
          ],
          [
            991.8,
            938.9
          ],
          [
            988.5,
            941.3
          ],
          [
            985.4,
            943.8
          ],
          [
            982.2,
            946.2
          ],
          [
            979.0,
            948.7
          ],
          [
            975.9,
            951.2
          ],
          [
            972.8,
            953.7
          ],
          [
            969.6,
            956.2
          ],
          [
            966.5,
            958.7
          ],
          [
            963.5,
            961.2
          ],
          [
            960.4,
            963.8
          ],
          [
            957.4,
            966.3
          ],
          [
            954.3,
            968.9
          ],
          [
            951.2,
            971.5
          ],
          [
            948.2,
            974.2
          ],
          [
            945.2,
            976.8
          ],
          [
            942.3,
            979.5
          ],
          [
            939.4,
            982.2
          ],
          [
            936.5,
            985.0
          ],
          [
            933.5,
            987.7
          ],
          [
            930.6,
            990.5
          ],
          [
            927.8,
            993.3
          ],
          [
            925.0,
            996.1
          ],
          [
            922.1,
            999.0
          ],
          [
            919.4,
            1001.8
          ],
          [
            916.6,
            1004.8
          ],
          [
            914.0,
            1007.7
          ],
          [
            911.2,
            1010.7
          ],
          [
            908.6,
            1013.7
          ],
          [
            906.0,
            1016.7
          ],
          [
            903.4,
            1019.8
          ],
          [
            900.9,
            1022.8
          ],
          [
            898.2,
            1025.8
          ],
          [
            895.7,
            1029.0
          ],
          [
            893.2,
            1032.0
          ],
          [
            890.6,
            1035.2
          ],
          [
            888.1,
            1038.2
          ],
          [
            885.6,
            1041.4
          ],
          [
            883.2,
            1044.5
          ],
          [
            880.7,
            1047.7
          ],
          [
            878.3,
            1050.8
          ],
          [
            875.9,
            1054.0
          ],
          [
            873.5,
            1057.2
          ],
          [
            871.1,
            1060.5
          ],
          [
            868.7,
            1063.7
          ],
          [
            866.4,
            1067.0
          ],
          [
            864.0,
            1070.2
          ],
          [
            861.8,
            1073.5
          ],
          [
            859.5,
            1076.8
          ],
          [
            857.3,
            1080.1
          ],
          [
            855.1,
            1083.5
          ],
          [
            852.9,
            1086.8
          ],
          [
            850.8,
            1090.2
          ],
          [
            848.6,
            1093.5
          ],
          [
            846.5,
            1097.0
          ],
          [
            844.5,
            1100.4
          ],
          [
            842.5,
            1103.9
          ],
          [
            840.5,
            1107.3
          ],
          [
            838.6,
            1110.9
          ],
          [
            836.8,
            1114.4
          ],
          [
            835.0,
            1118.0
          ],
          [
            833.2,
            1121.5
          ],
          [
            831.5,
            1125.2
          ],
          [
            829.8,
            1128.8
          ],
          [
            828.2,
            1132.5
          ],
          [
            826.7,
            1136.2
          ],
          [
            825.2,
            1139.9
          ],
          [
            823.9,
            1143.7
          ],
          [
            822.6,
            1147.5
          ],
          [
            821.5,
            1151.3
          ],
          [
            820.3,
            1155.2
          ],
          [
            819.2,
            1159.0
          ],
          [
            818.2,
            1162.8
          ],
          [
            817.2,
            1166.8
          ],
          [
            816.4,
            1170.7
          ],
          [
            815.5,
            1174.5
          ],
          [
            814.7,
            1178.5
          ],
          [
            814.0,
            1182.4
          ],
          [
            813.3,
            1186.3
          ],
          [
            812.8,
            1190.3
          ],
          [
            812.3,
            1194.2
          ],
          [
            812.0,
            1198.2
          ],
          [
            811.7,
            1202.2
          ],
          [
            811.5,
            1206.2
          ],
          [
            811.5,
            1210.2
          ],
          [
            811.6,
            1214.2
          ],
          [
            811.8,
            1218.2
          ],
          [
            812.1,
            1222.2
          ],
          [
            812.5,
            1226.2
          ],
          [
            813.0,
            1230.2
          ],
          [
            813.5,
            1234.2
          ],
          [
            814.2,
            1238.1
          ],
          [
            815.0,
            1242.0
          ],
          [
            815.8,
            1245.9
          ],
          [
            816.6,
            1249.8
          ],
          [
            817.6,
            1253.7
          ],
          [
            818.6,
            1257.5
          ],
          [
            819.7,
            1261.5
          ],
          [
            820.8,
            1265.2
          ],
          [
            822.0,
            1269.1
          ],
          [
            823.2,
            1272.9
          ],
          [
            824.4,
            1276.7
          ],
          [
            825.7,
            1280.5
          ],
          [
            827.0,
            1284.3
          ],
          [
            828.4,
            1288.0
          ],
          [
            829.7,
            1291.8
          ],
          [
            831.1,
            1295.5
          ],
          [
            832.5,
            1299.3
          ],
          [
            834.1,
            1303.0
          ],
          [
            835.6,
            1306.7
          ],
          [
            837.2,
            1310.3
          ],
          [
            838.9,
            1314.0
          ],
          [
            840.5,
            1317.7
          ],
          [
            842.2,
            1321.2
          ],
          [
            844.0,
            1324.8
          ],
          [
            845.6,
            1328.5
          ],
          [
            847.4,
            1332.0
          ],
          [
            849.2,
            1335.7
          ],
          [
            851.0,
            1339.2
          ],
          [
            852.8,
            1342.8
          ],
          [
            854.5,
            1346.4
          ],
          [
            856.4,
            1350.0
          ],
          [
            858.2,
            1353.5
          ],
          [
            860.0,
            1357.0
          ],
          [
            861.9,
            1360.6
          ],
          [
            863.8,
            1364.2
          ],
          [
            865.6,
            1367.7
          ],
          [
            867.5,
            1371.2
          ],
          [
            869.4,
            1374.8
          ],
          [
            871.3,
            1378.2
          ],
          [
            873.2,
            1381.8
          ],
          [
            875.1,
            1385.3
          ],
          [
            877.0,
            1388.8
          ],
          [
            879.0,
            1392.3
          ],
          [
            880.9,
            1395.8
          ],
          [
            882.9,
            1399.3
          ],
          [
            884.8,
            1402.8
          ],
          [
            886.8,
            1406.3
          ],
          [
            888.7,
            1409.8
          ],
          [
            890.6,
            1413.2
          ],
          [
            892.6,
            1416.8
          ],
          [
            894.5,
            1420.2
          ],
          [
            896.5,
            1423.7
          ],
          [
            898.5,
            1427.2
          ],
          [
            900.5,
            1430.7
          ],
          [
            902.5,
            1434.2
          ],
          [
            904.5,
            1437.7
          ],
          [
            906.4,
            1441.1
          ],
          [
            908.4,
            1444.6
          ],
          [
            910.4,
            1448.0
          ],
          [
            912.4,
            1451.5
          ],
          [
            914.4,
            1455.0
          ],
          [
            916.4,
            1458.5
          ],
          [
            918.4,
            1461.9
          ],
          [
            920.4,
            1465.4
          ],
          [
            922.4,
            1468.8
          ],
          [
            924.4,
            1472.3
          ],
          [
            926.4,
            1475.8
          ],
          [
            928.4,
            1479.2
          ],
          [
            930.4,
            1482.7
          ],
          [
            932.4,
            1486.2
          ],
          [
            934.4,
            1489.6
          ],
          [
            936.4,
            1493.0
          ],
          [
            938.5,
            1496.5
          ],
          [
            940.5,
            1500.0
          ],
          [
            942.5,
            1503.5
          ],
          [
            944.4,
            1507.0
          ],
          [
            946.4,
            1510.4
          ],
          [
            948.4,
            1513.8
          ],
          [
            950.4,
            1517.3
          ],
          [
            952.4,
            1520.8
          ],
          [
            954.3,
            1524.3
          ],
          [
            956.2,
            1527.8
          ],
          [
            958.1,
            1531.3
          ],
          [
            958.6,
            1532.1
          ]
        ]
      },
      "properties": {
        "id": "gameplay.path.0",
        "name": "gameplay.path.0",
        "category": "gameplay",
        "kind": "enemy_path",
        "layer": 75,
        "playable": true,
        "insidePlayArea": true,
        "pathIndex": 0,
        "widthPx": 140.0
      }
    },
    {
      "type": "Feature",
      "id": "gameplay.entry.0",
      "geometry": {
        "type": "Point",
        "coordinates": [
          536.6,
          516.4
        ]
      },
      "properties": {
        "id": "gameplay.entry.0",
        "name": "gameplay.entry.0",
        "category": "gameplay",
        "kind": "spawn_point",
        "layer": 75,
        "playable": true,
        "insidePlayArea": true,
        "pathIndex": 0
      }
    },
    {
      "type": "Feature",
      "id": "gameplay.path.1",
      "geometry": {
        "type": "LineString",
        "coordinates": [
          [
            2345.2,
            516.4
          ],
          [
            2341.7,
            518.2
          ],
          [
            2338.1,
            520.0
          ],
          [
            2334.5,
            521.8
          ],
          [
            2330.9,
            523.5
          ],
          [
            2327.3,
            525.3
          ],
          [
            2323.7,
            527.0
          ],
          [
            2320.1,
            528.8
          ],
          [
            2316.5,
            530.5
          ],
          [
            2312.9,
            532.2
          ],
          [
            2309.3,
            534.0
          ],
          [
            2305.7,
            535.8
          ],
          [
            2302.1,
            537.5
          ],
          [
            2298.5,
            539.2
          ],
          [
            2294.9,
            541.0
          ],
          [
            2291.3,
            542.8
          ],
          [
            2287.8,
            544.5
          ],
          [
            2284.2,
            546.3
          ],
          [
            2280.6,
            548.2
          ],
          [
            2277.0,
            550.0
          ],
          [
            2273.4,
            551.8
          ],
          [
            2269.9,
            553.6
          ],
          [
            2266.3,
            555.5
          ],
          [
            2262.8,
            557.3
          ],
          [
            2259.3,
            559.2
          ],
          [
            2255.8,
            561.1
          ],
          [
            2252.2,
            563.0
          ],
          [
            2248.8,
            565.0
          ],
          [
            2245.2,
            567.0
          ],
          [
            2241.8,
            568.9
          ],
          [
            2238.3,
            571.0
          ],
          [
            2234.9,
            573.0
          ],
          [
            2231.5,
            575.0
          ],
          [
            2228.1,
            577.2
          ],
          [
            2224.7,
            579.3
          ],
          [
            2221.4,
            581.5
          ],
          [
            2218.1,
            583.8
          ],
          [
            2214.8,
            586.1
          ],
          [
            2211.6,
            588.5
          ],
          [
            2208.3,
            590.8
          ],
          [
            2205.2,
            593.2
          ],
          [
            2201.9,
            595.6
          ],
          [
            2198.8,
            598.0
          ],
          [
            2195.6,
            600.5
          ],
          [
            2192.4,
            603.0
          ],
          [
            2189.3,
            605.4
          ],
          [
            2186.2,
            608.0
          ],
          [
            2183.2,
            610.5
          ],
          [
            2180.1,
            613.1
          ],
          [
            2177.1,
            615.8
          ],
          [
            2174.1,
            618.4
          ],
          [
            2171.2,
            621.1
          ],
          [
            2168.2,
            623.8
          ],
          [
            2165.4,
            626.7
          ],
          [
            2162.6,
            629.5
          ],
          [
            2159.8,
            632.3
          ],
          [
            2157.1,
            635.3
          ],
          [
            2154.4,
            638.2
          ],
          [
            2151.8,
            641.2
          ],
          [
            2149.2,
            644.3
          ],
          [
            2146.7,
            647.5
          ],
          [
            2144.2,
            650.6
          ],
          [
            2141.8,
            653.8
          ],
          [
            2139.4,
            657.0
          ],
          [
            2137.1,
            660.3
          ],
          [
            2134.8,
            663.6
          ],
          [
            2132.7,
            666.9
          ],
          [
            2130.6,
            670.3
          ],
          [
            2128.4,
            673.8
          ],
          [
            2126.4,
            677.2
          ],
          [
            2124.5,
            680.7
          ],
          [
            2122.7,
            684.2
          ],
          [
            2120.8,
            687.8
          ],
          [
            2119.1,
            691.3
          ],
          [
            2117.3,
            695.0
          ],
          [
            2115.7,
            698.7
          ],
          [
            2114.1,
            702.3
          ],
          [
            2112.5,
            706.0
          ],
          [
            2111.0,
            709.7
          ],
          [
            2109.5,
            713.4
          ],
          [
            2108.1,
            717.1
          ],
          [
            2106.6,
            720.8
          ],
          [
            2105.2,
            724.6
          ],
          [
            2103.8,
            728.3
          ],
          [
            2102.5,
            732.1
          ],
          [
            2101.2,
            735.9
          ],
          [
            2099.9,
            739.7
          ],
          [
            2098.6,
            743.5
          ],
          [
            2097.3,
            747.2
          ],
          [
            2096.2,
            751.0
          ],
          [
            2094.9,
            754.9
          ],
          [
            2093.7,
            758.7
          ],
          [
            2092.5,
            762.5
          ],
          [
            2091.3,
            766.3
          ],
          [
            2090.1,
            770.2
          ],
          [
            2088.9,
            774.0
          ],
          [
            2087.8,
            777.8
          ],
          [
            2086.6,
            781.6
          ],
          [
            2085.4,
            785.5
          ],
          [
            2084.3,
            789.3
          ],
          [
            2083.1,
            793.1
          ],
          [
            2081.9,
            797.0
          ],
          [
            2080.8,
            800.8
          ],
          [
            2079.6,
            804.6
          ],
          [
            2078.4,
            808.4
          ],
          [
            2077.2,
            812.2
          ],
          [
            2075.9,
            816.0
          ],
          [
            2074.7,
            819.8
          ],
          [
            2073.4,
            823.6
          ],
          [
            2072.1,
            827.3
          ],
          [
            2070.8,
            831.2
          ],
          [
            2069.4,
            834.9
          ],
          [
            2068.1,
            838.7
          ],
          [
            2066.8,
            842.5
          ],
          [
            2065.4,
            846.2
          ],
          [
            2064.1,
            850.0
          ],
          [
            2062.7,
            853.8
          ],
          [
            2061.3,
            857.5
          ],
          [
            2060.1,
            861.3
          ],
          [
            2058.8,
            865.1
          ],
          [
            2057.4,
            868.8
          ],
          [
            2056.2,
            872.7
          ],
          [
            2055.0,
            876.5
          ],
          [
            2053.8,
            880.3
          ],
          [
            2052.7,
            884.1
          ],
          [
            2051.6,
            888.0
          ],
          [
            2050.5,
            891.8
          ],
          [
            2049.5,
            895.7
          ],
          [
            2048.6,
            899.6
          ],
          [
            2047.7,
            903.5
          ],
          [
            2046.8,
            907.4
          ],
          [
            2046.1,
            911.3
          ],
          [
            2045.4,
            915.3
          ],
          [
            2044.9,
            919.2
          ],
          [
            2044.4,
            923.2
          ],
          [
            2044.1,
            927.2
          ],
          [
            2043.8,
            931.2
          ],
          [
            2043.6,
            935.2
          ],
          [
            2043.6,
            939.2
          ],
          [
            2043.6,
            943.2
          ],
          [
            2043.8,
            947.2
          ],
          [
            2044.2,
            951.2
          ],
          [
            2044.6,
            955.2
          ],
          [
            2045.2,
            959.1
          ],
          [
            2045.8,
            963.0
          ],
          [
            2046.6,
            967.0
          ],
          [
            2047.4,
            970.8
          ],
          [
            2048.4,
            974.8
          ],
          [
            2049.5,
            978.6
          ],
          [
            2050.6,
            982.5
          ],
          [
            2051.8,
            986.2
          ],
          [
            2053.1,
            990.0
          ],
          [
            2054.4,
            993.8
          ],
          [
            2055.8,
            997.6
          ],
          [
            2057.2,
            1001.3
          ],
          [
            2058.7,
            1005.0
          ],
          [
            2060.2,
            1008.8
          ],
          [
            2061.8,
            1012.4
          ],
          [
            2063.3,
            1016.1
          ],
          [
            2064.9,
            1019.8
          ],
          [
            2066.6,
            1023.4
          ],
          [
            2068.3,
            1027.0
          ],
          [
            2069.9,
            1030.7
          ],
          [
            2071.7,
            1034.2
          ],
          [
            2073.4,
            1037.9
          ],
          [
            2075.2,
            1041.5
          ],
          [
            2076.8,
            1045.1
          ],
          [
            2078.6,
            1048.7
          ],
          [
            2080.3,
            1052.3
          ],
          [
            2082.1,
            1055.9
          ],
          [
            2083.8,
            1059.5
          ],
          [
            2085.6,
            1063.1
          ],
          [
            2087.3,
            1066.7
          ],
          [
            2089.0,
            1070.3
          ],
          [
            2090.7,
            1074.0
          ],
          [
            2092.3,
            1077.6
          ],
          [
            2094.0,
            1081.2
          ],
          [
            2095.6,
            1084.9
          ],
          [
            2097.2,
            1088.5
          ],
          [
            2098.8,
            1092.2
          ],
          [
            2100.5,
            1095.8
          ],
          [
            2102.2,
            1099.5
          ],
          [
            2103.8,
            1103.1
          ],
          [
            2105.6,
            1106.7
          ],
          [
            2107.3,
            1110.3
          ],
          [
            2109.0,
            1114.0
          ],
          [
            2110.8,
            1117.5
          ],
          [
            2112.6,
            1121.2
          ],
          [
            2114.3,
            1124.7
          ],
          [
            2116.1,
            1128.3
          ],
          [
            2117.8,
            1131.9
          ],
          [
            2119.7,
            1135.5
          ],
          [
            2121.4,
            1139.0
          ],
          [
            2123.3,
            1142.6
          ],
          [
            2125.1,
            1146.2
          ],
          [
            2126.9,
            1149.7
          ],
          [
            2128.8,
            1153.2
          ],
          [
            2130.6,
            1156.8
          ],
          [
            2132.4,
            1160.3
          ],
          [
            2134.2,
            1163.9
          ],
          [
            2136.1,
            1167.5
          ],
          [
            2137.9,
            1171.0
          ],
          [
            2139.8,
            1174.5
          ],
          [
            2141.7,
            1178.1
          ],
          [
            2143.5,
            1181.7
          ],
          [
            2145.3,
            1185.2
          ],
          [
            2147.2,
            1188.8
          ],
          [
            2149.1,
            1192.3
          ],
          [
            2150.9,
            1195.8
          ],
          [
            2152.7,
            1199.4
          ],
          [
            2154.6,
            1203.0
          ],
          [
            2156.4,
            1206.5
          ],
          [
            2158.2,
            1210.1
          ],
          [
            2160.0,
            1213.7
          ],
          [
            2161.8,
            1217.2
          ],
          [
            2163.6,
            1220.8
          ],
          [
            2165.4,
            1224.3
          ],
          [
            2167.2,
            1228.0
          ],
          [
            2169.2,
            1231.5
          ],
          [
            2171.1,
            1235.0
          ],
          [
            2173.0,
            1238.5
          ],
          [
            2175.0,
            1242.0
          ],
          [
            2177.0,
            1245.4
          ],
          [
            2179.0,
            1248.8
          ],
          [
            2181.1,
            1252.3
          ],
          [
            2183.1,
            1255.7
          ],
          [
            2185.2,
            1259.2
          ],
          [
            2187.2,
            1262.5
          ],
          [
            2189.3,
            1266.0
          ],
          [
            2191.4,
            1269.4
          ],
          [
            2193.4,
            1272.8
          ],
          [
            2195.6,
            1276.2
          ],
          [
            2197.6,
            1279.7
          ],
          [
            2199.7,
            1283.1
          ],
          [
            2201.7,
            1286.5
          ],
          [
            2203.7,
            1290.0
          ],
          [
            2205.7,
            1293.5
          ],
          [
            2207.7,
            1297.0
          ],
          [
            2209.6,
            1300.5
          ],
          [
            2211.5,
            1304.0
          ],
          [
            2213.3,
            1307.5
          ],
          [
            2215.2,
            1311.1
          ],
          [
            2216.9,
            1314.7
          ],
          [
            2218.7,
            1318.3
          ],
          [
            2220.3,
            1322.0
          ],
          [
            2221.9,
            1325.6
          ],
          [
            2223.5,
            1329.2
          ],
          [
            2224.9,
            1333.0
          ],
          [
            2226.3,
            1336.8
          ],
          [
            2227.7,
            1340.5
          ],
          [
            2228.9,
            1344.3
          ],
          [
            2230.2,
            1348.1
          ],
          [
            2231.2,
            1352.0
          ],
          [
            2232.2,
            1355.8
          ],
          [
            2233.2,
            1359.8
          ],
          [
            2233.9,
            1363.7
          ],
          [
            2234.7,
            1367.6
          ],
          [
            2235.3,
            1371.5
          ],
          [
            2235.8,
            1375.5
          ],
          [
            2236.3,
            1379.5
          ],
          [
            2236.8,
            1383.5
          ],
          [
            2237.1,
            1387.5
          ],
          [
            2237.4,
            1391.4
          ],
          [
            2237.7,
            1395.4
          ],
          [
            2237.8,
            1399.4
          ],
          [
            2238.1,
            1403.4
          ],
          [
            2238.2,
            1407.4
          ],
          [
            2238.2,
            1411.4
          ],
          [
            2238.3,
            1415.4
          ],
          [
            2238.3,
            1419.4
          ],
          [
            2238.3,
            1423.4
          ],
          [
            2238.3,
            1427.4
          ],
          [
            2238.2,
            1431.4
          ],
          [
            2238.2,
            1435.4
          ],
          [
            2238.1,
            1439.4
          ],
          [
            2237.9,
            1443.4
          ],
          [
            2237.8,
            1447.4
          ],
          [
            2237.7,
            1451.4
          ],
          [
            2237.5,
            1455.4
          ],
          [
            2237.3,
            1459.4
          ],
          [
            2237.1,
            1463.4
          ],
          [
            2236.9,
            1467.3
          ],
          [
            2236.7,
            1471.3
          ],
          [
            2236.4,
            1475.3
          ],
          [
            2236.2,
            1479.3
          ],
          [
            2235.9,
            1483.3
          ],
          [
            2235.7,
            1487.3
          ],
          [
            2235.4,
            1491.3
          ],
          [
            2235.2,
            1495.3
          ],
          [
            2234.9,
            1499.3
          ],
          [
            2234.7,
            1503.3
          ],
          [
            2234.4,
            1507.3
          ],
          [
            2234.2,
            1511.3
          ],
          [
            2233.9,
            1515.3
          ],
          [
            2233.7,
            1519.2
          ],
          [
            2233.4,
            1523.2
          ],
          [
            2233.3,
            1527.2
          ],
          [
            2233.2,
            1531.2
          ],
          [
            2233.2,
            1532.1
          ]
        ]
      },
      "properties": {
        "id": "gameplay.path.1",
        "name": "gameplay.path.1",
        "category": "gameplay",
        "kind": "enemy_path",
        "layer": 75,
        "playable": true,
        "insidePlayArea": true,
        "pathIndex": 1,
        "widthPx": 140.0
      }
    },
    {
      "type": "Feature",
      "id": "gameplay.entry.1",
      "geometry": {
        "type": "Point",
        "coordinates": [
          2345.2,
          516.4
        ]
      },
      "properties": {
        "id": "gameplay.entry.1",
        "name": "gameplay.entry.1",
        "category": "gameplay",
        "kind": "spawn_point",
        "layer": 75,
        "playable": true,
        "insidePlayArea": true,
        "pathIndex": 1
      }
    },
    {
      "type": "Feature",
      "id": "gameplay.exit.0",
      "geometry": {
        "type": "Point",
        "coordinates": [
          958.6,
          1532.1
        ]
      },
      "properties": {
        "id": "gameplay.exit.0",
        "name": "gameplay.exit.0",
        "category": "gameplay",
        "kind": "goal_point",
        "layer": 75,
        "playable": true,
        "insidePlayArea": true,
        "pathIndexes": [
          0
        ]
      }
    },
    {
      "type": "Feature",
      "id": "gameplay.exit.1",
      "geometry": {
        "type": "Point",
        "coordinates": [
          2233.2,
          1532.1
        ]
      },
      "properties": {
        "id": "gameplay.exit.1",
        "name": "gameplay.exit.1",
        "category": "gameplay",
        "kind": "goal_point",
        "layer": 75,
        "playable": true,
        "insidePlayArea": true,
        "pathIndexes": [
          1
        ]
      }
    },
    {
      "type": "Feature",
      "id": "gameplay.tower_slot.1",
      "geometry": {
        "type": "Point",
        "coordinates": [
          2221.2,
          1044.9
        ]
      },
      "properties": {
        "id": "gameplay.tower_slot.1",
        "name": "gameplay.tower_slot.1",
        "category": "gameplay",
        "kind": "tower_slot",
        "layer": 75,
        "playable": true,
        "insidePlayArea": true,
        "slotIndex": 0,
        "slotNumber": 1
      }
    },
    {
      "type": "Feature",
      "id": "gameplay.tower_slot.2",
      "geometry": {
        "type": "Point",
        "coordinates": [
          2334.8,
          1205.0
        ]
      },
      "properties": {
        "id": "gameplay.tower_slot.2",
        "name": "gameplay.tower_slot.2",
        "category": "gameplay",
        "kind": "tower_slot",
        "layer": 75,
        "playable": true,
        "insidePlayArea": true,
        "slotIndex": 1,
        "slotNumber": 2
      }
    },
    {
      "type": "Feature",
      "id": "gameplay.tower_slot.3",
      "geometry": {
        "type": "Point",
        "coordinates": [
          872.5,
          1170.6
        ]
      },
      "properties": {
        "id": "gameplay.tower_slot.3",
        "name": "gameplay.tower_slot.3",
        "category": "gameplay",
        "kind": "tower_slot",
        "layer": 75,
        "playable": true,
        "insidePlayArea": true,
        "slotIndex": 2,
        "slotNumber": 3
      }
    },
    {
      "type": "Feature",
      "id": "gameplay.tower_slot.4",
      "geometry": {
        "type": "Point",
        "coordinates": [
          1888.8,
          807.3
        ]
      },
      "properties": {
        "id": "gameplay.tower_slot.4",
        "name": "gameplay.tower_slot.4",
        "category": "gameplay",
        "kind": "tower_slot",
        "layer": 75,
        "playable": true,
        "insidePlayArea": true,
        "slotIndex": 3,
        "slotNumber": 4
      }
    },
    {
      "type": "Feature",
      "id": "gameplay.tower_slot.5",
      "geometry": {
        "type": "Point",
        "coordinates": [
          1921.5,
          1043.2
        ]
      },
      "properties": {
        "id": "gameplay.tower_slot.5",
        "name": "gameplay.tower_slot.5",
        "category": "gameplay",
        "kind": "tower_slot",
        "layer": 75,
        "playable": true,
        "insidePlayArea": true,
        "slotIndex": 4,
        "slotNumber": 5
      }
    },
    {
      "type": "Feature",
      "id": "gameplay.tower_slot.6",
      "geometry": {
        "type": "Point",
        "coordinates": [
          717.5,
          750.5
        ]
      },
      "properties": {
        "id": "gameplay.tower_slot.6",
        "name": "gameplay.tower_slot.6",
        "category": "gameplay",
        "kind": "tower_slot",
        "layer": 75,
        "playable": true,
        "insidePlayArea": true,
        "slotIndex": 5,
        "slotNumber": 6
      }
    },
    {
      "type": "Feature",
      "id": "gameplay.tower_slot.7",
      "geometry": {
        "type": "Point",
        "coordinates": [
          987.9,
          1349.7
        ]
      },
      "properties": {
        "id": "gameplay.tower_slot.7",
        "name": "gameplay.tower_slot.7",
        "category": "gameplay",
        "kind": "tower_slot",
        "layer": 75,
        "playable": true,
        "insidePlayArea": true,
        "slotIndex": 6,
        "slotNumber": 7
      }
    },
    {
      "type": "Feature",
      "id": "gameplay.tower_slot.8",
      "geometry": {
        "type": "Point",
        "coordinates": [
          2217.8,
          705.8
        ]
      },
      "properties": {
        "id": "gameplay.tower_slot.8",
        "name": "gameplay.tower_slot.8",
        "category": "gameplay",
        "kind": "tower_slot",
        "layer": 75,
        "playable": true,
        "insidePlayArea": true,
        "slotIndex": 7,
        "slotNumber": 8
      }
    },
    {
      "type": "Feature",
      "id": "gameplay.tower_slot.9",
      "geometry": {
        "type": "Point",
        "coordinates": [
          1377.2,
          807.3
        ]
      },
      "properties": {
        "id": "gameplay.tower_slot.9",
        "name": "gameplay.tower_slot.9",
        "category": "gameplay",
        "kind": "tower_slot",
        "layer": 75,
        "playable": true,
        "insidePlayArea": true,
        "slotIndex": 8,
        "slotNumber": 9
      }
    },
    {
      "type": "Feature",
      "id": "gameplay.tower_slot.10",
      "geometry": {
        "type": "Point",
        "coordinates": [
          777.8,
          1354.8
        ]
      },
      "properties": {
        "id": "gameplay.tower_slot.10",
        "name": "gameplay.tower_slot.10",
        "category": "gameplay",
        "kind": "tower_slot",
        "layer": 75,
        "playable": true,
        "insidePlayArea": true,
        "slotIndex": 9,
        "slotNumber": 10
      }
    },
    {
      "type": "Feature",
      "id": "gameplay.call_wave_button.0",
      "geometry": {
        "type": "Point",
        "coordinates": [
          1187.5,
          642.5
        ]
      },
      "properties": {
        "id": "gameplay.call_wave_button.0",
        "name": "gameplay.call_wave_button.0",
        "category": "gameplay",
        "kind": "call_wave_button",
        "layer": 100,
        "playable": true,
        "insidePlayArea": true,
        "pathIndices": [
          0
        ]
      }
    },
    {
      "type": "Feature",
      "id": "gameplay.call_wave_button.1",
      "geometry": {
        "type": "Point",
        "coordinates": [
          2149.2,
          644.3
        ]
      },
      "properties": {
        "id": "gameplay.call_wave_button.1",
        "name": "gameplay.call_wave_button.1",
        "category": "gameplay",
        "kind": "call_wave_button",
        "layer": 100,
        "playable": true,
        "insidePlayArea": true,
        "pathIndices": [
          1
        ]
      }
    },
    {
      "type": "Feature",
      "id": "gameplay.hero_spawn.primary",
      "geometry": {
        "type": "Point",
        "coordinates": [
          892.8764488407514,
          1263.4273589798686
        ]
      },
      "properties": {
        "id": "gameplay.hero_spawn.primary",
        "name": "Primary hero start",
        "category": "gameplay",
        "kind": "hero_spawn",
        "layer": 75,
        "playable": true,
        "insidePlayArea": true,
        "heroRoles": [
          "primary"
        ]
      }
    },
    {
      "type": "Feature",
      "id": "gameplay.hero_spawn.secondary",
      "geometry": {
        "type": "Point",
        "coordinates": [
          2169.2061095273652,
          1430.4818075092312
        ]
      },
      "properties": {
        "id": "gameplay.hero_spawn.secondary",
        "name": "Secondary hero start",
        "category": "gameplay",
        "kind": "hero_spawn",
        "layer": 75,
        "playable": true,
        "insidePlayArea": true,
        "heroRoles": [
          "secondary"
        ]
      }
    }
  ],
  "heroCount": 2
}
