{
  "type": "FeatureCollection",
  "name": "level_012_kettle_creek",
  "coordinateReferenceSystem": {
    "type": "local-cartesian",
    "note": "NOT WGS84. Canonical game units, lower-left origin, +y up.",
    "canvas": {
      "width": 2868.0,
      "height": 2064.0
    },
    "playArea": {
      "x": 474.0,
      "y": 492.0,
      "width": 1920.0,
      "height": 1080.0
    }
  },
  "metadata": {
    "level": 12,
    "levelId": "33d900c6-c6ff-409a-973b-f09ddc8a6f6a",
    "levelName": "Kettle Creek",
    "status": "production",
    "historicalLayoutUsed": false,
    "topology": "four maximally spaced edge routes merge only into two shared left exit tails",
    "enemyPathCount": 4,
    "uniqueEntranceCount": 4,
    "uniqueExitCount": 2,
    "pathCoverageOfAvailableArea": 0.501672,
    "pathCoverageOfPlayRect": 0.430789,
    "towerSlotCount": 12,
    "geometryAuthority": "virtual_canvas database row"
  },
  "features": [
    {
      "type": "Feature",
      "id": "boundary.canvas",
      "geometry": {
        "type": "Polygon",
        "coordinates": [
          [
            [
              0,
              0
            ],
            [
              2868,
              0
            ],
            [
              2868,
              2064
            ],
            [
              0,
              2064
            ],
            [
              0,
              0
            ]
          ]
        ]
      },
      "properties": {
        "id": "boundary.canvas",
        "name": "Virtual canvas",
        "category": "boundary",
        "kind": "canvas",
        "layer": 0
      }
    },
    {
      "type": "Feature",
      "id": "boundary.play_area",
      "geometry": {
        "type": "Polygon",
        "coordinates": [
          [
            [
              474.0,
              492.0
            ],
            [
              2394.0,
              492.0
            ],
            [
              2394.0,
              1572.0
            ],
            [
              474.0,
              1572.0
            ],
            [
              474.0,
              492.0
            ]
          ]
        ]
      },
      "properties": {
        "id": "boundary.play_area",
        "name": "Valid play area",
        "category": "boundary",
        "kind": "play_area",
        "layer": 1
      }
    },
    {
      "type": "Feature",
      "id": "boundary.occlusion.upper_left",
      "geometry": {
        "type": "Polygon",
        "coordinates": [
          [
            [
              474.0,
              1366.8000000000002
            ],
            [
              1050.0,
              1366.8000000000002
            ],
            [
              1050.0,
              1572.0000000000002
            ],
            [
              474.0,
              1572.0000000000002
            ],
            [
              474.0,
              1366.8000000000002
            ]
          ]
        ]
      },
      "properties": {
        "id": "boundary.occlusion.upper_left",
        "name": "Upper Left occlusion",
        "category": "boundary",
        "kind": "occlusion",
        "layer": 2,
        "playable": false
      }
    },
    {
      "type": "Feature",
      "id": "boundary.occlusion.upper_right",
      "geometry": {
        "type": "Polygon",
        "coordinates": [
          [
            [
              2106.0,
              1388.4
            ],
            [
              2394.0,
              1388.4
            ],
            [
              2394.0,
              1572.0
            ],
            [
              2106.0,
              1572.0
            ],
            [
              2106.0,
              1388.4
            ]
          ]
        ]
      },
      "properties": {
        "id": "boundary.occlusion.upper_right",
        "name": "Upper Right occlusion",
        "category": "boundary",
        "kind": "occlusion",
        "layer": 2,
        "playable": false
      }
    },
    {
      "type": "Feature",
      "id": "boundary.occlusion.lower_left",
      "geometry": {
        "type": "Polygon",
        "coordinates": [
          [
            [
              474.0,
              492.0
            ],
            [
              969.36,
              492.0
            ],
            [
              969.36,
              675.6
            ],
            [
              474.0,
              675.6
            ],
            [
              474.0,
              492.0
            ]
          ]
        ]
      },
      "properties": {
        "id": "boundary.occlusion.lower_left",
        "name": "Lower Left occlusion",
        "category": "boundary",
        "kind": "occlusion",
        "layer": 2,
        "playable": false
      }
    },
    {
      "type": "Feature",
      "id": "boundary.occlusion.lower_right",
      "geometry": {
        "type": "Polygon",
        "coordinates": [
          [
            [
              2221.2,
              492.0
            ],
            [
              2394.0,
              492.0
            ],
            [
              2394.0,
              675.6
            ],
            [
              2221.2,
              675.6
            ],
            [
              2221.2,
              492.0
            ]
          ]
        ]
      },
      "properties": {
        "id": "boundary.occlusion.lower_right",
        "name": "Lower Right occlusion",
        "category": "boundary",
        "kind": "occlusion",
        "layer": 2,
        "playable": false
      }
    },
    {
      "type": "Feature",
      "id": "gameplay.road.0",
      "geometry": {
        "type": "LineString",
        "coordinates": [
          [
            1500.0,
            1502.0
          ],
          [
            1507.88,
            1500.69
          ],
          [
            1515.73,
            1499.24
          ],
          [
            1523.58,
            1497.73
          ],
          [
            1531.42,
            1496.2
          ],
          [
            1539.26,
            1494.69
          ],
          [
            1547.11,
            1493.19
          ],
          [
            1554.96,
            1491.74
          ],
          [
            1562.82,
            1490.32
          ],
          [
            1570.69,
            1488.96
          ],
          [
            1578.57,
            1487.66
          ],
          [
            1586.46,
            1486.43
          ],
          [
            1594.37,
            1485.27
          ],
          [
            1602.28,
            1484.19
          ],
          [
            1610.21,
            1483.19
          ],
          [
            1618.14,
            1482.31
          ],
          [
            1626.09,
            1481.55
          ],
          [
            1634.06,
            1480.9
          ],
          [
            1642.03,
            1480.38
          ],
          [
            1650.0,
            1480.0
          ],
          [
            1657.99,
            1479.87
          ],
          [
            1665.98,
            1479.92
          ],
          [
            1673.96,
            1480.12
          ],
          [
            1681.94,
            1480.43
          ],
          [
            1689.92,
            1480.89
          ],
          [
            1697.89,
            1481.42
          ],
          [
            1705.85,
            1482.01
          ],
          [
            1713.81,
            1482.67
          ],
          [
            1721.77,
            1483.37
          ],
          [
            1729.72,
            1484.1
          ],
          [
            1737.68,
            1484.84
          ],
          [
            1745.63,
            1485.59
          ],
          [
            1753.58,
            1486.34
          ],
          [
            1761.53,
            1487.08
          ],
          [
            1769.49,
            1487.78
          ],
          [
            1777.45,
            1488.46
          ],
          [
            1785.41,
            1489.09
          ],
          [
            1793.38,
            1489.64
          ],
          [
            1801.35,
            1490.12
          ],
          [
            1809.33,
            1490.52
          ],
          [
            1817.31,
            1490.77
          ],
          [
            1825.3,
            1490.88
          ],
          [
            1833.29,
            1490.83
          ],
          [
            1841.27,
            1490.59
          ],
          [
            1849.24,
            1490.05
          ],
          [
            1857.19,
            1489.27
          ],
          [
            1865.12,
            1488.34
          ],
          [
            1873.03,
            1487.26
          ],
          [
            1880.93,
            1486.04
          ],
          [
            1888.79,
            1484.66
          ],
          [
            1896.63,
            1483.12
          ],
          [
            1904.43,
            1481.42
          ],
          [
            1912.2,
            1479.54
          ],
          [
            1919.91,
            1477.47
          ],
          [
            1927.57,
            1475.2
          ],
          [
            1935.16,
            1472.72
          ],
          [
            1942.67,
            1469.99
          ],
          [
            1950.07,
            1467.0
          ],
          [
            1957.35,
            1463.72
          ],
          [
            1964.47,
            1460.1
          ],
          [
            1971.37,
            1456.08
          ],
          [
            1977.94,
            1451.54
          ],
          [
            1984.04,
            1446.39
          ],
          [
            1989.2,
            1440.31
          ],
          [
            1993.38,
            1433.52
          ],
          [
            1996.56,
            1426.2
          ],
          [
            1998.74,
            1418.52
          ],
          [
            2000.15,
            1410.66
          ],
          [
            2000.9,
            1402.71
          ],
          [
            2001.12,
            1394.73
          ],
          [
            2000.98,
            1386.75
          ],
          [
            2000.58,
            1378.77
          ],
          [
            2000.05,
            1370.8
          ],
          [
            1999.45,
            1362.83
          ],
          [
            1998.61,
            1354.89
          ],
          [
            1997.37,
            1347.0
          ],
          [
            1995.61,
            1339.22
          ],
          [
            1993.17,
            1331.61
          ],
          [
            1989.99,
            1324.3
          ],
          [
            1986.01,
            1317.37
          ],
          [
            1981.25,
            1310.97
          ],
          [
            1975.79,
            1305.14
          ],
          [
            1969.81,
            1299.85
          ],
          [
            1963.41,
            1295.07
          ],
          [
            1956.8,
            1290.6
          ],
          [
            1949.98,
            1286.43
          ],
          [
            1943.01,
            1282.54
          ],
          [
            1935.91,
            1278.89
          ],
          [
            1928.7,
            1275.45
          ],
          [
            1921.4,
            1272.21
          ],
          [
            1914.01,
            1269.17
          ],
          [
            1906.55,
            1266.31
          ],
          [
            1899.03,
            1263.63
          ],
          [
            1891.45,
            1261.1
          ],
          [
            1883.83,
            1258.73
          ],
          [
            1876.15,
            1256.51
          ],
          [
            1868.44,
            1254.43
          ],
          [
            1860.7,
            1252.48
          ],
          [
            1852.92,
            1250.67
          ],
          [
            1845.11,
            1248.97
          ],
          [
            1837.29,
            1247.37
          ],
          [
            1829.45,
            1245.85
          ],
          [
            1821.59,
            1244.41
          ],
          [
            1813.72,
            1243.06
          ],
          [
            1805.83,
            1241.77
          ],
          [
            1797.94,
            1240.54
          ],
          [
            1790.04,
            1239.37
          ],
          [
            1782.13,
            1238.29
          ],
          [
            1774.21,
            1237.26
          ],
          [
            1766.28,
            1236.27
          ],
          [
            1758.34,
            1235.38
          ],
          [
            1750.4,
            1234.53
          ],
          [
            1742.45,
            1233.74
          ],
          [
            1734.5,
            1233.03
          ],
          [
            1726.54,
            1232.38
          ],
          [
            1718.57,
            1231.78
          ],
          [
            1710.6,
            1231.28
          ],
          [
            1702.62,
            1230.84
          ],
          [
            1694.65,
            1230.46
          ],
          [
            1686.66,
            1230.18
          ],
          [
            1678.68,
            1229.98
          ],
          [
            1670.69,
            1229.86
          ],
          [
            1662.7,
            1229.83
          ],
          [
            1654.72,
            1229.93
          ],
          [
            1646.73,
            1230.13
          ],
          [
            1638.75,
            1230.45
          ],
          [
            1630.78,
            1230.99
          ],
          [
            1622.82,
            1231.65
          ],
          [
            1614.87,
            1232.43
          ],
          [
            1606.94,
            1233.34
          ],
          [
            1599.02,
            1234.38
          ],
          [
            1591.11,
            1235.49
          ],
          [
            1583.21,
            1236.69
          ],
          [
            1575.33,
            1237.99
          ],
          [
            1567.46,
            1239.34
          ],
          [
            1559.6,
            1240.73
          ],
          [
            1551.74,
            1242.18
          ],
          [
            1543.89,
            1243.66
          ],
          [
            1536.04,
            1245.16
          ],
          [
            1528.2,
            1246.67
          ],
          [
            1520.36,
            1248.18
          ],
          [
            1512.51,
            1249.68
          ],
          [
            1504.66,
            1251.16
          ],
          [
            1496.81,
            1252.61
          ],
          [
            1488.95,
            1254.01
          ],
          [
            1481.08,
            1255.37
          ],
          [
            1473.19,
            1256.67
          ],
          [
            1465.3,
            1257.88
          ],
          [
            1457.39,
            1259.01
          ],
          [
            1449.47,
            1260.06
          ],
          [
            1441.55,
            1261.04
          ],
          [
            1433.62,
            1262.01
          ],
          [
            1425.69,
            1262.97
          ],
          [
            1417.76,
            1263.9
          ],
          [
            1409.82,
            1264.83
          ],
          [
            1401.89,
            1265.74
          ],
          [
            1393.95,
            1266.64
          ],
          [
            1386.01,
            1267.52
          ],
          [
            1378.07,
            1268.4
          ],
          [
            1370.13,
            1269.25
          ],
          [
            1362.19,
            1270.1
          ],
          [
            1354.24,
            1270.93
          ],
          [
            1346.3,
            1271.74
          ],
          [
            1338.35,
            1272.54
          ],
          [
            1330.4,
            1273.32
          ],
          [
            1322.45,
            1274.09
          ],
          [
            1314.5,
            1274.83
          ],
          [
            1306.54,
            1275.56
          ],
          [
            1298.59,
            1276.27
          ],
          [
            1290.63,
            1276.96
          ],
          [
            1282.67,
            1277.62
          ],
          [
            1274.71,
            1278.25
          ],
          [
            1266.74,
            1278.85
          ],
          [
            1258.78,
            1279.42
          ],
          [
            1250.81,
            1279.95
          ],
          [
            1242.84,
            1280.47
          ],
          [
            1234.87,
            1281.02
          ],
          [
            1226.9,
            1281.59
          ],
          [
            1218.93,
            1282.18
          ],
          [
            1210.97,
            1282.75
          ],
          [
            1203.0,
            1283.31
          ],
          [
            1195.03,
            1283.8
          ],
          [
            1187.05,
            1284.19
          ],
          [
            1179.07,
            1284.46
          ],
          [
            1171.08,
            1284.55
          ],
          [
            1163.1,
            1284.4
          ],
          [
            1155.12,
            1283.95
          ],
          [
            1147.17,
            1283.17
          ],
          [
            1139.28,
            1281.96
          ],
          [
            1131.46,
            1280.33
          ],
          [
            1123.75,
            1278.26
          ],
          [
            1116.18,
            1275.7
          ],
          [
            1108.77,
            1272.74
          ],
          [
            1101.56,
            1269.31
          ],
          [
            1094.52,
            1265.53
          ],
          [
            1087.72,
            1261.35
          ],
          [
            1081.1,
            1256.87
          ],
          [
            1074.71,
            1252.09
          ],
          [
            1068.49,
            1247.08
          ],
          [
            1062.46,
            1241.83
          ],
          [
            1056.59,
            1236.42
          ],
          [
            1050.86,
            1230.85
          ],
          [
            1045.42,
            1225.01
          ],
          [
            1040.39,
            1218.81
          ],
          [
            1035.68,
            1212.36
          ],
          [
            1031.26,
            1205.71
          ],
          [
            1027.02,
            1198.94
          ],
          [
            1022.95,
            1192.07
          ],
          [
            1019.02,
            1185.11
          ],
          [
            1015.19,
            1178.1
          ],
          [
            1011.43,
            1171.06
          ],
          [
            1007.71,
            1163.99
          ],
          [
            1003.95,
            1156.94
          ],
          [
            1000,
            1150
          ],
          [
            992.59,
            1152.68
          ],
          [
            985.23,
            1155.53
          ],
          [
            977.91,
            1158.44
          ],
          [
            970.59,
            1161.38
          ],
          [
            963.27,
            1164.32
          ],
          [
            955.95,
            1167.24
          ],
          [
            948.62,
            1170.13
          ],
          [
            941.27,
            1172.99
          ],
          [
            933.9,
            1175.8
          ],
          [
            926.51,
            1178.55
          ],
          [
            919.1,
            1181.23
          ],
          [
            911.66,
            1183.84
          ],
          [
            904.19,
            1186.37
          ],
          [
            896.69,
            1188.79
          ],
          [
            889.14,
            1191.08
          ],
          [
            881.56,
            1193.24
          ],
          [
            873.94,
            1195.24
          ],
          [
            866.26,
            1197.06
          ],
          [
            858.54,
            1198.64
          ],
          [
            850.75,
            1199.88
          ],
          [
            842.92,
            1200.77
          ],
          [
            835.06,
            1201.33
          ],
          [
            827.18,
            1201.61
          ],
          [
            819.3,
            1201.65
          ],
          [
            811.42,
            1201.48
          ],
          [
            803.54,
            1201.12
          ],
          [
            795.67,
            1200.6
          ],
          [
            787.82,
            1199.95
          ],
          [
            779.97,
            1199.17
          ],
          [
            772.13,
            1198.29
          ],
          [
            764.31,
            1197.35
          ],
          [
            756.49,
            1196.35
          ],
          [
            748.67,
            1195.33
          ],
          [
            740.85,
            1194.29
          ],
          [
            733.03,
            1193.27
          ],
          [
            725.21,
            1192.29
          ],
          [
            717.38,
            1191.4
          ],
          [
            709.53,
            1190.65
          ],
          [
            701.67,
            1190.1
          ],
          [
            693.79,
            1189.75
          ],
          [
            685.91,
            1189.51
          ],
          [
            678.03,
            1189.34
          ],
          [
            670.14,
            1189.27
          ],
          [
            662.26,
            1189.29
          ],
          [
            654.37,
            1189.39
          ],
          [
            646.49,
            1189.56
          ],
          [
            638.61,
            1189.75
          ],
          [
            630.73,
            1189.91
          ],
          [
            622.84,
            1189.99
          ],
          [
            614.96,
            1190.0
          ],
          [
            607.07,
            1190.0
          ],
          [
            599.19,
            1190.0
          ],
          [
            591.31,
            1190.0
          ],
          [
            583.42,
            1190.0
          ],
          [
            575.54,
            1190.0
          ],
          [
            567.65,
            1190.0
          ],
          [
            559.77,
            1190.0
          ],
          [
            551.88,
            1190.0
          ],
          [
            544,
            1190
          ]
        ]
      },
      "properties": {
        "id": "gameplay.road.0",
        "name": "Top approach to upper-left gate",
        "category": "gameplay",
        "kind": "enemy_path",
        "layer": 40,
        "playable": true,
        "insidePlayArea": true,
        "pathIndex": 0,
        "exitIndex": 0,
        "widthPx": 140.0,
        "lengthDesignUnits": 2166.3
      }
    },
    {
      "type": "Feature",
      "id": "gameplay.entry.0",
      "geometry": {
        "type": "Point",
        "coordinates": [
          1500.0,
          1502.0
        ]
      },
      "properties": {
        "id": "gameplay.entry.0",
        "name": "Entrance 1",
        "category": "gameplay",
        "kind": "spawn_point",
        "layer": 75,
        "playable": true,
        "insidePlayArea": true,
        "pathIndex": 0
      }
    },
    {
      "type": "Feature",
      "id": "gameplay.road.1",
      "geometry": {
        "type": "LineString",
        "coordinates": [
          [
            2324.0,
            1290.0
          ],
          [
            2321.23,
            1282.52
          ],
          [
            2318.63,
            1274.98
          ],
          [
            2316.07,
            1267.42
          ],
          [
            2313.5,
            1259.87
          ],
          [
            2310.9,
            1252.32
          ],
          [
            2308.26,
            1244.8
          ],
          [
            2305.55,
            1237.29
          ],
          [
            2302.77,
            1229.82
          ],
          [
            2299.89,
            1222.38
          ],
          [
            2296.91,
            1214.98
          ],
          [
            2293.79,
            1207.63
          ],
          [
            2290.53,
            1200.35
          ],
          [
            2287.08,
            1193.16
          ],
          [
            2283.42,
            1186.07
          ],
          [
            2279.49,
            1179.13
          ],
          [
            2275.43,
            1172.26
          ],
          [
            2271.35,
            1165.4
          ],
          [
            2267.23,
            1158.57
          ],
          [
            2263.04,
            1151.79
          ],
          [
            2258.75,
            1145.06
          ],
          [
            2254.34,
            1138.41
          ],
          [
            2249.78,
            1131.87
          ],
          [
            2245.06,
            1125.43
          ],
          [
            2240.17,
            1119.13
          ],
          [
            2235.09,
            1112.98
          ],
          [
            2229.81,
            1107.0
          ],
          [
            2224.33,
            1101.21
          ],
          [
            2218.63,
            1095.62
          ],
          [
            2212.73,
            1090.25
          ],
          [
            2206.62,
            1085.12
          ],
          [
            2200.31,
            1080.24
          ],
          [
            2193.84,
            1075.57
          ],
          [
            2187.25,
            1071.08
          ],
          [
            2180.56,
            1066.74
          ],
          [
            2173.77,
            1062.54
          ],
          [
            2166.9,
            1058.49
          ],
          [
            2159.95,
            1054.58
          ],
          [
            2152.93,
            1050.79
          ],
          [
            2145.84,
            1047.13
          ],
          [
            2138.69,
            1043.59
          ],
          [
            2131.49,
            1040.16
          ],
          [
            2124.23,
            1036.85
          ],
          [
            2116.91,
            1033.67
          ],
          [
            2109.55,
            1030.6
          ],
          [
            2102.14,
            1027.63
          ],
          [
            2094.7,
            1024.77
          ],
          [
            2087.22,
            1022.0
          ],
          [
            2079.69,
            1019.35
          ],
          [
            2072.13,
            1016.82
          ],
          [
            2064.53,
            1014.38
          ],
          [
            2056.9,
            1012.04
          ],
          [
            2049.25,
            1009.79
          ],
          [
            2041.56,
            1007.67
          ],
          [
            2033.84,
            1005.64
          ],
          [
            2026.11,
            1003.7
          ],
          [
            2018.35,
            1001.83
          ],
          [
            2010.57,
            1000.06
          ],
          [
            2002.77,
            998.38
          ],
          [
            1994.96,
            996.76
          ],
          [
            1987.14,
            995.2
          ],
          [
            1979.29,
            993.75
          ],
          [
            1971.44,
            992.36
          ],
          [
            1963.57,
            991.03
          ],
          [
            1955.69,
            989.78
          ],
          [
            1947.8,
            988.6
          ],
          [
            1939.9,
            987.48
          ],
          [
            1931.99,
            986.44
          ],
          [
            1924.07,
            985.47
          ],
          [
            1916.15,
            984.57
          ],
          [
            1908.21,
            983.73
          ],
          [
            1900.27,
            982.98
          ],
          [
            1892.32,
            982.3
          ],
          [
            1884.37,
            981.68
          ],
          [
            1876.41,
            981.17
          ],
          [
            1868.44,
            980.72
          ],
          [
            1860.47,
            980.35
          ],
          [
            1852.5,
            980.08
          ],
          [
            1844.52,
            979.92
          ],
          [
            1836.55,
            979.86
          ],
          [
            1828.57,
            979.91
          ],
          [
            1820.59,
            980.11
          ],
          [
            1812.62,
            980.39
          ],
          [
            1804.65,
            980.75
          ],
          [
            1796.69,
            981.24
          ],
          [
            1788.73,
            981.81
          ],
          [
            1780.78,
            982.45
          ],
          [
            1772.83,
            983.17
          ],
          [
            1764.9,
            983.97
          ],
          [
            1756.96,
            984.83
          ],
          [
            1749.04,
            985.74
          ],
          [
            1741.12,
            986.72
          ],
          [
            1733.21,
            987.74
          ],
          [
            1725.3,
            988.8
          ],
          [
            1717.4,
            989.9
          ],
          [
            1709.5,
            991.03
          ],
          [
            1701.61,
            992.19
          ],
          [
            1693.72,
            993.36
          ],
          [
            1685.83,
            994.55
          ],
          [
            1677.94,
            995.75
          ],
          [
            1670.06,
            996.96
          ],
          [
            1662.17,
            998.16
          ],
          [
            1654.28,
            999.35
          ],
          [
            1646.4,
            1000.59
          ],
          [
            1638.53,
            1001.88
          ],
          [
            1630.69,
            1003.35
          ],
          [
            1622.86,
            1004.92
          ],
          [
            1615.06,
            1006.56
          ],
          [
            1607.27,
            1008.31
          ],
          [
            1599.51,
            1010.13
          ],
          [
            1591.75,
            1012.0
          ],
          [
            1584.0,
            1013.91
          ],
          [
            1576.27,
            1015.86
          ],
          [
            1568.53,
            1017.81
          ],
          [
            1560.8,
            1019.78
          ],
          [
            1553.07,
            1021.73
          ],
          [
            1545.32,
            1023.65
          ],
          [
            1537.57,
            1025.55
          ],
          [
            1529.81,
            1027.39
          ],
          [
            1522.03,
            1029.17
          ],
          [
            1514.24,
            1030.87
          ],
          [
            1506.43,
            1032.5
          ],
          [
            1498.59,
            1033.98
          ],
          [
            1490.74,
            1035.37
          ],
          [
            1482.86,
            1036.64
          ],
          [
            1474.95,
            1037.71
          ],
          [
            1467.03,
            1038.62
          ],
          [
            1459.09,
            1039.37
          ],
          [
            1451.13,
            1039.92
          ],
          [
            1443.16,
            1040.2
          ],
          [
            1435.18,
            1040.31
          ],
          [
            1427.2,
            1040.24
          ],
          [
            1419.23,
            1039.93
          ],
          [
            1411.27,
            1039.49
          ],
          [
            1403.31,
            1038.95
          ],
          [
            1395.36,
            1038.24
          ],
          [
            1387.42,
            1037.43
          ],
          [
            1379.49,
            1036.56
          ],
          [
            1371.58,
            1035.57
          ],
          [
            1363.67,
            1034.53
          ],
          [
            1355.77,
            1033.44
          ],
          [
            1347.87,
            1032.29
          ],
          [
            1339.98,
            1031.12
          ],
          [
            1332.09,
            1029.92
          ],
          [
            1324.21,
            1028.71
          ],
          [
            1316.32,
            1027.51
          ],
          [
            1308.43,
            1026.33
          ],
          [
            1300.54,
            1025.17
          ],
          [
            1292.63,
            1024.07
          ],
          [
            1284.72,
            1023.04
          ],
          [
            1276.8,
            1022.09
          ],
          [
            1268.87,
            1021.25
          ],
          [
            1260.92,
            1020.6
          ],
          [
            1252.95,
            1020.15
          ],
          [
            1244.98,
            1019.86
          ],
          [
            1237.01,
            1019.66
          ],
          [
            1229.03,
            1019.52
          ],
          [
            1221.05,
            1019.45
          ],
          [
            1213.07,
            1019.46
          ],
          [
            1205.1,
            1019.57
          ],
          [
            1197.12,
            1019.8
          ],
          [
            1189.15,
            1020.16
          ],
          [
            1181.19,
            1020.68
          ],
          [
            1173.25,
            1021.41
          ],
          [
            1165.33,
            1022.34
          ],
          [
            1157.43,
            1023.5
          ],
          [
            1149.59,
            1024.96
          ],
          [
            1141.81,
            1026.71
          ],
          [
            1134.1,
            1028.77
          ],
          [
            1126.5,
            1031.2
          ],
          [
            1119.07,
            1034.1
          ],
          [
            1111.88,
            1037.54
          ],
          [
            1104.95,
            1041.49
          ],
          [
            1098.3,
            1045.9
          ],
          [
            1091.94,
            1050.71
          ],
          [
            1085.82,
            1055.83
          ],
          [
            1079.89,
            1061.16
          ],
          [
            1074.08,
            1066.63
          ],
          [
            1068.32,
            1072.14
          ],
          [
            1062.53,
            1077.64
          ],
          [
            1056.73,
            1083.11
          ],
          [
            1051.13,
            1088.79
          ],
          [
            1045.69,
            1094.63
          ],
          [
            1040.38,
            1100.58
          ],
          [
            1035.18,
            1106.63
          ],
          [
            1030.05,
            1112.74
          ],
          [
            1024.99,
            1118.91
          ],
          [
            1019.98,
            1125.12
          ],
          [
            1015.0,
            1131.35
          ],
          [
            1010.04,
            1137.6
          ],
          [
            1005.06,
            1143.83
          ],
          [
            1000,
            1150
          ],
          [
            992.59,
            1152.68
          ],
          [
            985.23,
            1155.53
          ],
          [
            977.91,
            1158.44
          ],
          [
            970.59,
            1161.38
          ],
          [
            963.27,
            1164.32
          ],
          [
            955.95,
            1167.24
          ],
          [
            948.62,
            1170.13
          ],
          [
            941.27,
            1172.99
          ],
          [
            933.9,
            1175.8
          ],
          [
            926.51,
            1178.55
          ],
          [
            919.1,
            1181.23
          ],
          [
            911.66,
            1183.84
          ],
          [
            904.19,
            1186.37
          ],
          [
            896.69,
            1188.79
          ],
          [
            889.14,
            1191.08
          ],
          [
            881.56,
            1193.24
          ],
          [
            873.94,
            1195.24
          ],
          [
            866.26,
            1197.06
          ],
          [
            858.54,
            1198.64
          ],
          [
            850.75,
            1199.88
          ],
          [
            842.92,
            1200.77
          ],
          [
            835.06,
            1201.33
          ],
          [
            827.18,
            1201.61
          ],
          [
            819.3,
            1201.65
          ],
          [
            811.42,
            1201.48
          ],
          [
            803.54,
            1201.12
          ],
          [
            795.67,
            1200.6
          ],
          [
            787.82,
            1199.95
          ],
          [
            779.97,
            1199.17
          ],
          [
            772.13,
            1198.29
          ],
          [
            764.31,
            1197.35
          ],
          [
            756.49,
            1196.35
          ],
          [
            748.67,
            1195.33
          ],
          [
            740.85,
            1194.29
          ],
          [
            733.03,
            1193.27
          ],
          [
            725.21,
            1192.29
          ],
          [
            717.38,
            1191.4
          ],
          [
            709.53,
            1190.65
          ],
          [
            701.67,
            1190.1
          ],
          [
            693.79,
            1189.75
          ],
          [
            685.91,
            1189.51
          ],
          [
            678.03,
            1189.34
          ],
          [
            670.14,
            1189.27
          ],
          [
            662.26,
            1189.29
          ],
          [
            654.37,
            1189.39
          ],
          [
            646.49,
            1189.56
          ],
          [
            638.61,
            1189.75
          ],
          [
            630.73,
            1189.91
          ],
          [
            622.84,
            1189.99
          ],
          [
            614.96,
            1190.0
          ],
          [
            607.07,
            1190.0
          ],
          [
            599.19,
            1190.0
          ],
          [
            591.31,
            1190.0
          ],
          [
            583.42,
            1190.0
          ],
          [
            575.54,
            1190.0
          ],
          [
            567.65,
            1190.0
          ],
          [
            559.77,
            1190.0
          ],
          [
            551.88,
            1190.0
          ],
          [
            544,
            1190
          ]
        ]
      },
      "properties": {
        "id": "gameplay.road.1",
        "name": "Upper-right approach to upper-left gate",
        "category": "gameplay",
        "kind": "enemy_path",
        "layer": 40,
        "playable": true,
        "insidePlayArea": true,
        "pathIndex": 1,
        "exitIndex": 0,
        "widthPx": 140.0,
        "lengthDesignUnits": 1988.9
      }
    },
    {
      "type": "Feature",
      "id": "gameplay.entry.1",
      "geometry": {
        "type": "Point",
        "coordinates": [
          2324.0,
          1290.0
        ]
      },
      "properties": {
        "id": "gameplay.entry.1",
        "name": "Entrance 2",
        "category": "gameplay",
        "kind": "spawn_point",
        "layer": 75,
        "playable": true,
        "insidePlayArea": true,
        "pathIndex": 1
      }
    },
    {
      "type": "Feature",
      "id": "gameplay.road.2",
      "geometry": {
        "type": "LineString",
        "coordinates": [
          [
            1500.0,
            562.0
          ],
          [
            1502.43,
            569.5
          ],
          [
            1505.62,
            576.75
          ],
          [
            1508.53,
            584.12
          ],
          [
            1510.61,
            591.75
          ],
          [
            1510.84,
            599.63
          ],
          [
            1507.09,
            606.43
          ],
          [
            1500.09,
            609.97
          ],
          [
            1492.27,
            611.16
          ],
          [
            1484.36,
            611.55
          ],
          [
            1476.44,
            611.47
          ],
          [
            1468.53,
            611.1
          ],
          [
            1460.62,
            610.55
          ],
          [
            1452.73,
            609.88
          ],
          [
            1444.85,
            609.1
          ],
          [
            1436.97,
            608.28
          ],
          [
            1429.09,
            607.41
          ],
          [
            1421.22,
            606.52
          ],
          [
            1413.35,
            605.63
          ],
          [
            1405.48,
            604.73
          ],
          [
            1397.6,
            603.86
          ],
          [
            1389.72,
            603.03
          ],
          [
            1381.84,
            602.25
          ],
          [
            1373.95,
            601.53
          ],
          [
            1366.05,
            600.89
          ],
          [
            1358.15,
            600.37
          ],
          [
            1350.23,
            600.01
          ],
          [
            1342.32,
            599.69
          ],
          [
            1334.41,
            599.3
          ],
          [
            1326.5,
            598.85
          ],
          [
            1318.59,
            598.36
          ],
          [
            1310.68,
            597.85
          ],
          [
            1302.78,
            597.34
          ],
          [
            1294.87,
            596.84
          ],
          [
            1286.96,
            596.37
          ],
          [
            1279.05,
            595.95
          ],
          [
            1271.14,
            595.6
          ],
          [
            1263.22,
            595.34
          ],
          [
            1255.3,
            595.19
          ],
          [
            1247.38,
            595.18
          ],
          [
            1239.46,
            595.34
          ],
          [
            1231.54,
            595.7
          ],
          [
            1223.64,
            596.29
          ],
          [
            1215.77,
            597.16
          ],
          [
            1207.94,
            598.36
          ],
          [
            1200.18,
            599.96
          ],
          [
            1192.52,
            601.99
          ],
          [
            1184.97,
            604.38
          ],
          [
            1177.53,
            607.08
          ],
          [
            1170.2,
            610.09
          ],
          [
            1162.99,
            613.38
          ],
          [
            1155.92,
            616.94
          ],
          [
            1148.97,
            620.76
          ],
          [
            1142.17,
            624.82
          ],
          [
            1135.53,
            629.14
          ],
          [
            1129.06,
            633.71
          ],
          [
            1122.76,
            638.5
          ],
          [
            1116.64,
            643.54
          ],
          [
            1110.75,
            648.83
          ],
          [
            1105.12,
            654.41
          ],
          [
            1099.79,
            660.27
          ],
          [
            1095.21,
            666.71
          ],
          [
            1091.61,
            673.76
          ],
          [
            1088.96,
            681.22
          ],
          [
            1087.19,
            688.94
          ],
          [
            1086.0,
            696.77
          ],
          [
            1085.19,
            704.65
          ],
          [
            1084.56,
            712.55
          ],
          [
            1083.87,
            720.44
          ],
          [
            1082.86,
            728.29
          ],
          [
            1081.24,
            736.04
          ],
          [
            1078.68,
            743.54
          ],
          [
            1075.66,
            750.86
          ],
          [
            1072.37,
            758.07
          ],
          [
            1068.88,
            765.18
          ],
          [
            1065.23,
            772.21
          ],
          [
            1061.47,
            779.19
          ],
          [
            1057.63,
            786.11
          ],
          [
            1053.76,
            793.03
          ],
          [
            1050,
            800
          ],
          [
            1042.54,
            802.7
          ],
          [
            1035.14,
            805.56
          ],
          [
            1027.77,
            808.49
          ],
          [
            1020.41,
            811.45
          ],
          [
            1013.05,
            814.41
          ],
          [
            1005.68,
            817.34
          ],
          [
            998.3,
            820.25
          ],
          [
            990.91,
            823.12
          ],
          [
            983.5,
            825.95
          ],
          [
            976.06,
            828.72
          ],
          [
            968.6,
            831.41
          ],
          [
            961.11,
            834.02
          ],
          [
            953.6,
            836.56
          ],
          [
            946.05,
            839.0
          ],
          [
            938.45,
            841.29
          ],
          [
            930.82,
            843.44
          ],
          [
            923.14,
            845.43
          ],
          [
            915.42,
            847.23
          ],
          [
            907.64,
            848.78
          ],
          [
            899.8,
            850.02
          ],
          [
            891.92,
            850.87
          ],
          [
            884.0,
            851.37
          ],
          [
            876.07,
            851.55
          ],
          [
            868.14,
            851.46
          ],
          [
            860.21,
            851.13
          ],
          [
            852.3,
            850.6
          ],
          [
            844.4,
            849.9
          ],
          [
            836.51,
            849.06
          ],
          [
            828.64,
            848.12
          ],
          [
            820.77,
            847.1
          ],
          [
            812.91,
            846.04
          ],
          [
            805.05,
            844.96
          ],
          [
            797.19,
            843.9
          ],
          [
            789.32,
            842.89
          ],
          [
            781.44,
            841.97
          ],
          [
            773.55,
            841.18
          ],
          [
            765.64,
            840.55
          ],
          [
            757.72,
            840.15
          ],
          [
            749.79,
            840.0
          ],
          [
            741.86,
            840.08
          ],
          [
            733.93,
            840.31
          ],
          [
            726.0,
            840.66
          ],
          [
            718.08,
            841.11
          ],
          [
            710.17,
            841.67
          ],
          [
            702.26,
            842.3
          ],
          [
            694.36,
            843.01
          ],
          [
            686.47,
            843.76
          ],
          [
            678.57,
            844.56
          ],
          [
            670.68,
            845.39
          ],
          [
            662.8,
            846.22
          ],
          [
            654.91,
            847.05
          ],
          [
            647.01,
            847.85
          ],
          [
            639.12,
            848.6
          ],
          [
            631.21,
            849.27
          ],
          [
            623.3,
            849.81
          ],
          [
            615.38,
            850.2
          ],
          [
            607.45,
            850.47
          ],
          [
            599.52,
            850.65
          ],
          [
            591.59,
            850.73
          ],
          [
            583.65,
            850.73
          ],
          [
            575.72,
            850.65
          ],
          [
            567.79,
            850.51
          ],
          [
            559.86,
            850.32
          ],
          [
            551.93,
            850.12
          ],
          [
            544,
            850
          ]
        ]
      },
      "properties": {
        "id": "gameplay.road.2",
        "name": "Bottom approach to lower-left gate",
        "category": "gameplay",
        "kind": "enemy_path",
        "layer": 40,
        "playable": true,
        "insidePlayArea": true,
        "pathIndex": 2,
        "exitIndex": 1,
        "widthPx": 140.0,
        "lengthDesignUnits": 1141.1
      }
    },
    {
      "type": "Feature",
      "id": "gameplay.entry.2",
      "geometry": {
        "type": "Point",
        "coordinates": [
          1500.0,
          562.0
        ]
      },
      "properties": {
        "id": "gameplay.entry.2",
        "name": "Entrance 3",
        "category": "gameplay",
        "kind": "spawn_point",
        "layer": 75,
        "playable": true,
        "insidePlayArea": true,
        "pathIndex": 2
      }
    },
    {
      "type": "Feature",
      "id": "gameplay.road.3",
      "geometry": {
        "type": "LineString",
        "coordinates": [
          [
            2324.0,
            780.0
          ],
          [
            2316.07,
            779.4
          ],
          [
            2308.13,
            778.84
          ],
          [
            2300.19,
            778.29
          ],
          [
            2292.25,
            777.74
          ],
          [
            2284.31,
            777.18
          ],
          [
            2276.38,
            776.61
          ],
          [
            2268.44,
            776.03
          ],
          [
            2260.5,
            775.43
          ],
          [
            2252.57,
            774.82
          ],
          [
            2244.64,
            774.18
          ],
          [
            2236.71,
            773.52
          ],
          [
            2228.78,
            772.83
          ],
          [
            2220.86,
            772.1
          ],
          [
            2212.94,
            771.34
          ],
          [
            2205.02,
            770.53
          ],
          [
            2197.11,
            769.65
          ],
          [
            2189.22,
            768.65
          ],
          [
            2181.34,
            767.52
          ],
          [
            2173.48,
            766.29
          ],
          [
            2165.63,
            764.98
          ],
          [
            2157.79,
            763.63
          ],
          [
            2149.95,
            762.24
          ],
          [
            2142.12,
            760.85
          ],
          [
            2134.28,
            759.46
          ],
          [
            2126.44,
            758.09
          ],
          [
            2118.6,
            756.78
          ],
          [
            2110.74,
            755.53
          ],
          [
            2102.87,
            754.35
          ],
          [
            2094.98,
            753.28
          ],
          [
            2087.08,
            752.32
          ],
          [
            2079.17,
            751.5
          ],
          [
            2071.24,
            750.84
          ],
          [
            2063.3,
            750.36
          ],
          [
            2055.34,
            750.09
          ],
          [
            2047.39,
            750.03
          ],
          [
            2039.43,
            750.19
          ],
          [
            2031.48,
            750.52
          ],
          [
            2023.54,
            751.02
          ],
          [
            2015.61,
            751.67
          ],
          [
            2007.69,
            752.45
          ],
          [
            1999.79,
            753.36
          ],
          [
            1991.89,
            754.38
          ],
          [
            1984.02,
            755.5
          ],
          [
            1976.15,
            756.7
          ],
          [
            1968.29,
            757.97
          ],
          [
            1960.45,
            759.29
          ],
          [
            1952.61,
            760.65
          ],
          [
            1944.77,
            762.05
          ],
          [
            1936.94,
            763.46
          ],
          [
            1929.11,
            764.88
          ],
          [
            1921.28,
            766.29
          ],
          [
            1913.45,
            767.69
          ],
          [
            1905.61,
            769.05
          ],
          [
            1897.76,
            770.39
          ],
          [
            1889.92,
            771.75
          ],
          [
            1882.09,
            773.19
          ],
          [
            1874.28,
            774.68
          ],
          [
            1866.47,
            776.23
          ],
          [
            1858.68,
            777.82
          ],
          [
            1850.89,
            779.44
          ],
          [
            1843.1,
            781.1
          ],
          [
            1835.32,
            782.77
          ],
          [
            1827.55,
            784.45
          ],
          [
            1819.77,
            786.13
          ],
          [
            1811.99,
            787.81
          ],
          [
            1804.21,
            789.48
          ],
          [
            1796.42,
            791.12
          ],
          [
            1788.63,
            792.73
          ],
          [
            1780.83,
            794.31
          ],
          [
            1773.02,
            795.84
          ],
          [
            1765.2,
            797.32
          ],
          [
            1757.37,
            798.73
          ],
          [
            1749.53,
            800.08
          ],
          [
            1741.68,
            801.41
          ],
          [
            1733.85,
            802.79
          ],
          [
            1726.01,
            804.19
          ],
          [
            1718.18,
            805.61
          ],
          [
            1710.35,
            807.03
          ],
          [
            1702.52,
            808.44
          ],
          [
            1694.69,
            809.82
          ],
          [
            1686.84,
            811.17
          ],
          [
            1678.99,
            812.48
          ],
          [
            1671.13,
            813.72
          ],
          [
            1663.26,
            814.89
          ],
          [
            1655.38,
            815.97
          ],
          [
            1647.48,
            816.95
          ],
          [
            1639.57,
            817.83
          ],
          [
            1631.65,
            818.57
          ],
          [
            1623.72,
            819.17
          ],
          [
            1615.77,
            819.62
          ],
          [
            1607.82,
            819.9
          ],
          [
            1599.86,
            820.0
          ],
          [
            1591.91,
            819.88
          ],
          [
            1583.96,
            819.56
          ],
          [
            1576.01,
            819.05
          ],
          [
            1568.09,
            818.37
          ],
          [
            1560.17,
            817.54
          ],
          [
            1552.27,
            816.58
          ],
          [
            1544.39,
            815.51
          ],
          [
            1536.52,
            814.34
          ],
          [
            1528.66,
            813.09
          ],
          [
            1520.81,
            811.79
          ],
          [
            1512.97,
            810.44
          ],
          [
            1505.13,
            809.06
          ],
          [
            1497.29,
            807.67
          ],
          [
            1489.46,
            806.28
          ],
          [
            1481.62,
            804.92
          ],
          [
            1473.77,
            803.6
          ],
          [
            1465.92,
            802.33
          ],
          [
            1458.05,
            801.13
          ],
          [
            1450.17,
            800.02
          ],
          [
            1442.29,
            798.92
          ],
          [
            1434.42,
            797.75
          ],
          [
            1426.56,
            796.51
          ],
          [
            1418.71,
            795.22
          ],
          [
            1410.86,
            793.9
          ],
          [
            1403.01,
            792.56
          ],
          [
            1395.17,
            791.21
          ],
          [
            1387.33,
            789.87
          ],
          [
            1379.48,
            788.55
          ],
          [
            1371.63,
            787.26
          ],
          [
            1363.77,
            786.02
          ],
          [
            1355.9,
            784.84
          ],
          [
            1348.02,
            783.74
          ],
          [
            1340.12,
            782.74
          ],
          [
            1332.22,
            781.85
          ],
          [
            1324.29,
            781.11
          ],
          [
            1316.36,
            780.54
          ],
          [
            1308.41,
            780.16
          ],
          [
            1300.45,
            780.01
          ],
          [
            1292.5,
            780.09
          ],
          [
            1284.54,
            780.39
          ],
          [
            1276.6,
            780.88
          ],
          [
            1268.67,
            781.56
          ],
          [
            1260.76,
            782.42
          ],
          [
            1252.87,
            783.45
          ],
          [
            1245.0,
            784.63
          ],
          [
            1237.16,
            785.98
          ],
          [
            1229.34,
            787.47
          ],
          [
            1221.56,
            789.11
          ],
          [
            1213.8,
            790.88
          ],
          [
            1206.07,
            792.77
          ],
          [
            1198.37,
            794.77
          ],
          [
            1190.7,
            796.88
          ],
          [
            1183.05,
            799.1
          ],
          [
            1175.48,
            801.52
          ],
          [
            1168.11,
            804.51
          ],
          [
            1160.97,
            808.03
          ],
          [
            1154.02,
            811.9
          ],
          [
            1147.26,
            816.1
          ],
          [
            1140.59,
            820.44
          ],
          [
            1133.97,
            824.85
          ],
          [
            1127.3,
            829.19
          ],
          [
            1120.46,
            833.26
          ],
          [
            1113.34,
            836.8
          ],
          [
            1105.8,
            839.28
          ],
          [
            1097.91,
            839.83
          ],
          [
            1090.24,
            837.84
          ],
          [
            1083.27,
            834.04
          ],
          [
            1076.98,
            829.18
          ],
          [
            1071.2,
            823.71
          ],
          [
            1065.79,
            817.88
          ],
          [
            1060.6,
            811.84
          ],
          [
            1055.49,
            805.75
          ],
          [
            1050,
            800
          ],
          [
            1042.54,
            802.7
          ],
          [
            1035.14,
            805.56
          ],
          [
            1027.77,
            808.49
          ],
          [
            1020.41,
            811.45
          ],
          [
            1013.05,
            814.41
          ],
          [
            1005.68,
            817.34
          ],
          [
            998.3,
            820.25
          ],
          [
            990.91,
            823.12
          ],
          [
            983.5,
            825.95
          ],
          [
            976.06,
            828.72
          ],
          [
            968.6,
            831.41
          ],
          [
            961.11,
            834.02
          ],
          [
            953.6,
            836.56
          ],
          [
            946.05,
            839.0
          ],
          [
            938.45,
            841.29
          ],
          [
            930.82,
            843.44
          ],
          [
            923.14,
            845.43
          ],
          [
            915.42,
            847.23
          ],
          [
            907.64,
            848.78
          ],
          [
            899.8,
            850.02
          ],
          [
            891.92,
            850.87
          ],
          [
            884.0,
            851.37
          ],
          [
            876.07,
            851.55
          ],
          [
            868.14,
            851.46
          ],
          [
            860.21,
            851.13
          ],
          [
            852.3,
            850.6
          ],
          [
            844.4,
            849.9
          ],
          [
            836.51,
            849.06
          ],
          [
            828.64,
            848.12
          ],
          [
            820.77,
            847.1
          ],
          [
            812.91,
            846.04
          ],
          [
            805.05,
            844.96
          ],
          [
            797.19,
            843.9
          ],
          [
            789.32,
            842.89
          ],
          [
            781.44,
            841.97
          ],
          [
            773.55,
            841.18
          ],
          [
            765.64,
            840.55
          ],
          [
            757.72,
            840.15
          ],
          [
            749.79,
            840.0
          ],
          [
            741.86,
            840.08
          ],
          [
            733.93,
            840.31
          ],
          [
            726.0,
            840.66
          ],
          [
            718.08,
            841.11
          ],
          [
            710.17,
            841.67
          ],
          [
            702.26,
            842.3
          ],
          [
            694.36,
            843.01
          ],
          [
            686.47,
            843.76
          ],
          [
            678.57,
            844.56
          ],
          [
            670.68,
            845.39
          ],
          [
            662.8,
            846.22
          ],
          [
            654.91,
            847.05
          ],
          [
            647.01,
            847.85
          ],
          [
            639.12,
            848.6
          ],
          [
            631.21,
            849.27
          ],
          [
            623.3,
            849.81
          ],
          [
            615.38,
            850.2
          ],
          [
            607.45,
            850.47
          ],
          [
            599.52,
            850.65
          ],
          [
            591.59,
            850.73
          ],
          [
            583.65,
            850.73
          ],
          [
            575.72,
            850.65
          ],
          [
            567.79,
            850.51
          ],
          [
            559.86,
            850.32
          ],
          [
            551.93,
            850.12
          ],
          [
            544,
            850
          ]
        ]
      },
      "properties": {
        "id": "gameplay.road.3",
        "name": "Lower-right approach to lower-left gate",
        "category": "gameplay",
        "kind": "enemy_path",
        "layer": 40,
        "playable": true,
        "insidePlayArea": true,
        "pathIndex": 3,
        "exitIndex": 1,
        "widthPx": 140.0,
        "lengthDesignUnits": 1828.4
      }
    },
    {
      "type": "Feature",
      "id": "gameplay.entry.3",
      "geometry": {
        "type": "Point",
        "coordinates": [
          2324.0,
          780.0
        ]
      },
      "properties": {
        "id": "gameplay.entry.3",
        "name": "Entrance 4",
        "category": "gameplay",
        "kind": "spawn_point",
        "layer": 75,
        "playable": true,
        "insidePlayArea": true,
        "pathIndex": 3
      }
    },
    {
      "type": "Feature",
      "id": "gameplay.exit.0",
      "geometry": {
        "type": "Point",
        "coordinates": [
          544,
          1190
        ]
      },
      "properties": {
        "id": "gameplay.exit.0",
        "name": "Exit 1",
        "category": "gameplay",
        "kind": "goal_point",
        "layer": 75,
        "playable": true,
        "insidePlayArea": true,
        "exitIndex": 0,
        "pathIndexes": [
          0,
          1
        ]
      }
    },
    {
      "type": "Feature",
      "id": "gameplay.exit.1",
      "geometry": {
        "type": "Point",
        "coordinates": [
          544,
          850
        ]
      },
      "properties": {
        "id": "gameplay.exit.1",
        "name": "Exit 2",
        "category": "gameplay",
        "kind": "goal_point",
        "layer": 75,
        "playable": true,
        "insidePlayArea": true,
        "exitIndex": 1,
        "pathIndexes": [
          2,
          3
        ]
      }
    },
    {
      "type": "Feature",
      "id": "gameplay.tower_slot.1",
      "geometry": {
        "type": "Point",
        "coordinates": [
          1590.0,
          1360.0
        ]
      },
      "properties": {
        "id": "gameplay.tower_slot.1",
        "name": "Tower slot 1",
        "category": "gameplay",
        "kind": "tower_slot",
        "layer": 75,
        "playable": true,
        "insidePlayArea": true,
        "slotIndex": 0,
        "slotNumber": 1,
        "nearestPathCenterlineDistance": 122.7,
        "footprint": {
          "shape": "ellipse",
          "widthPx": 176.6,
          "heightPx": 96.55
        }
      }
    },
    {
      "type": "Feature",
      "id": "gameplay.tower_slot.2",
      "geometry": {
        "type": "Point",
        "coordinates": [
          915.0,
          1315.0
        ]
      },
      "properties": {
        "id": "gameplay.tower_slot.2",
        "name": "Tower slot 2",
        "category": "gameplay",
        "kind": "tower_slot",
        "layer": 75,
        "playable": true,
        "insidePlayArea": true,
        "slotIndex": 1,
        "slotNumber": 2,
        "nearestPathCenterlineDistance": 126.3,
        "footprint": {
          "shape": "ellipse",
          "widthPx": 176.6,
          "heightPx": 96.55
        }
      }
    },
    {
      "type": "Feature",
      "id": "gameplay.tower_slot.3",
      "geometry": {
        "type": "Point",
        "coordinates": [
          1990.0,
          1160.0
        ]
      },
      "properties": {
        "id": "gameplay.tower_slot.3",
        "name": "Tower slot 3",
        "category": "gameplay",
        "kind": "tower_slot",
        "layer": 75,
        "playable": true,
        "insidePlayArea": true,
        "slotIndex": 2,
        "slotNumber": 3,
        "nearestPathCenterlineDistance": 130.6,
        "footprint": {
          "shape": "ellipse",
          "widthPx": 176.6,
          "heightPx": 96.55
        }
      }
    },
    {
      "type": "Feature",
      "id": "gameplay.tower_slot.4",
      "geometry": {
        "type": "Point",
        "coordinates": [
          1195.0,
          1150.0
        ]
      },
      "properties": {
        "id": "gameplay.tower_slot.4",
        "name": "Tower slot 4",
        "category": "gameplay",
        "kind": "tower_slot",
        "layer": 75,
        "playable": true,
        "insidePlayArea": true,
        "slotIndex": 3,
        "slotNumber": 4,
        "nearestPathCenterlineDistance": 129.9,
        "footprint": {
          "shape": "ellipse",
          "widthPx": 176.6,
          "heightPx": 96.55
        }
      }
    },
    {
      "type": "Feature",
      "id": "gameplay.tower_slot.5",
      "geometry": {
        "type": "Point",
        "coordinates": [
          1805.0,
          1120.0
        ]
      },
      "properties": {
        "id": "gameplay.tower_slot.5",
        "name": "Tower slot 5",
        "category": "gameplay",
        "kind": "tower_slot",
        "layer": 75,
        "playable": true,
        "insidePlayArea": true,
        "slotIndex": 4,
        "slotNumber": 5,
        "nearestPathCenterlineDistance": 120.3,
        "footprint": {
          "shape": "ellipse",
          "widthPx": 176.6,
          "heightPx": 96.55
        }
      }
    },
    {
      "type": "Feature",
      "id": "gameplay.tower_slot.6",
      "geometry": {
        "type": "Point",
        "coordinates": [
          695.0,
          1065.0
        ]
      },
      "properties": {
        "id": "gameplay.tower_slot.6",
        "name": "Tower slot 6",
        "category": "gameplay",
        "kind": "tower_slot",
        "layer": 75,
        "playable": true,
        "insidePlayArea": true,
        "slotIndex": 5,
        "slotNumber": 6,
        "nearestPathCenterlineDistance": 124.7,
        "footprint": {
          "shape": "ellipse",
          "widthPx": 176.6,
          "heightPx": 96.55
        }
      }
    },
    {
      "type": "Feature",
      "id": "gameplay.tower_slot.7",
      "geometry": {
        "type": "Point",
        "coordinates": [
          875.0,
          1045.0
        ]
      },
      "properties": {
        "id": "gameplay.tower_slot.7",
        "name": "Tower slot 7",
        "category": "gameplay",
        "kind": "tower_slot",
        "layer": 75,
        "playable": true,
        "insidePlayArea": true,
        "slotIndex": 6,
        "slotNumber": 7,
        "nearestPathCenterlineDistance": 143.1,
        "footprint": {
          "shape": "ellipse",
          "widthPx": 176.6,
          "heightPx": 96.55
        }
      }
    },
    {
      "type": "Feature",
      "id": "gameplay.tower_slot.8",
      "geometry": {
        "type": "Point",
        "coordinates": [
          775.0,
          965.0
        ]
      },
      "properties": {
        "id": "gameplay.tower_slot.8",
        "name": "Tower slot 8",
        "category": "gameplay",
        "kind": "tower_slot",
        "layer": 75,
        "playable": true,
        "insidePlayArea": true,
        "slotIndex": 7,
        "slotNumber": 8,
        "nearestPathCenterlineDistance": 122.9,
        "footprint": {
          "shape": "ellipse",
          "widthPx": 176.6,
          "heightPx": 96.55
        }
      }
    },
    {
      "type": "Feature",
      "id": "gameplay.tower_slot.9",
      "geometry": {
        "type": "Point",
        "coordinates": [
          975.0,
          965.0
        ]
      },
      "properties": {
        "id": "gameplay.tower_slot.9",
        "name": "Tower slot 9",
        "category": "gameplay",
        "kind": "tower_slot",
        "layer": 75,
        "playable": true,
        "insidePlayArea": true,
        "slotIndex": 8,
        "slotNumber": 9,
        "nearestPathCenterlineDistance": 129.0,
        "footprint": {
          "shape": "ellipse",
          "widthPx": 176.6,
          "heightPx": 96.55
        }
      }
    },
    {
      "type": "Feature",
      "id": "gameplay.tower_slot.10",
      "geometry": {
        "type": "Point",
        "coordinates": [
          1325.0,
          905.0
        ]
      },
      "properties": {
        "id": "gameplay.tower_slot.10",
        "name": "Tower slot 10",
        "category": "gameplay",
        "kind": "tower_slot",
        "layer": 75,
        "playable": true,
        "insidePlayArea": true,
        "slotIndex": 9,
        "slotNumber": 10,
        "nearestPathCenterlineDistance": 122.4,
        "footprint": {
          "shape": "ellipse",
          "widthPx": 176.6,
          "heightPx": 96.55
        }
      }
    },
    {
      "type": "Feature",
      "id": "gameplay.tower_slot.11",
      "geometry": {
        "type": "Point",
        "coordinates": [
          2040.0,
          875.0
        ]
      },
      "properties": {
        "id": "gameplay.tower_slot.11",
        "name": "Tower slot 11",
        "category": "gameplay",
        "kind": "tower_slot",
        "layer": 75,
        "playable": true,
        "insidePlayArea": true,
        "slotIndex": 10,
        "slotNumber": 11,
        "nearestPathCenterlineDistance": 124.7,
        "footprint": {
          "shape": "ellipse",
          "widthPx": 176.6,
          "heightPx": 96.55
        }
      }
    },
    {
      "type": "Feature",
      "id": "gameplay.tower_slot.12",
      "geometry": {
        "type": "Point",
        "coordinates": [
          1625.0,
          690.0
        ]
      },
      "properties": {
        "id": "gameplay.tower_slot.12",
        "name": "Tower slot 12",
        "category": "gameplay",
        "kind": "tower_slot",
        "layer": 75,
        "playable": true,
        "insidePlayArea": true,
        "slotIndex": 11,
        "slotNumber": 12,
        "nearestPathCenterlineDistance": 128.6,
        "footprint": {
          "shape": "ellipse",
          "widthPx": 176.6,
          "heightPx": 96.55
        }
      }
    }
  ]
}
