{
  "type": "FeatureCollection",
  "name": "Dorchester Heights",
  "coordinateReferenceSystem": {
    "type": "local-cartesian",
    "note": "NOT WGS84. Canonical game units, lower-left origin, +y up.",
    "canvas": {
      "width": 2868.0,
      "height": 2064.0
    },
    "playArea": {
      "x": 474.0,
      "y": 492.0,
      "width": 1920.0,
      "height": 1080.0
    }
  },
  "metadata": {
    "level": 5,
    "levelId": "17914ebc-7052-490d-b606-afc1746da512",
    "levelName": "Dorchester Heights",
    "geometrySource": "Existing Db/DML/Levels SQL routes and tower slots; no route geometry changed."
  },
  "startingGold": 350,
  "lives": 20,
  "features": [
    {
      "type": "Feature",
      "id": "gameplay.path.0",
      "geometry": {
        "type": "LineString",
        "coordinates": [
          [
            717.5,
            568.0
          ],
          [
            720.3,
            570.8
          ],
          [
            723.1,
            573.7
          ],
          [
            726.0,
            576.5
          ],
          [
            728.9,
            579.2
          ],
          [
            731.8,
            582.0
          ],
          [
            734.6,
            584.8
          ],
          [
            737.5,
            587.5
          ],
          [
            740.4,
            590.3
          ],
          [
            743.3,
            593.1
          ],
          [
            746.1,
            595.9
          ],
          [
            749.0,
            598.7
          ],
          [
            751.9,
            601.5
          ],
          [
            754.8,
            604.2
          ],
          [
            757.6,
            607.0
          ],
          [
            760.5,
            609.8
          ],
          [
            763.3,
            612.7
          ],
          [
            766.1,
            615.5
          ],
          [
            769.0,
            618.3
          ],
          [
            771.9,
            621.1
          ],
          [
            774.6,
            624.0
          ],
          [
            777.5,
            626.8
          ],
          [
            780.2,
            629.7
          ],
          [
            783.0,
            632.5
          ],
          [
            785.9,
            635.4
          ],
          [
            788.6,
            638.2
          ],
          [
            791.4,
            641.2
          ],
          [
            794.1,
            644.0
          ],
          [
            796.9,
            647.0
          ],
          [
            799.6,
            649.8
          ],
          [
            802.4,
            652.8
          ],
          [
            805.0,
            655.8
          ],
          [
            807.8,
            658.7
          ],
          [
            810.5,
            661.7
          ],
          [
            813.1,
            664.6
          ],
          [
            815.9,
            667.6
          ],
          [
            818.5,
            670.5
          ],
          [
            821.2,
            673.5
          ],
          [
            823.9,
            676.5
          ],
          [
            826.5,
            679.5
          ],
          [
            829.2,
            682.5
          ],
          [
            831.9,
            685.5
          ],
          [
            834.5,
            688.5
          ],
          [
            837.1,
            691.5
          ],
          [
            839.8,
            694.5
          ],
          [
            842.4,
            697.5
          ],
          [
            845.0,
            700.5
          ],
          [
            847.7,
            703.5
          ],
          [
            850.3,
            706.5
          ],
          [
            852.9,
            709.5
          ],
          [
            855.5,
            712.5
          ],
          [
            858.1,
            715.6
          ],
          [
            860.8,
            718.7
          ],
          [
            863.4,
            721.7
          ],
          [
            866.0,
            724.7
          ],
          [
            868.5,
            727.8
          ],
          [
            871.1,
            730.8
          ],
          [
            873.7,
            733.9
          ],
          [
            876.2,
            737.0
          ],
          [
            878.9,
            740.0
          ],
          [
            881.4,
            743.1
          ],
          [
            884.0,
            746.2
          ],
          [
            886.5,
            749.2
          ],
          [
            889.0,
            752.3
          ],
          [
            891.5,
            755.5
          ],
          [
            894.1,
            758.5
          ],
          [
            896.6,
            761.7
          ],
          [
            899.1,
            764.8
          ],
          [
            901.6,
            767.9
          ],
          [
            904.1,
            771.0
          ],
          [
            906.5,
            774.2
          ],
          [
            909.0,
            777.3
          ],
          [
            911.5,
            780.5
          ],
          [
            914.0,
            783.6
          ],
          [
            916.5,
            786.8
          ],
          [
            918.9,
            789.9
          ],
          [
            921.4,
            793.0
          ],
          [
            923.9,
            796.2
          ],
          [
            926.3,
            799.3
          ],
          [
            928.8,
            802.5
          ],
          [
            931.2,
            805.7
          ],
          [
            933.6,
            808.8
          ],
          [
            936.0,
            812.0
          ],
          [
            938.5,
            815.2
          ],
          [
            940.9,
            818.4
          ],
          [
            943.4,
            821.6
          ],
          [
            945.8,
            824.8
          ],
          [
            948.1,
            828.0
          ],
          [
            950.5,
            831.2
          ],
          [
            952.9,
            834.5
          ],
          [
            955.2,
            837.7
          ],
          [
            957.6,
            840.9
          ],
          [
            959.9,
            844.2
          ],
          [
            962.2,
            847.4
          ],
          [
            964.5,
            850.7
          ],
          [
            966.8,
            854.0
          ],
          [
            969.1,
            857.2
          ],
          [
            971.4,
            860.5
          ],
          [
            973.6,
            863.9
          ],
          [
            975.8,
            867.2
          ],
          [
            978.0,
            870.5
          ],
          [
            980.1,
            873.9
          ],
          [
            982.3,
            877.3
          ],
          [
            984.4,
            880.7
          ],
          [
            986.5,
            884.1
          ],
          [
            988.6,
            887.5
          ],
          [
            990.6,
            891.0
          ],
          [
            992.6,
            894.4
          ],
          [
            994.6,
            897.9
          ],
          [
            996.6,
            901.3
          ],
          [
            998.5,
            904.8
          ],
          [
            1000.5,
            908.3
          ],
          [
            1002.5,
            911.8
          ],
          [
            1004.4,
            915.3
          ],
          [
            1006.3,
            918.8
          ],
          [
            1008.2,
            922.3
          ],
          [
            1010.1,
            925.9
          ],
          [
            1012.0,
            929.4
          ],
          [
            1013.9,
            933.0
          ],
          [
            1015.6,
            936.5
          ],
          [
            1017.5,
            940.1
          ],
          [
            1019.2,
            943.7
          ],
          [
            1021.0,
            947.2
          ],
          [
            1022.8,
            950.8
          ],
          [
            1024.5,
            954.5
          ],
          [
            1026.1,
            958.2
          ],
          [
            1027.7,
            961.8
          ],
          [
            1029.3,
            965.5
          ],
          [
            1030.8,
            969.2
          ],
          [
            1032.3,
            972.8
          ],
          [
            1033.8,
            976.6
          ],
          [
            1035.2,
            980.3
          ],
          [
            1036.5,
            984.1
          ],
          [
            1037.8,
            987.9
          ],
          [
            1039.0,
            991.7
          ],
          [
            1040.2,
            995.5
          ],
          [
            1041.2,
            999.4
          ],
          [
            1042.2,
            1003.2
          ],
          [
            1043.2,
            1007.2
          ],
          [
            1044.0,
            1011.1
          ],
          [
            1044.6,
            1015.0
          ],
          [
            1045.1,
            1019.0
          ],
          [
            1045.5,
            1023.0
          ],
          [
            1045.5,
            1027.0
          ],
          [
            1045.5,
            1031.0
          ],
          [
            1045.2,
            1035.0
          ],
          [
            1044.9,
            1039.0
          ],
          [
            1044.3,
            1042.9
          ],
          [
            1043.7,
            1046.8
          ],
          [
            1042.8,
            1050.8
          ],
          [
            1042.0,
            1054.7
          ],
          [
            1041.0,
            1058.5
          ],
          [
            1040.0,
            1062.4
          ],
          [
            1039.0,
            1066.3
          ],
          [
            1037.8,
            1070.1
          ],
          [
            1036.7,
            1074.0
          ],
          [
            1035.5,
            1077.8
          ],
          [
            1034.4,
            1081.6
          ],
          [
            1033.2,
            1085.5
          ],
          [
            1032.2,
            1089.3
          ],
          [
            1031.1,
            1093.2
          ],
          [
            1030.2,
            1097.0
          ],
          [
            1029.2,
            1101.0
          ],
          [
            1028.5,
            1104.8
          ],
          [
            1028.0,
            1108.8
          ],
          [
            1027.6,
            1112.8
          ],
          [
            1027.5,
            1116.8
          ],
          [
            1027.7,
            1120.8
          ],
          [
            1028.0,
            1124.8
          ],
          [
            1028.7,
            1128.7
          ],
          [
            1029.5,
            1132.7
          ],
          [
            1030.5,
            1136.5
          ],
          [
            1031.6,
            1140.3
          ],
          [
            1032.8,
            1144.2
          ],
          [
            1034.2,
            1147.9
          ],
          [
            1035.7,
            1151.6
          ],
          [
            1037.3,
            1155.3
          ],
          [
            1039.0,
            1159.0
          ],
          [
            1040.7,
            1162.5
          ],
          [
            1042.4,
            1166.2
          ],
          [
            1044.2,
            1169.7
          ],
          [
            1046.1,
            1173.2
          ],
          [
            1048.0,
            1176.8
          ],
          [
            1049.8,
            1180.3
          ],
          [
            1051.6,
            1183.9
          ],
          [
            1053.2,
            1187.5
          ],
          [
            1053.3,
            1187.8
          ]
        ]
      },
      "properties": {
        "id": "gameplay.path.0",
        "name": "gameplay.path.0",
        "category": "gameplay",
        "kind": "enemy_path",
        "layer": 75,
        "playable": true,
        "insidePlayArea": true,
        "pathIndex": 0,
        "widthPx": 140.0
      }
    },
    {
      "type": "Feature",
      "id": "gameplay.entry.0",
      "geometry": {
        "type": "Point",
        "coordinates": [
          717.5,
          568.0
        ]
      },
      "properties": {
        "id": "gameplay.entry.0",
        "name": "gameplay.entry.0",
        "category": "gameplay",
        "kind": "spawn_point",
        "layer": 75,
        "playable": true,
        "insidePlayArea": true,
        "pathIndex": 0
      }
    },
    {
      "type": "Feature",
      "id": "gameplay.path.1",
      "geometry": {
        "type": "LineString",
        "coordinates": [
          [
            2155.7,
            568.0
          ],
          [
            2152.8,
            570.8
          ],
          [
            2149.9,
            573.5
          ],
          [
            2147.0,
            576.3
          ],
          [
            2144.1,
            579.0
          ],
          [
            2141.2,
            581.7
          ],
          [
            2138.2,
            584.4
          ],
          [
            2135.2,
            587.1
          ],
          [
            2132.3,
            589.8
          ],
          [
            2129.3,
            592.5
          ],
          [
            2126.4,
            595.2
          ],
          [
            2123.4,
            598.0
          ],
          [
            2120.6,
            600.7
          ],
          [
            2117.7,
            603.5
          ],
          [
            2114.8,
            606.2
          ],
          [
            2111.8,
            609.0
          ],
          [
            2108.9,
            611.7
          ],
          [
            2106.1,
            614.5
          ],
          [
            2103.2,
            617.3
          ],
          [
            2100.4,
            620.2
          ],
          [
            2097.6,
            623.0
          ],
          [
            2094.8,
            625.8
          ],
          [
            2092.0,
            628.7
          ],
          [
            2089.2,
            631.6
          ],
          [
            2086.6,
            634.5
          ],
          [
            2083.8,
            637.5
          ],
          [
            2081.2,
            640.5
          ],
          [
            2078.5,
            643.5
          ],
          [
            2075.9,
            646.5
          ],
          [
            2073.3,
            649.5
          ],
          [
            2070.8,
            652.7
          ],
          [
            2068.3,
            655.8
          ],
          [
            2065.8,
            659.0
          ],
          [
            2063.4,
            662.1
          ],
          [
            2060.9,
            665.3
          ],
          [
            2058.6,
            668.5
          ],
          [
            2056.2,
            671.7
          ],
          [
            2053.8,
            674.9
          ],
          [
            2051.4,
            678.2
          ],
          [
            2049.1,
            681.4
          ],
          [
            2046.8,
            684.7
          ],
          [
            2044.5,
            688.0
          ],
          [
            2042.2,
            691.2
          ],
          [
            2040.0,
            694.5
          ],
          [
            2037.7,
            697.8
          ],
          [
            2035.5,
            701.2
          ],
          [
            2033.2,
            704.5
          ],
          [
            2031.0,
            707.8
          ],
          [
            2028.8,
            711.2
          ],
          [
            2026.7,
            714.5
          ],
          [
            2024.5,
            717.8
          ],
          [
            2022.4,
            721.2
          ],
          [
            2020.3,
            724.7
          ],
          [
            2018.2,
            728.0
          ],
          [
            2016.1,
            731.5
          ],
          [
            2014.0,
            734.9
          ],
          [
            2012.0,
            738.3
          ],
          [
            2010.0,
            741.8
          ],
          [
            2008.0,
            745.2
          ],
          [
            2006.0,
            748.7
          ],
          [
            2004.0,
            752.2
          ],
          [
            2002.0,
            755.7
          ],
          [
            2000.2,
            759.2
          ],
          [
            1998.2,
            762.8
          ],
          [
            1996.4,
            766.2
          ],
          [
            1994.5,
            769.8
          ],
          [
            1992.7,
            773.4
          ],
          [
            1991.0,
            777.0
          ],
          [
            1989.2,
            780.5
          ],
          [
            1987.5,
            784.2
          ],
          [
            1985.8,
            787.8
          ],
          [
            1984.1,
            791.4
          ],
          [
            1982.5,
            795.0
          ],
          [
            1980.8,
            798.8
          ],
          [
            1979.3,
            802.4
          ],
          [
            1977.8,
            806.1
          ],
          [
            1976.2,
            809.8
          ],
          [
            1974.8,
            813.5
          ],
          [
            1973.2,
            817.2
          ],
          [
            1971.8,
            821.0
          ],
          [
            1970.5,
            824.7
          ],
          [
            1969.0,
            828.5
          ],
          [
            1967.7,
            832.2
          ],
          [
            1966.4,
            836.0
          ],
          [
            1965.1,
            839.8
          ],
          [
            1963.8,
            843.6
          ],
          [
            1962.6,
            847.4
          ],
          [
            1961.3,
            851.2
          ],
          [
            1960.2,
            855.0
          ],
          [
            1959.0,
            858.8
          ],
          [
            1957.8,
            862.7
          ],
          [
            1956.8,
            866.5
          ],
          [
            1955.6,
            870.3
          ],
          [
            1954.5,
            874.2
          ],
          [
            1953.5,
            878.1
          ],
          [
            1952.5,
            882.0
          ],
          [
            1951.4,
            885.8
          ],
          [
            1950.4,
            889.7
          ],
          [
            1949.4,
            893.5
          ],
          [
            1948.5,
            897.5
          ],
          [
            1947.5,
            901.3
          ],
          [
            1946.6,
            905.2
          ],
          [
            1945.7,
            909.1
          ],
          [
            1944.8,
            913.0
          ],
          [
            1944.0,
            916.9
          ],
          [
            1943.1,
            920.8
          ],
          [
            1942.3,
            924.8
          ],
          [
            1941.5,
            928.7
          ],
          [
            1940.8,
            932.6
          ],
          [
            1940.0,
            936.5
          ],
          [
            1939.2,
            940.5
          ],
          [
            1938.6,
            944.4
          ],
          [
            1937.9,
            948.3
          ],
          [
            1937.3,
            952.3
          ],
          [
            1936.7,
            956.2
          ],
          [
            1936.1,
            960.2
          ],
          [
            1935.5,
            964.2
          ],
          [
            1935.0,
            968.2
          ],
          [
            1934.5,
            972.1
          ],
          [
            1934.1,
            976.1
          ],
          [
            1933.7,
            980.0
          ],
          [
            1933.3,
            984.0
          ],
          [
            1933.0,
            988.0
          ],
          [
            1932.7,
            992.0
          ],
          [
            1932.4,
            996.0
          ],
          [
            1932.2,
            1000.0
          ],
          [
            1932.0,
            1004.0
          ],
          [
            1931.9,
            1008.0
          ],
          [
            1931.8,
            1012.0
          ],
          [
            1931.8,
            1016.0
          ],
          [
            1931.9,
            1020.0
          ],
          [
            1932.1,
            1024.0
          ],
          [
            1932.4,
            1028.0
          ],
          [
            1932.8,
            1032.0
          ],
          [
            1933.3,
            1035.9
          ],
          [
            1933.9,
            1039.9
          ],
          [
            1934.5,
            1043.8
          ],
          [
            1935.3,
            1047.8
          ],
          [
            1936.0,
            1051.7
          ],
          [
            1936.9,
            1055.6
          ],
          [
            1937.8,
            1059.5
          ],
          [
            1938.7,
            1063.4
          ],
          [
            1939.6,
            1067.3
          ],
          [
            1940.5,
            1071.2
          ],
          [
            1941.5,
            1075.0
          ],
          [
            1942.5,
            1079.0
          ],
          [
            1943.4,
            1082.8
          ],
          [
            1944.3,
            1086.7
          ],
          [
            1945.2,
            1090.6
          ],
          [
            1946.0,
            1094.5
          ],
          [
            1946.8,
            1098.5
          ],
          [
            1947.5,
            1102.4
          ],
          [
            1948.1,
            1106.3
          ],
          [
            1948.5,
            1110.3
          ],
          [
            1948.8,
            1114.3
          ],
          [
            1949.0,
            1118.3
          ],
          [
            1949.0,
            1122.3
          ],
          [
            1948.7,
            1126.3
          ],
          [
            1948.3,
            1130.3
          ],
          [
            1947.8,
            1134.2
          ],
          [
            1947.1,
            1138.2
          ],
          [
            1946.3,
            1142.1
          ],
          [
            1945.5,
            1146.0
          ],
          [
            1944.5,
            1149.9
          ],
          [
            1943.3,
            1153.8
          ],
          [
            1942.2,
            1157.5
          ],
          [
            1941.0,
            1161.3
          ],
          [
            1939.7,
            1165.2
          ],
          [
            1938.3,
            1169.0
          ],
          [
            1937.0,
            1172.7
          ],
          [
            1935.7,
            1176.5
          ],
          [
            1934.2,
            1180.2
          ],
          [
            1933.0,
            1184.0
          ],
          [
            1931.8,
            1187.8
          ]
        ]
      },
      "properties": {
        "id": "gameplay.path.1",
        "name": "gameplay.path.1",
        "category": "gameplay",
        "kind": "enemy_path",
        "layer": 75,
        "playable": true,
        "insidePlayArea": true,
        "pathIndex": 1,
        "widthPx": 140.0
      }
    },
    {
      "type": "Feature",
      "id": "gameplay.entry.1",
      "geometry": {
        "type": "Point",
        "coordinates": [
          2155.7,
          568.0
        ]
      },
      "properties": {
        "id": "gameplay.entry.1",
        "name": "gameplay.entry.1",
        "category": "gameplay",
        "kind": "spawn_point",
        "layer": 75,
        "playable": true,
        "insidePlayArea": true,
        "pathIndex": 1
      }
    },
    {
  "type": "Feature",
  "id": "gameplay.exit.0",
  "geometry": {
    "type": "Point",
    "coordinates": [
      1053.3,
      1187.8
    ]
  },
  "properties": {
    "id": "gameplay.exit.0",
    "name": "gameplay.exit.0",
    "category": "gameplay",
    "kind": "goal_point",
    "layer": 75,
    "playable": true,
    "insidePlayArea": true,
    "pathIndexes": [
      0
    ]
  }
},
    {
  "type": "Feature",
  "id": "gameplay.exit.1",
  "geometry": {
    "type": "Point",
    "coordinates": [
      1931.8,
      1187.8
    ]
  },
  "properties": {
    "id": "gameplay.exit.1",
    "name": "gameplay.exit.1",
    "category": "gameplay",
    "kind": "goal_point",
    "layer": 75,
    "playable": true,
    "insidePlayArea": true,
    "pathIndexes": [
      1
    ]
  }
},
    {
      "type": "Feature",
      "id": "gameplay.tower_slot.1",
      "geometry": {
        "type": "Point",
        "coordinates": [
          888.0,
          1122.4
        ]
      },
      "properties": {
        "id": "gameplay.tower_slot.1",
        "name": "gameplay.tower_slot.1",
        "category": "gameplay",
        "kind": "tower_slot",
        "layer": 75,
        "playable": true,
        "insidePlayArea": true,
        "slotIndex": 0,
        "slotNumber": 1
      }
    },
    {
      "type": "Feature",
      "id": "gameplay.tower_slot.2",
      "geometry": {
        "type": "Point",
        "coordinates": [
          2086.8,
          826.2
        ]
      },
      "properties": {
        "id": "gameplay.tower_slot.2",
        "name": "gameplay.tower_slot.2",
        "category": "gameplay",
        "kind": "tower_slot",
        "layer": 75,
        "playable": true,
        "insidePlayArea": true,
        "slotIndex": 1,
        "slotNumber": 2
      }
    },
    {
      "type": "Feature",
      "id": "gameplay.tower_slot.3",
      "geometry": {
        "type": "Point",
        "coordinates": [
          2024.8,
          962.3
        ]
      },
      "properties": {
        "id": "gameplay.tower_slot.3",
        "name": "gameplay.tower_slot.3",
        "category": "gameplay",
        "kind": "tower_slot",
        "layer": 75,
        "playable": true,
        "insidePlayArea": true,
        "slotIndex": 2,
        "slotNumber": 3
      }
    },
    {
      "type": "Feature",
      "id": "gameplay.tower_slot.4",
      "geometry": {
        "type": "Point",
        "coordinates": [
          1142.9,
          896.8
        ]
      },
      "properties": {
        "id": "gameplay.tower_slot.4",
        "name": "gameplay.tower_slot.4",
        "category": "gameplay",
        "kind": "tower_slot",
        "layer": 75,
        "playable": true,
        "insidePlayArea": true,
        "slotIndex": 3,
        "slotNumber": 4
      }
    },
    {
      "type": "Feature",
      "id": "gameplay.tower_slot.5",
      "geometry": {
        "type": "Point",
        "coordinates": [
          927.6,
          938.2
        ]
      },
      "properties": {
        "id": "gameplay.tower_slot.5",
        "name": "gameplay.tower_slot.5",
        "category": "gameplay",
        "kind": "tower_slot",
        "layer": 75,
        "playable": true,
        "insidePlayArea": true,
        "slotIndex": 4,
        "slotNumber": 5
      }
    },
    {
      "type": "Feature",
      "id": "gameplay.tower_slot.6",
      "geometry": {
        "type": "Point",
        "coordinates": [
          1813.0,
          1075.9
        ]
      },
      "properties": {
        "id": "gameplay.tower_slot.6",
        "name": "gameplay.tower_slot.6",
        "category": "gameplay",
        "kind": "tower_slot",
        "layer": 75,
        "playable": true,
        "insidePlayArea": true,
        "slotIndex": 5,
        "slotNumber": 6
      }
    },
    {
      "type": "Feature",
      "id": "gameplay.tower_slot.7",
      "geometry": {
        "type": "Point",
        "coordinates": [
          1105.0,
          1062.2
        ]
      },
      "properties": {
        "id": "gameplay.tower_slot.7",
        "name": "gameplay.tower_slot.7",
        "category": "gameplay",
        "kind": "tower_slot",
        "layer": 75,
        "playable": true,
        "insidePlayArea": true,
        "slotIndex": 6,
        "slotNumber": 7
      }
    },
    {
      "type": "Feature",
      "id": "gameplay.tower_slot.8",
      "geometry": {
        "type": "Point",
        "coordinates": [
          1794.0,
          907.2
        ]
      },
      "properties": {
        "id": "gameplay.tower_slot.8",
        "name": "gameplay.tower_slot.8",
        "category": "gameplay",
        "kind": "tower_slot",
        "layer": 75,
        "playable": true,
        "insidePlayArea": true,
        "slotIndex": 7,
        "slotNumber": 8
      }
    },
    {
      "type": "Feature",
      "id": "gameplay.tower_slot.9",
      "geometry": {
        "type": "Point",
        "coordinates": [
          1893.9,
          755.7
        ]
      },
      "properties": {
        "id": "gameplay.tower_slot.9",
        "name": "gameplay.tower_slot.9",
        "category": "gameplay",
        "kind": "tower_slot",
        "layer": 75,
        "playable": true,
        "insidePlayArea": true,
        "slotIndex": 8,
        "slotNumber": 9
      }
    },
    {
      "type": "Feature",
      "id": "gameplay.tower_slot.10",
      "geometry": {
        "type": "Point",
        "coordinates": [
          1046.5,
          757.4
        ]
      },
      "properties": {
        "id": "gameplay.tower_slot.10",
        "name": "gameplay.tower_slot.10",
        "category": "gameplay",
        "kind": "tower_slot",
        "layer": 75,
        "playable": true,
        "insidePlayArea": true,
        "slotIndex": 9,
        "slotNumber": 10
      }
    },
    {
      "type": "Feature",
      "id": "gameplay.call_wave_button.0",
      "geometry": {
        "type": "Point",
        "coordinates": [
          794.1,
          644.0
        ]
      },
      "properties": {
        "id": "gameplay.call_wave_button.0",
        "name": "gameplay.call_wave_button.0",
        "category": "gameplay",
        "kind": "call_wave_button",
        "layer": 100,
        "playable": true,
        "insidePlayArea": true,
        "pathIndices": [
          0
        ]
      }
    },
    {
      "type": "Feature",
      "id": "gameplay.call_wave_button.1",
      "geometry": {
        "type": "Point",
        "coordinates": [
          2078.5,
          643.5
        ]
      },
      "properties": {
        "id": "gameplay.call_wave_button.1",
        "name": "gameplay.call_wave_button.1",
        "category": "gameplay",
        "kind": "call_wave_button",
        "layer": 100,
        "playable": true,
        "insidePlayArea": true,
        "pathIndices": [
          1
        ]
      }
    },
    {
      "type": "Feature",
      "id": "gameplay.hero_spawn.primary",
      "geometry": {
        "type": "Point",
        "coordinates": [
          1053.3,
          1208.361448974707
        ]
      },
      "properties": {
        "id": "gameplay.hero_spawn.primary",
        "name": "Primary hero start",
        "category": "gameplay",
        "kind": "hero_spawn",
        "layer": 75,
        "playable": true,
        "insidePlayArea": true,
        "heroRoles": [
          "primary"
        ]
      }
    }
  ],
  "heroCount": 1
}
